Departamento,Tipo,Nombre,Direccion,Telefono,Latitud,Longitud,Fuente
La Paz,Mercado,Sánchez Lima,C. Canónigo Ayllón,null,-68.13679009,-16.50795394,gamlp
La Paz,Mercado,4 de Abril,"Av. Marcelo Quiroga Santa Cruz, entre C. 14 de Junio y C. Héroes del Chaco",null,-68.14581988,-16.52213234,gamlp
La Paz,Mercado,Kilómetro 7,Av. Quiroga Santa Cruz Esq. C. 6 de Agosto,null,-68.14329644,-16.52297656,gamlp
La Paz,Mercado,Bolívar,Av. Jaime Freyre Esq. C. Alberto Ostria,null,-68.14112784,-16.51390619,gamlp
La Paz,Mercado,Stronguest,Av. Víctor Agustín Ugarte,null,-68.13988843,-16.51589556,gamlp
La Paz,Mercado,Las Rosas Cotahuma,"Pza. De la Democracia, C. Machicao",null,-68.14400009,-16.51559974,gamlp
La Paz,Mercado,Raúl Salmón,Av. Mario Mercado Vaca Guzmán Esq. C. 5-Quiswaras,null,-68.12347904,-16.52813449,gamlp
La Paz,Mercado,El Rosal,Av. Mario Mercado,null,-68.13345781,-16.53485232,gamlp
La Paz,Mercado,Vergel Llojeta,Av. Buenos Aires,null,-68.14029829,-16.53422988,gamlp
La Paz,Mercado,Las Lomas,Av. Buenos Aires,null,-68.13890725,-16.52261103,gamlp
La Paz,Mercado,Popular Pura Pura,C. Daniel Salamanca,null,-68.15084741,-16.48777874,gamlp
La Paz,Mercado,21 de Enero,C. 3,null,-68.14956583,-16.45672709,gamlp
La Paz,Mercado,Haití,C. Haití Esq. C. Trinidad Tobago,null,-68.12260576,-16.49087575,gamlp
La Paz,Mercado,Miraflores,C. Díaz Romero,null,-68.1217762,-16.50127524,gamlp
La Paz,Supermercado,Ketal S.A.,Av. Busch # 1994,null,-68.12114385,-16.50254307,gamlp
La Paz,Supermercado,Fidalga,Av. Saavedra # 1963,null,-68.1224613,-16.50190275,gamlp
La Paz,Mercado,San José de Mallasilla,Av. Altamirano,null,-68.10068095,-16.56680922,gamlp
La Paz,Mercado,Mallasa,Av. Florida,null,-68.0869349,-16.57221479,gamlp
La Paz,Mercado,La Portada,C. Justo Germán Esq. C. Yapacani,null,-68.1669592,-16.48930369,gamlp
La Paz,Mercado,Santiago de Munaypata,Av. Desaguadero Esq. C. Río Calvario,null,-68.15632971,-16.48992616,gamlp
La Paz,Mercado,San José de Munaypata,C. Cristo Vencedor Esq. C. San José,null,-68.15861901,-16.48913935,gamlp
La Paz,Mercado,El Carmen,Av. Entre Ríos Esq. C. Damas de Cotagaita,null,-68.15609425,-16.49727771,gamlp
La Paz,Mercado,El Tejar,C. José María Asín Esq. Av. Kollasuyo,null,-68.15204423,-16.49532548,gamlp
La Paz,Mercado,Las Nieves,Av. Utapulpera Esq. C. Echazu,null,-68.15740277,-16.49714811,gamlp
La Paz,Mercado,Villa Victoria,C. Virrey Toledo,null,-68.15159511,-16.49034092,gamlp
La Paz,Mercado,Alto Mariscal Santa Cruz,Av. Entre Ríos,null,-68.16052123,-16.4931185,gamlp
La Paz,Mercado,Bajo Mariscal Santa Cruz,Av. Alcides Arguedas Esq. C. Yacuma,null,-68.15834684,-16.49263727,gamlp
La Paz,Mercado,Las Flores,Av. Bautista Esq. C. Baltazar Alquiza,null,-68.15110064,-16.49534247,gamlp
La Paz,Mercado,Vicente Ochoa,Av. Buenos Aires Esq. C. Vicente Ochoa,null,-68.14428114,-16.49802603,gamlp
La Paz,Mercado,Uruguay,Av. Max Paredes Esq. C. Graneros,null,-68.14367173,-16.49721796,gamlp
La Paz,Mercado,Calatayud,C. Calatayud Esq. Av. Baptista,null,-68.14760745,-16.49548317,gamlp
La Paz,Mercado,Los Andes,C. Manuel Cosio Esq. Av. Los Andes,null,-68.14830207,-16.49875052,gamlp
La Paz,Mercado,Obispo Indaburo,Av. Buenos Aires Esq. C. Antonio Gallardo,null,-68.14553455,-16.50112109,gamlp
La Paz,Mercado,Francisco Cernadas,C. Benigno Loza Esq. C. Juan de la Cruz Monje,null,-68.12544057,-16.48373902,gamlp
La Paz,Supermercado,Ketal S.A.,Av. Arce # 2588 Esq. C. Pinilla,null,-68.12340978,-16.51045528,gamlp
La Paz,Supermercado,Fidalga,C. Capitán Ravel # 2441,null,-68.12418954,-16.50776135,gamlp
La Paz,Supermercado,Fidalga,C. Colón # 570,null,-68.13248614,-16.49668647,gamlp
La Paz,Mercado,Modelo Yungas,C. Yungas Esq. C. Uchumayo,null,-68.12929843,-16.49705063,gamlp
La Paz,Mercado,Lanza,"Pza. Pérez Velasco, entre C. Evaristo Valle y C. Figueroa",null,-68.13746813,-16.49475187,gamlp
La Paz,Mercado,Camacho,Av. Simón Bolívar Esq. C. Bueno,null,-68.13157068,-16.50044501,gamlp
La Paz,Mercado,Concepción Kupini,Av. Armando Escobar Uría,null,-68.09989686,-16.50901378,gamlp
La Paz,Mercado,German Jordán,C. Héroes del Chaco Esq. Av. Costanera,null,-68.11294265,-16.51001991,gamlp
La Paz,Mercado,Villa Armonía,C. Nieves Linares y C. Juan XXIII,null,-68.1106118,-16.50875849,gamlp
La Paz,Mercado,8 de Septiembre,Av. Costanera,null,-68.11346582,-16.51687529,gamlp
La Paz,Mercado,San Isidro,C. Nieves Linares Esq. C. Boris Banzer,null,-68.10612833,-16.51091811,gamlp
La Paz,Mercado,Urkupiña Bajo San Isidro,C. Donoso Torres Esq. C. Los Sauces,null,-68.10763294,-16.51202727,gamlp
La Paz,Supermercado,Hipermaxi S.A.,C. Rosendo Gutierrez # 469,null,-68.12788989,-16.50948379,gamlp
La Paz,Supermercado,Ketal S.A.,Pza. España Esq. C. Méndez Arcos # 710,null,-68.129005,-16.51454482,gamlp
La Paz,Supermercado,Fidalga,Av. Sánchez Lima # 2362,null,-68.12790413,-16.51050963,gamlp
La Paz,Mercado,El Carmen Sopocachi,C. Presbitero Medina,null,-68.12632967,-16.51470475,gamlp
La Paz,Mercado,Sopocachi,C. Fernando Guachalla,null,-68.12958783,-16.50943945,gamlp
La Paz,Mercado,Félix Hinojosa,Av. Buenos Aires Esq. C. Alcoreza,null,-68.14454232,-16.50335148,gamlp
La Paz,Mercado,Villa Nueva Potosí,C. Villamil de Rada Esq. C. Martin Monje,null,-68.14934635,-16.50542156,gamlp
La Paz,Mercado,Sagrado Corazón de Jesús,C. Fortunato Pinto Esq. Av. Eduardo Abaroa,null,-68.15315556,-16.5007872,gamlp
La Paz,Mercado,San Cristóbal,C. Manuel Jofre Esq. Av. Feliciano Kantuta,null,-68.14564762,-16.51043106,gamlp
La Paz,Mercado,Amapola,C. Zoilo Flores y Pedro Rodríguez,null,-68.13900776,-16.50067496,gamlp
La Paz,Mercado,Belén,C. Rodríguez y Zoilo Flores Pedro,null,-68.13946385,-16.50079488,gamlp
La Paz,Mercado,Comedor Rodríguez,C. Max Paredes Esq. C. Emilio Calderón,null,-68.13966027,-16.50038928,gamlp
La Paz,Mercado,Rodríguez,C. Pedro Rodríguez Esq. C. Maximiliano Paredes,null,-68.13901116,-16.50020141,gamlp
La Paz,Supermercado,Ketal S.A.,C. Almirante Grau # 349,null,-68.13592972,-16.5017601,gamlp
La Paz,Mercado,14 de Septiembre,Av. Monje Gutierrez,null,-68.09954908,-16.52834014,gamlp
La Paz,Supermercado,Hipermaxi S.A.,Av. 14 de Septiembre # 6020,null,-68.10340087,-16.52851469,gamlp
La Paz,Supermercado,Súper 10,Av. H. Siles # 455 Esq. C. 10,null,-68.10705941,-16.52659001,gamlp
La Paz,Supermercado,Ketal S.A.,C. 16 # 460,null,-68.10201369,-16.52891707,gamlp
La Paz,Supermercado,Andy´s,C. 17,null,-68.10070391,-16.5298352,gamlp
La Paz,Mercado,16 de julio,Av. Héctor Ormachea Zalles Esq. C. Carlos Sánchez Lopera,null,-68.10246333,-16.52987416,gamlp
La Paz,Mercado,San Antonio,Av. 14 de Septiembre entre C. 11 - Mía Duberty Linndeman y C. 12 - Jaime Otero Calderón,null,-68.10547448,-16.52704917,gamlp
La Paz,Mercado,Corazón de Jesús,Av. Max Portugal Zamora,null,-68.10390366,-16.52382639,gamlp
La Paz,Mercado,Alto Seguencoma,"Av. del Policía, entre C. 3-B y C. 3-C",null,-68.10422181,-16.53399873,gamlp
La Paz,Mercado,La Merced,C. 34 de Cota Cota,null,-68.05804477,-16.54205694,gamlp
La Paz,Supermercado,Andy´s,Av. Montenegro # 874,null,-68.07822085,-16.54279094,gamlp
La Paz,Supermercado,Ketal S.A.,C. 21,null,-68.07801838,-16.5403161,gamlp
La Paz,Supermercado,Ketal S.A.,Av. Ballivián # 7967,null,-68.08388494,-16.53934517,gamlp
La Paz,Mercado,Chasquipampa,Av. Defensores del Chaco Esq. C. Tte. Gilberto Zilveti Antelo,null,-68.04860958,-16.5372175,gamlp
La Paz,Supermercado,Hipermaxi S.A.,Av. José María Aguirre Achá # 85,null,-68.07013005,-16.54577693,gamlp
La Paz,Mercado,24 de Septiembre,C. 25 - Arturo Fortunato,null,-68.07248351,-16.54123821,gamlp
La Paz,Mercado,Teófilo Miranda,Av. 31 de Octubre,null,-68.11630594,-16.49716938,gamlp
La Paz,Mercado,Modelo San Antonio,Av. Josefa Mujia,null,-68.10842896,-16.49805657,gamlp
La Paz,Mercado,Arapata (La Merced),C. Villa Aspiazu Esq. C. Pariguaya,null,-68.11809032,-16.4710545,gamlp
La Paz,Mercado,15 de Abril,"Av. 15 de Abril, entre C. Chulumani y C. Virgen del Carmen",null,-68.11803118,-16.47654927,gamlp
La Paz,Mercado,Villa Fátima,Av. Tejada Sorzano Esq. C. Miguel Aparicio,null,-68.12120052,-16.48040089,gamlp
La Paz,Mercado,Las Delicias,Av. Las Delicias Esq. C. San Buenaventura,null,-68.12354858,-16.47696941,gamlp
La Paz,Mercado,Kollasuyo,Av. Tito Yupanqui,null,-68.11665722,-16.49517601,gamlp
La Paz,Mercado,Calama,C. Calama Esq. C. Batallón Victoria,null,-68.13717108,-16.48974828,gamlp
La Paz,Mercado,Bolívar Central,C. Bolívar Esq. C. Catacora,null,-68.13174863,-16.49357954,gamlp
La Paz,Mercado,Virgen de las Nieves (Achachicala),Av. Alfonso Ramos Gavilán Esq. C. Antonio de la Calancha,null,-68.14940578,-16.47587195,gamlp
La Paz,Mercado,Antofagasta,Av. Chacaltaya Esq. C. Beni,null,-68.14044759,-16.48782745,gamlp
La Paz,Mercado,German Busch,C. Maximiliano Ortiz,null,-68.13983812,-16.48213151,gamlp
La Paz,Mercado,Maracaná,Av. Juan José Torrez,null,-68.13703225,-16.48563465,gamlp
La Paz,Mercado,Manuel Hoyos,Av. Juan José Torres,null,-68.13456841,-16.48586426,gamlp
La Paz,Mercado,Killi Killi,C. Heroínas 16 de Julio Esq. C. Víctor Ustariz,null,-68.12740398,-16.49450706,gamlp
La Paz,Mercado,10 de Enero,Av. Circunvalación C. 12,null,-68.10444874,-16.50155993,gamlp
La Paz,Mercado,Nuestra Señora de La Paz,Av. Ciudad del Niño,null,-68.10287765,-16.4955177,gamlp
La Paz,Mercado,San Juan,C. D Esq. C. 6,null,-68.10406055,-16.49114456,gamlp
La Paz,Supermercado,Hipermaxi S.A.,Av. Strongest # 100,null,-68.06210725,-16.51888244,gamlp
La Paz,Supermercado,Andy´s,Av. Garcia Lanza #4,null,-68.07255631,-16.53119431,gamlp
La Paz,Mercado,Modelo Achumani,Av. Manuel Víctor García Lanza Esq. C. 16,null,-68.07352528,-16.53087994,gamlp
La Paz,Supermercado,Ketal S.A.,Av. Alexander # 108,null,-68.07198423,-16.53450726,gamlp
La Paz,Supermercado,Ketal S.A.,Av. Rafael Pabón,null,-68.08663115,-16.53356845,gamlp
La Paz,Mercado,Modelo Irpavi,Av. Segundo Altamirano Esq. C. 6-Julio de la Vega Iturri,null,-68.08726257,-16.52473412,gamlp
La Paz,Mercado,Virgen de las Nieves (Irpavi),Av. Circunvalación,null,-68.08439559,-16.51623866,gamlp
La Paz,Feria,Alberto Ostria,A. Jaimes Freire,null,-68.1375887,-16.51572037,gamlp
La Paz,Feria,Zoilo Flores,Calle Zoilo Flores esq alm grau,null,-68.13929734,-16.50608447,gamlp
La Paz,Feria,Luis Lara,Calle Luis Lara,null,-68.14020805,-16.50195552,gamlp
La Paz,Feria,Benancio Burgoa,Calle Rodriguez,null,-68.13796378,-16.49821538,gamlp
La Paz,Feria,Sagarnaga,General Gonzales y sagarnaga,null,-68.13974249,-16.49960027,gamlp
La Paz,Feria,Eloy Salmon,Antonio Gallardo,null,-68.14396858,-16.49915842,gamlp
La Paz,Feria,Munaypata,Av. Florida,null,-68.1604068,-16.4870326,gamlp
La Paz,Feria,Miguel Aparicio,Av. Tejada Sorzano,null,-68.12760628,-16.48571026,gamlp
La Paz,Feria,31 de octubre,Av. 31 de octubre,null,-68.11634169,-16.49031226,gamlp
La Paz,Feria,Ciudad del Niño,Av. Ciudad del Niño,null,-68.09836145,-16.49327763,gamlp
La Paz,Feria,Las Nieves,Av. Las Nieves,null,-68.0988804,-16.49683855,gamlp
La Paz,Feria,8 de Calacoto,Calle 8 de Calacoto,null,-68.09195051,-16.54178112,gamlp
La Paz,Feria,Costanerita,Av. Costanerita,null,-68.11151244,-16.52690222,gamlp
La Paz,Feria,21 de Calacoto,Av. 21 de Calacoto,null,-68.0770569,-16.54417924,gamlp
La Paz,Feria,Max Portugal,Av. Max Portugal,null,-68.10729602,-16.52038706,gamlp
La Paz,Feria,Achumani,Calle 15 Achumani,null,-68.07397282,-16.53181971,gamlp
La Paz,Feria,Bolivar,Mercado Bolivar,null,-68.14165903,-16.51332576,gamlp
La Paz,Feria,Stronguest,Mercado Stronguest,null,-68.13951597,-16.51600789,gamlp
La Paz,MercadoMovil,Valle de la Luna,Av. Mallasa Altura Banderas,null,-68.10038302,-16.56248746,gamlp
La Paz,MercadoMovil,Plaza Uyuni,Plaza Uyuni,null,-68.12428376,-16.49695645,gamlp
La Paz,MercadoMovil,Plaza Lira,"Plaza Lira, Sopocachi",null,-68.13418394,-16.51354503,gamlp
La Paz,MercadoMovil,Plaza Bolivia,Plaza Bolivia,null,-68.12659771,-16.5068596,gamlp
La Paz,MercadoMovil,Mariscal Santa Cruz,Av. Segundo Bascones,null,-68.16304059,-16.49347056,gamlp
La Paz,MercadoMovil,Kupini,"Av. Escobar Uria y Periferica, interseccion Jockoni y Callapa",null,-68.09447969,-16.50580812,gamlp
La Paz,MercadoMovil,Jupapina,Av. Tricentenario c. 5 Jupapina,null,-68.07084815,-16.59134554,gamlp
La Paz,MercadoMovil,Heroes del Chaco,C. Heroes del Chaco entre 1 y 2,null,-68.11063482,-16.51254972,gamlp
La Paz,MercadoMovil,Hernando Siles,Av. Hernando Siles,null,-68.10502905,-16.55706663,gamlp
La Paz,MercadoMovil,Cosmos 85,Cosmos 85 parada del pumakatari,null,-68.0942647,-16.48669262,gamlp
La Paz,MercadoMovil,Chuquiaguillo,Av. Ramiro Castillo,null,-68.10214186,-16.45941393,gamlp
La Paz,MercadoMovil,Casegural,Wilacota,null,-68.04123206,-16.53221486,gamlp
La Paz,MercadoMovil,Caja Ferroviaria,"Caja Ferroviaria, Altura Rotonda",null,-68.14918619,-16.45012277,gamlp
La Paz,MercadoMovil,Baden Pawell,Plaza Baden Pawell (calles Jaimes y Mariaca),null,-68.11731154,-16.5046852,gamlp
La Paz,MercadoMovil,9 de abril,Av. 5 de agosto,null,-68.15243608,-16.50610339,gamlp
La Paz,MercadoMovil,24 de junio,Cancha Zona 24 de junio,null,-68.10839864,-16.48014978,gamlp
La Paz,MercadoMovil,23 de marzo,FInaL 23 MARZO (INGRESO VALLE DE LAS FLORES ZOna PAMPAHASI,null,-68.09989064,-16.49904508,gamlp
La Paz,MercadoMovil,Plaza Riosinio,Av. Armentia,null,-68.13563562,-16.49150391,gamlp
La Paz,MercadoMovil,Almirante Grau,Irpavi calle 5,null,-68.08741078,-16.52420109,gamlp
La Paz,MercadoMovil,18 de obrajes,obrajes calle 18,null,-68.10841317,-16.52713912,gamlp
La Paz,MercadoMovil,Universidad Saleciana,"Av. Chacaltaya, Altura Universidad Saleciana",null,-68.15009201,-16.47750364,gamlp
La Paz,MercadoMovil,Cupilupaca,"Av. Periferica, Zona Cupilupaca",null,-68.13011756,-16.47960454,gamlp
La Paz,MercadoMovil,Hogares Fatima,Zona Hogares Fatima,null,-68.11801525,-16.46943643,gamlp
La Paz,MercadoMovil,Plaza El Condor,"Av. Landaeta, media cuadra mas arriba de la plaza el condor",null,-68.1360476,-16.50950069,gamlp
La Paz,MercadoMovil,San Lorenzo,"Av. San Lorenzo, Sede Social",null,-68.15111128,-16.44671852,gamlp
La Paz,MercadoMovil,Plaza Andrew,Plaza Andrew,null,-68.13585008,-16.51114499,gamlp
La Paz,MercadoMovil,Av. Mario Mercado,"Av. Mario Mercado, frente a la UE Hugo Chavez",null,-68.12657628,-16.53148052,gamlp
La Paz,MercadoMovil,Tres Fuerzas,Av. Alexander,null,-68.07398092,-16.53586007,gamlp
La Paz,MercadoMovil,Virgen de La Merced,NA,null,-68.06975556,-16.54153582,gamlp
La Paz,MercadoMovil,Alto Obrajes,Alto Obrajes Sector D,null,-68.10296242,-16.52001651,gamlp
La Paz,MercadoMovil,Bajo Seguencoma,Bajo Seguencoma,null,-68.09588988,-16.54013216,gamlp
La Paz,ServiciosFinancieros,Banco nacional de Bolivia S.A.,"AV. CAMACHO Nº 1312, ESQ. COLON, ZOna CENTRAL",null,-68.13412215,-16.49903475,gamlp
La Paz,ServiciosFinancieros,Banco nacional de Bolivia S.A.,"CALLE SEBASTIAN SEGUROLA Nº 1050, ZOna GRAN PODER",null,-68.14136944,-16.49975556,gamlp
La Paz,ServiciosFinancieros,Banco nacional de Bolivia S.A.,"AV. CAMACHO Nº 1296, ESQ. COLON, ZOna CENTRAL",null,-68.13432349,-16.49895817,gamlp
La Paz,ServiciosFinancieros,Banco nacional de Bolivia S.A.,"AV. CAMACHO Nº 1296, ESQ. COLON, ZOna CENTRAL",null,-68.13446516,-16.49892206,gamlp
La Paz,ServiciosFinancieros,Banco nacional de Bolivia S.A.,"AV. 20 DE OCTUBRE Nº 2095, ESQ. ASPIAZU, ZOna SOPOCACHI",null,-68.1295694,-16.50713309,gamlp
La Paz,ServiciosFinancieros,Banco nacional de Bolivia S.A.,"AV. GARCI�A LANZA Nº 1484, ESQ. CALLE 13, ZOna ACHUMANI",null,-68.07467883,-16.53372686,gamlp
La Paz,ServiciosFinancieros,Banco nacional de Bolivia S.A.,"CALLE TUMUSLA Nº 705, ESQ. AV. BUENOS AIRES, ZOna 14 DE SEPTIEMBRE",null,-68.14435513,-16.49550446,gamlp
La Paz,ServiciosFinancieros,Banco nacional de Bolivia S.A.,"AV. CAMACHO Nº 1312, ESQ. COLON, ZOna CENTRAL",null,-68.13412771,-16.49902919,gamlp
La Paz,ServiciosFinancieros,Banco nacional de Bolivia S.A.,"AV. RAFAEL PABON, COMPLEJO MEGA CENTER, ZOna IRPAVI",null,-68.08720278,-16.53200278,gamlp
La Paz,ServiciosFinancieros,Banco nacional de Bolivia S.A.,"AV. HEROES DEL PACI�FICO Nº 1384, CASI ESQ. EE.UU., ZOna MIRAFLORES",null,-68.12235154,-16.49536653,gamlp
La Paz,ServiciosFinancieros,Banco nacional de Bolivia S.A.,"AV. MONTES Nº 744, ESQ. JOSE MARIA SERRANO, ZOna CENTRAL
",null,-68.13740661,-16.49316974,gamlp
La Paz,ServiciosFinancieros,Banco nacional de Bolivia S.A.,"AV. MONTENEGRO N° 1420, EDIF. SAN MIGUEL ARCA�NGEL, ZOna SAN MIGUEL",null,-68.07885556,-16.54051944,gamlp
La Paz,ServiciosFinancieros,Banco nacional de Bolivia S.A.,"AV. GARCIA LANZA N° 1484, ESQ. CALLE 13, ZOna ACHUMANI",null,-68.07447963,-16.533565,gamlp
La Paz,ServiciosFinancieros,Banco nacional de Bolivia S.A.,"CALLE BELISARIO SALInaS NÂº 525, ZOna SOPOCACHI",null,-68.1277356,-16.51097593,gamlp
La Paz,ServiciosFinancieros,Banco nacional de Bolivia S.A.,"AV. HERnaNDO SILES Nº 247 ESQ. CALLE 12, EDIFICIO REIna ESTHER PB, ZOna OBRAJES",null,-68.10522778,-16.52761944,gamlp
La Paz,ServiciosFinancieros,Banco Mercantil Santa Cruz S.A.,AYACUCHO ESQ. MERCADO No 295,null,-68.13448983,-16.4976453,gamlp
La Paz,ServiciosFinancieros,Banco Mercantil Santa Cruz S.A.,"CALLE 16 No 7, FRENTE AL MERCADO DE ACHUMANI",null,-68.07327979,-16.5304605,gamlp
La Paz,ServiciosFinancieros,Banco Mercantil Santa Cruz S.A.,AVENIDA BALLIVIA�N No 475,null,-68.08917778,-16.54013889,gamlp
La Paz,ServiciosFinancieros,Banco Mercantil Santa Cruz S.A.,AVENIDA CAMACHO No 1448,null,-68.13289444,-16.49964167,gamlp
La Paz,ServiciosFinancieros,Banco Mercantil Santa Cruz S.A.,MERCADO No 1190 EDIFICIO ELECTRA PB,null,-68.13469336,-16.49751457,gamlp
La Paz,ServiciosFinancieros,Banco Mercantil Santa Cruz S.A.,CALLE ELOY SALMON No 820,null,-68.14777778,-16.49841667,gamlp
La Paz,ServiciosFinancieros,Banco Mercantil Santa Cruz S.A.,PLAZA ISABEL LA CATOLICA ESQ. PEDRO SALAZAR EDIFICIO MENDIETA PB,null,-68.12451182,-16.5097071,gamlp
La Paz,ServiciosFinancieros,Banco Mercantil Santa Cruz S.A.,AVENIDA RAFAEL PABON S/N ZOna IRPAVI. MEGACENTER LA PAZ LOCA C 12,null,-68.08694444,-16.53194444,gamlp
La Paz,ServiciosFinancieros,Banco Mercantil Santa Cruz S.A.,DIAZ ROMERO No 1399 ESQUIna GAMARRA,null,-68.12129722,-16.50138889,gamlp
La Paz,ServiciosFinancieros,Banco Mercantil Santa Cruz S.A.,AVENIDA HERnaNDO SILES ESQUIna CALLE 10 (EDIFICIO TUNUPA LOCAL 2).,null,-68.10697402,-16.52667776,gamlp
La Paz,ServiciosFinancieros,Banco Mercantil Santa Cruz S.A.,AVENIDA ISMAEL MONTES N  741,null,-68.1370212,-16.49326916,gamlp
La Paz,ServiciosFinancieros,Banco Mercantil Santa Cruz S.A.,AVENIDA BALLIVIAN No 1426 ESQUIna CALLE 21 - CALACOTO,null,-68.07820278,-16.53916667,gamlp
La Paz,ServiciosFinancieros,Banco Mercantil Santa Cruz S.A.,CALLE TUMUSLA No 734,null,-68.14476312,-16.4953335,gamlp
La Paz,ServiciosFinancieros,Banco Mercantil Santa Cruz S.A.,CALLE AYACUCHO 267,null,-68.13459167,-16.49796389,gamlp
La Paz,ServiciosFinancieros,Banco Mercantil Santa Cruz S.A.,"AV. VICTOR SANJINEZ, EDIFICIO BARCELOna 2678 (PLAZA ESPAÑA)",null,-68.12899232,-16.51432966,gamlp
La Paz,ServiciosFinancieros,Banco Mercantil Santa Cruz S.A.,"AV. SANCHEZ BUSTAMANTE ESQ. CALLE 14 CALACOTO, EDIFICIO METROBOL 7995",null,-68.08507877,-16.54021925,gamlp
La Paz,ServiciosFinancieros,Banco Mercantil Santa Cruz S.A.,AVENIDA FUERZA naVAL 7720 ESQ. CALLE 20 DE CALACOTO,null,-68.07888889,-16.53727778,gamlp
La Paz,ServiciosFinancieros,Banco nacional de Bolivia S.A.,"AV. DE LAS AMERICAS Nº 396, ZOna VILLA FATIMA",null,-68.11966111,-16.47771667,gamlp
La Paz,ServiciosFinancieros,Banco Mercantil Santa Cruz S.A.,"CALLE 21 DE CALACOTO Nº 8511, ENTRE AVENIDA COSTANERA Y AVENIDA JOSE AGUIRRE ACHA�",null,-68.07651037,-16.5454001,gamlp
La Paz,ServiciosFinancieros,Banco Mercantil Santa Cruz S.A.,AVENIDA 31 DE OCTUBRE NO. 1536.,null,-68.11670634,-16.49617394,gamlp
La Paz,ServiciosFinancieros,Banco Mercantil Santa Cruz S.A.,AV. LAS AMERICAS S/N ESQ. CALLE PUENTE VILLA - EXFAB. DE CHOCOLATES COROna,null,-68.12073631,-16.4794984,gamlp
La Paz,ServiciosFinancieros,Banco de Crédito de Bolivia S.A.,Av. Hernado Siles esq. Calle 10 - Obrajes,null,-68.10715278,-16.52687222,gamlp
La Paz,ServiciosFinancieros,Banco de Crédito de Bolivia S.A.,"Av. Arce Nro. 2355, Edificio Cobija de la zona de Sopocachi",null,-68.12557222,-16.50809167,gamlp
La Paz,ServiciosFinancieros,Banco de Crédito de Bolivia S.A.,Calle Landaeta y pasaje Ondarza Nro. 2,null,-68.13149722,-16.50473889,gamlp
La Paz,ServiciosFinancieros,Banco de Crédito de Bolivia S.A.,Av. Tejada Sorzano Nº250 - Villa Fatima,null,-68.121375,-16.48043333,gamlp
La Paz,ServiciosFinancieros,Banco de Crédito de Bolivia S.A.,Calle Colón esquina Mercado N 1308,null,-68.13342681,-16.49831084,gamlp
La Paz,ServiciosFinancieros,Banco de Crédito de Bolivia S.A.,"Avenida 20 de Octubre 2315, entre Belisario Salinas y Rosendo Gutierrez",null,-68.12735789,-16.50912181,gamlp
La Paz,ServiciosFinancieros,Banco de Crédito de Bolivia S.A.,"Calle 16 de Achumani N 6, Mercado de Achumani",null,-68.07319848,-16.53058008,gamlp
La Paz,ServiciosFinancieros,Banco de Crédito de Bolivia S.A.,Calle Comercio esquina Yanacocha N 994,null,-68.13493895,-16.49526036,gamlp
La Paz,ServiciosFinancieros,Banco de Crédito de Bolivia S.A.,"Avenida Montenegro esquina calle 21, Calacoto",null,-68.07799192,-16.53998294,gamlp
La Paz,ServiciosFinancieros,Banco de Crédito de Bolivia S.A.,Avenida Saavedra N 1845,null,-68.1229801,-16.5011345,gamlp
La Paz,ServiciosFinancieros,Banco de Crédito de Bolivia S.A.,"Avenida Tumusla No. 753 entre Av. Buenos Aires y Plaza Garita de Lima, Zona 14 de septiembre",null,-68.14480281,-16.49556349,gamlp
La Paz,ServiciosFinancieros,Banco de Crédito de Bolivia S.A.,Avenida Arce esquina Romecín Campos N 2675,null,-68.12183645,-16.51172308,gamlp
La Paz,ServiciosFinancieros,Banco de Crédito de Bolivia S.A.,"Av. Rafael Pabon Barrio Irpavi, local C15 Megacenter",null,-68.08678056,-16.53218889,gamlp
La Paz,ServiciosFinancieros,Banco de Crédito de Bolivia S.A.,Av. Ballivian Nº 1059,null,-68.08147431,-16.53860152,gamlp
La Paz,ServiciosFinancieros,Banco Do Brasil S.A.- Sucursal Bolivia,"Avenida 20 de Octubre esquina Campos NÂº 2665, Edificio Torre Azul Piso 14",null,-68.12345,-16.51284167,gamlp
La Paz,ServiciosFinancieros,Banco BISA S.A.,"Av. Kollasuyo No. 1442 entre Calles Bustillos y Jose María Asín, Zona El Tejar",null,-68.15254772,-16.49441594,gamlp
La Paz,ServiciosFinancieros,Banco BISA S.A.,Av. 16 de Julio El Prado No. 1628,null,-68.13279077,-16.50202162,gamlp
La Paz,ServiciosFinancieros,Banco BISA S.A.,Av. 16 de Julio El Prado No. 1628,null,-68.13279077,-16.50202162,gamlp
La Paz,ServiciosFinancieros,Banco BISA S.A.,Av. Arequipa Nº 8221 Interior Local 9.,null,-68.09143333,-16.54476389,gamlp
La Paz,ServiciosFinancieros,Banco BISA S.A.,Av. Camacho Nº 1333,null,-68.13384515,-16.4989209,gamlp
La Paz,ServiciosFinancieros,Banco BISA S.A.,Av. Arce Nº 2572 esq. Hermanos Manchego.,null,-68.12379089,-16.50993878,gamlp
La Paz,ServiciosFinancieros,Banco BISA S.A.,Calle Rosendo Gutierrez Nº 469 entre Av. 20 de Octubre y Sanchez Lima.,null,-68.12793654,-16.50945296,gamlp
La Paz,ServiciosFinancieros,Banco BISA S.A.,Calle Potosí Nº 1012 entre calles Yanacocha y Socabaya.,null,-68.13502292,-16.49615479,gamlp
La Paz,ServiciosFinancieros,Banco BISA S.A.,"Av. Ballivián Nº 1461 entre calles 21 y 22, Calacoto.",null,-68.07715,-16.53885278,gamlp
La Paz,ServiciosFinancieros,Banco BISA S.A.,Av. 14 de Septiembre Nº 40 esq. calle 17. Obrajes.,null,-68.10062222,-16.52944722,gamlp
La Paz,ServiciosFinancieros,Banco BISA S.A.,"Calle 16 No. 5, Zona Achumani",null,-68.07313763,-16.53067676,gamlp
La Paz,ServiciosFinancieros,Banco BISA S.A.,"Av. Rafael Pabon, distrito 44, manzano 2546, Local Comercial C-16, Irpavi",null,-68.08656944,-16.53295833,gamlp
La Paz,ServiciosFinancieros,Banco BISA S.A.,"Calle Tumusla No. 757, Zona 14 de Septiembre",null,-68.14481768,-16.49535041,gamlp
La Paz,ServiciosFinancieros,Banco BISA S.A.,"Av. Saavedra Nº 1594, Esquina Calle Posnasky, Zona Miraflores.",null,-68.12436902,-16.49790854,gamlp
La Paz,ServiciosFinancieros,Banco BISA S.A.,Av. Arce Nº 2780 Zona San Jorge,null,-68.12133333,-16.51283889,gamlp
La Paz,ServiciosFinancieros,Banco BISA S.A.,Av. Arce Nº 2631. Edificio Multicine.,null,-68.12225974,-16.51123319,gamlp
La Paz,ServiciosFinancieros,Banco Unión S.A.,Avenida Illimani s/n.lado Electropaz,null,-68.12606652,-16.4993958,gamlp
La Paz,ServiciosFinancieros,Banco Unión S.A.,"Avenida Busch NÂº 1333, zona Miraflores",null,-68.12110095,-16.49554202,gamlp
La Paz,ServiciosFinancieros,Banco Unión S.A.,"Plaza Venezuela NÂº 1413, en instalaciones de Toyosa S.A.",null,-68.13360174,-16.50043082,gamlp
La Paz,ServiciosFinancieros,Banco Unión S.A.,"Calle Federico Zuazo Nº1771,(interior instalaciones Edificio Entel)",null,-68.13015789,-16.50236831,gamlp
La Paz,ServiciosFinancieros,Banco Unión S.A.,"Avenida Tito Yupanqui Nº 1261,esquina calle Rafael Ballivian,zona este.",null,-68.11705179,-16.49389324,gamlp
La Paz,ServiciosFinancieros,Banco Unión S.A.,"Avenida Saavedra,(en el interior de los predios del Estado Mayor del Ejecito),zona Miraflores.",null,-68.11860833,-16.50996389,gamlp
La Paz,ServiciosFinancieros,Banco Unión S.A.,"Avenida Montes Nº 101,esquina Calle Pando,zona San Sebastian.",null,-68.10640854,-16.4910326,gamlp
La Paz,ServiciosFinancieros,Banco Unión S.A.,"Plaza Isabel La católica 2479, zona Sopocachi.",null,-68.12429776,-16.50879692,gamlp
La Paz,ServiciosFinancieros,Banco Unión S.A.,"Pasaje Marina Nuñez del Prado s/n entre calles Bueno y Loayza, zona Central.",null,-68.133175,-16.49994722,gamlp
La Paz,ServiciosFinancieros,Banco Unión S.A.,Av. Montenegro # 966 (frente Colegio Loretto) San Miguel,null,-68.07858633,-16.54521212,gamlp
La Paz,ServiciosFinancieros,Banco Unión S.A.,Av. 20 de Octubre No. 2036,null,-68.13047452,-16.50657526,gamlp
La Paz,ServiciosFinancieros,Banco Unión S.A.,"Palacio de Comunicaciones Av.Mcal Santa Cruz Esq,Oruro",null,-68.13513611,-16.49925833,gamlp
La Paz,ServiciosFinancieros,Banco Unión S.A.,c. Yanacocha esq. Mercado (min. Trabajo),null,-68.13491568,-16.49720624,gamlp
La Paz,ServiciosFinancieros,Banco Unión S.A.,Av. Camacho No. 1413 esq. Loayza Edf. BOA,null,-68.13312333,-16.49927608,gamlp
La Paz,ServiciosFinancieros,Banco Unión S.A.,Av. Camacho # 1416 esq. Looayza,null,-68.13316329,-16.49951309,gamlp
La Paz,ServiciosFinancieros,Banco Unión S.A.,Av. Buenos Aires # 572,null,-68.14426389,-16.49490278,gamlp
La Paz,ServiciosFinancieros,Banco Unión S.A.,Calle Hugo Estrada # 80 esq. Guerrilleros Lanza,null,-68.12292222,-16.49836389,gamlp
La Paz,ServiciosFinancieros,Banco Unión S.A.,Av. Montenegro # 1365,null,-68.07961449,-16.54054447,gamlp
La Paz,ServiciosFinancieros,Banco Unión S.A.,Calle Zoilo Flores # 520,null,-68.13683375,-16.50298961,gamlp
La Paz,ServiciosFinancieros,Banco Unión S.A.,Calle Belisario Salinas No.482 Edificio Alcides Arguedas.,null,-68.12733245,-16.51033306,gamlp
La Paz,ServiciosFinancieros,Banco Unión S.A.,"Calle Pedro de la Gasca, esquina Eloy Salmon Nº 691.",null,-68.14254438,-16.49777547,gamlp
La Paz,ServiciosFinancieros,Banco Unión S.A.,Av. Montes # 725,null,-68.13696395,-16.4934649,gamlp
La Paz,ServiciosFinancieros,Banco Unión S.A.,"C. Mercado Edif. Ballivian PB, of. 6, entre Loayza y Colon",null,-68.13323476,-16.49840532,gamlp
La Paz,ServiciosFinancieros,Banco Económico S.A.,"La  Paz  Av. Camacho NÂº 1245, Zona Central",null,-68.13367304,-16.49900301,gamlp
La Paz,ServiciosFinancieros,Banco Económico S.A.,La Paz Av. Principal â€œLos Pinosâ€� (lado aeronáutico) Calle casi Esq. 25.,null,-68.06931944,-16.54538056,gamlp
La Paz,ServiciosFinancieros,Banco Económico S.A.,"La Paz Calle Tumusla No. 758, entre Buenos Aires y la Plazuela Garita de Lima.",null,-68.14509521,-16.49541013,gamlp
La Paz,ServiciosFinancieros,Banco Económico S.A.,La Paz Calle Sagarnaga NÂº 519 Esq. Max Paredes.,null,-68.14035264,-16.49929124,gamlp
La Paz,ServiciosFinancieros,Banco Económico S.A.,Avenida Ballivian esquina calle # 16 de Calacoto NÂº 1020. Zona sur de la ciudad.,null,-68.08329167,-16.53911111,gamlp
La Paz,ServiciosFinancieros,Banco Solidario S.A.,"Av. Juan XXIII, esquina Calle San Juan #66, Zona Villa Armonía.",null,-68.11275427,-16.50815171,gamlp
La Paz,ServiciosFinancieros,Banco Solidario S.A.,"Av. Hernando Siles #6204, esquina Calle 16, Zona Obrajes.",null,-68.10207545,-16.52965933,gamlp
La Paz,ServiciosFinancieros,Banco Solidario S.A.,"Av. Baltazar de Salas #904, Zona Vino Tinto.",null,-68.13989689,-16.48148655,gamlp
La Paz,ServiciosFinancieros,Banco Solidario S.A.,"Calle Yungas #936, frente al Mercado Yungas, Zona Santa Bárbara - Punto Entel.",null,-68.12829733,-16.4975201,gamlp
La Paz,ServiciosFinancieros,Banco Solidario S.A.,"Av. Final Kollasuyo #120 (Av. Alcides Arguedas)casi esquina Av. naciones Unidas, zona La Portada.",null,-68.16761667,-16.48876111,gamlp
La Paz,ServiciosFinancieros,Banco Solidario S.A.,"Av. Armando Escobar Uría #77 entre calle Alejandro Barrizueta y Av. Rogelio Carrillo, zona Kupini - Internet.",null,-68.09813056,-16.50895,gamlp
La Paz,ServiciosFinancieros,Banco Solidario S.A.,"Av. Ramos Gavilán #1337, Z. Achachicala - Centro de Salud SIMEQ.
",null,-68.14945071,-16.47636909,gamlp
La Paz,ServiciosFinancieros,Banco Solidario S.A.,"Calle A #1654, esquina Calle 1 , Av. Periférica (Av. Gral. Juan Jose Torrez), frente al Colegio La Merced, Z. Alto la Merced - Salón de Belleza Esperanza.",null,-68.1191867,-16.46564397,gamlp
La Paz,ServiciosFinancieros,Banco Solidario S.A.,"Av.15 de Abril #490, Zona Villa Fátima- Hotel Santa Isabel.
",null,-68.11811419,-16.47613354,gamlp
La Paz,ServiciosFinancieros,Banco Solidario S.A.,"Av.31 de Octubre #1870, esquina Calle 7, Zona Bajo San Antonio.
",null,-68.11314771,-16.50001929,gamlp
La Paz,ServiciosFinancieros,Banco Solidario S.A.,"Av. Buenos Aires #1313, a media cuadra del Mercado Hinojosa, Zona Villa Nuevo Potosí.",null,-68.14388889,-16.50413056,gamlp
La Paz,ServiciosFinancieros,Banco Solidario S.A.,"Av. Jaimes Freyre # 1784, casi esquina calle Landaeta, zona Tembladerani.",null,-68.1427,-16.51160556,gamlp
La Paz,ServiciosFinancieros,Banco Solidario S.A.,"Calle Santa Cruz #242, entre Calle Murillo y Calle Illampu, zona El Rosario - Hostal Blanquita.",null,-68.13866389,-16.49576389,gamlp
La Paz,ServiciosFinancieros,Banco Solidario S.A.,"Calle Nicolás Acosta #289, esquina Cañada Strongest.
",null,-68.13444722,-16.50246111,gamlp
La Paz,ServiciosFinancieros,Banco Solidario S.A.,"Calle Evaristo Valle #136.
",null,-68.13752295,-16.49396401,gamlp
La Paz,ServiciosFinancieros,Banco Solidario S.A.,"Av. Muñoz Reyes #32, entre Calles 32 y 33, Zona Cota Cota.
",null,-68.06058333,-16.54128056,gamlp
La Paz,ServiciosFinancieros,Banco Solidario S.A.,"Calle Evaristo Valle #136.
",null,-68.13755871,-16.49393936,gamlp
La Paz,ServiciosFinancieros,Banco Solidario S.A.,"Calle Nicolás Acosta #289, esquina Cañada Strongest.
",null,-68.13445,-16.502425,gamlp
La Paz,ServiciosFinancieros,Banco Solidario S.A.,"Av. Buenos Aires #708, casi esquina Max Paredes.
",null,-68.14454457,-16.49668416,gamlp
La Paz,ServiciosFinancieros,Banco Solidario S.A.,"Av. Tejada Sorzano #305 (Av. de las Américas) , esquina Alto Beni.
",null,-68.1213835,-16.48099327,gamlp
La Paz,ServiciosFinancieros,Banco Solidario S.A.,"Plaza Tejada Sorzano (Plaza del Estadio) #1392, Edif. Radio Club La Paz.",null,-68.12416317,-16.49889611,gamlp
La Paz,ServiciosFinancieros,Banco Solidario S.A.,"Calle Manuel Bustillos #745, Zona El Tejar.
",null,-68.15355016,-16.49498853,gamlp
La Paz,ServiciosFinancieros,Banco Solidario S.A.,"Calle 21 de Calacoto #394, entre Av. Ballivian y Julio Patiño, Zona San Miguel, frente a la Iglesia San Miguel.",null,-68.078175,-16.53926389,gamlp
La Paz,ServiciosFinancieros,Banco Solidario S.A.,"Calle Ballivián, esquina Colón #1285.
",null,-68.13219811,-16.49592643,gamlp
La Paz,ServiciosFinancieros,Banco Solidario S.A.,"Av. Camacho #1499, esquina Calle Bueno, Edif. La Urbana.
",null,-68.13198076,-16.49976426,gamlp
La Paz,ServiciosFinancieros,Banco Solidario S.A.,"Av. 31 de Octubre #1542, Cruce Villas Copacabana y San Antonio.
",null,-68.11668042,-16.49629614,gamlp
La Paz,ServiciosFinancieros,Banco Solidario S.A.,"Calle Maximiliano Paredes, esquina Antonio Gallardo #514 y 844, Zona Gran Poder.",null,-68.14076314,-16.49871294,gamlp
La Paz,ServiciosFinancieros,Banco Solidario S.A.,"Av. Florida #4369, esquina Calle 6, dos cuadras antes del Zoológico.
",null,-68.08581015,-16.56980104,gamlp
La Paz,ServiciosFinancieros,Banco Solidario S.A.,"Landaeta #1081, a una cuadra antes de llegar al Estadio Bolivar, Z.Tembladerani - Punto Cotel.",null,-68.14042311,-16.51176971,gamlp
La Paz,ServiciosFinancieros,Banco Solidario S.A.,"Av.del Maestro #879, esquina C.Humberto Viscarra, Sector B, Z.Alto Obrajes - Peluquería.",null,-68.10641389,-16.523325,gamlp
La Paz,ServiciosFinancieros,Banco Solidario S.A.,"Av. Defensores del Chaco #90, entre calles 42 y 43, zona Chasquipampa -",null,-68.0521224,-16.53800254,gamlp
La Paz,ServiciosFinancieros,Banco Solidario S.A.,"Av. Ciudad del Niño #27, frente a Ex Samapa, Z. Pampahasi  - Tienda de Barrio y Punto Viva.
",null,-68.10439309,-16.49573007,gamlp
La Paz,ServiciosFinancieros,Banco Solidario S.A.,"Av. García Lanza #1000, esquina C. 10, Achumani, frente a la Clinica Sagrada Familia.",null,-68.07526695,-16.53495386,gamlp
La Paz,ServiciosFinancieros,Banco Solidario S.A.,"Av. Octavio Campero #1750, esquina Av. Josefa Mujía, Zona Alto San Antonio.",null,-68.10899281,-16.49759892,gamlp
La Paz,ServiciosFinancieros,Banco Solidario S.A.,"Av. Periférica #125 (Av.Gral. Juan José Torrez), esquina final Puerto Rico, Z. 27 de Mayo.",null,-68.12839907,-16.4852617,gamlp
La Paz,ServiciosFinancieros,Banco Solidario S.A.,"Av. Vicente Burgaleta #1001, Plaza Luis Uría, cerca al Hospital General Luis Uría,  Zona Villa Copacabana.",null,-68.116573,-16.48376467,gamlp
La Paz,ServiciosFinancieros,Banco Solidario S.A.,"Av. Ramiro Castillo Salinas #1000, esquina Calle 1, a una cuadra del Puente Minaza, Zona Villa El Carmen.",null,-68.1146268,-16.46885684,gamlp
La Paz,ServiciosFinancieros,Banco Solidario S.A.,"Calle 6 s/n, frente a la Plaza Almirante Grau, Zona Irpavi. 
",null,-68.08721389,-16.52457222,gamlp
La Paz,ServiciosFinancieros,Banco Solidario S.A.,"Av. República #1507, entre C. Asunción y Murguía, Z. Villa Victoria- Punto Entel.",null,-68.15268333,-16.49155556,gamlp
La Paz,ServiciosFinancieros,Banco Solidario S.A.,"Av. Saavedra #2055, entre calles Villalobos y Nicaragua, casi Plaza Triangular, Edif. Torre Real Miraflores, zona Miraflores - Ingeneria SRL Cristec.",null,-68.12156241,-16.50347763,gamlp
La Paz,ServiciosFinancieros,Banco Solidario S.A.,"Av. Tejada Sorzano #574, Edificio Clementina, entre calle Francisco Cernada y calle Monje, altura Plaza Villarroel, zona Alto Miraflores - Venta de Regalos y Abarrotes.",null,-68.12346389,-16.48455,gamlp
La Paz,ServiciosFinancieros,Banco Ganadero S.A.,Av. Camacho 1372,null,-68.13285833,-16.49938333,gamlp
La Paz,ServiciosFinancieros,Banco Ganadero S.A.,Cale 18 de Calacoto Nro. 5 Esq. Montenegro,null,-68.08062965,-16.54076526,gamlp
La Paz,ServiciosFinancieros,Banco Ganadero S.A.,Av. 16 de julio N. 1805,null,-68.13113889,-16.50334722,gamlp
La Paz,ServiciosFinancieros,Banco Los Andes Procredit S.A.,Av. 16 de Julio NÂº 1486 A,null,-68.13266667,-16.50216389,gamlp
La Paz,ServiciosFinancieros,Banco Los Andes Procredit S.A.,Av. 16 de Julio nro. 1486 A,null,-68.13320294,-16.50146149,gamlp
La Paz,ServiciosFinancieros,Banco Los Andes Procredit S.A.,Av. América nro. 203,null,-68.13976583,-16.49349624,gamlp
La Paz,ServiciosFinancieros,Banco Los Andes Procredit S.A.,"Calle José  María Achá nro. 803, equina Avenida Baptista",null,-68.14864501,-16.4959147,gamlp
La Paz,ServiciosFinancieros,Banco Los Andes Procredit S.A.,Av. Estéban Arce nro.1705,null,-68.1175157,-16.49558775,gamlp
La Paz,ServiciosFinancieros,Banco Los Andes Procredit S.A.,Av. Buenos Aires nro. 555,null,-68.14401944,-16.49465833,gamlp
La Paz,ServiciosFinancieros,Banco Los Andes Procredit S.A.,Calle Belisario Salinas No438 entre 20 de cotubre y Sanchez Lima,null,-68.12701562,-16.51002789,gamlp
La Paz,ServiciosFinancieros,Banco Los Andes Procredit S.A.,Av. Tejada Sorzano Nº 393 esq. Calle Unduavi,null,-68.12137778,-16.48052222,gamlp
La Paz,ServiciosFinancieros,Banco Los Andes Procredit S.A.,Calle 20 Calacoto nro. 8047,null,-68.07865278,-16.53921389,gamlp
La Paz,ServiciosFinancieros,Banco Los Andes Procredit S.A.,"Avenida Saavedra, esquina Hugo estrada No1706",null,-68.12370377,-16.5000921,gamlp
La Paz,ServiciosFinancieros,Banco para el Fomento a Iniciativas Económicas S.A.,"Avenida Juan José Torrez (Av. Periférica) casi esquina Diego de Peralta No.438, Zona Agua de la Vida de la ciudad de La Paz",null,-68.1288759,-16.48556936,gamlp
La Paz,ServiciosFinancieros,Banco para el Fomento a Iniciativas Económicas S.A.,"Avenida Ciudad del Niño, esquina Avenida Circunvalación No. 125, Zona Pampahasi de la ciudad de La Paz",null,-68.10498611,-16.50179167,gamlp
La Paz,ServiciosFinancieros,Banco para el Fomento a Iniciativas Económicas S.A.,"Plaza Pérez Velasco, No.785 de la ciudad de La Paz",null,-68.1367676,-16.49396437,gamlp
La Paz,ServiciosFinancieros,Banco para el Fomento a Iniciativas Económicas S.A.,"Calle Baltazar de Salas No.98, esquina Huayna Potosí, Zona Vino Tinto de la ciudad de La Paz",null,-68.14374167,-16.48380556,gamlp
La Paz,ServiciosFinancieros,Banco para el Fomento a Iniciativas Económicas S.A.,"Calle Gral. Gonzales No. 1272, Zona de San Pedro de la ciudad de La Paz",null,-68.13663207,-16.50148193,gamlp
La Paz,ServiciosFinancieros,Banco para el Fomento a Iniciativas Económicas S.A.,"Calle Gral. Gonzales No. 1272, Zona San Pedro de la ciudad de La Paz",null,-68.13663207,-16.50148193,gamlp
La Paz,ServiciosFinancieros,Banco para el Fomento a Iniciativas Económicas S.A.,Av. Buenos Aires No. 561 frente ingreso calle Huyustus de la ciudad de La Paz,null,-68.14396111,-16.49384167,gamlp
La Paz,ServiciosFinancieros,Banco para el Fomento a Iniciativas Económicas S.A.,"Av. Camacho, Nro. 1355, Edificio Stepham y Cia. de la ciudad de La Paz",null,-68.13372026,-16.49896135,gamlp
La Paz,ServiciosFinancieros,Banco para el Fomento a Iniciativas Económicas S.A.,"Avenida Defensores del Chaco No. 87, entre calles 52 y 53, Zona Chasquipampa de la ciudad de La Paz",null,-68.04849204,-16.53723736,gamlp
La Paz,ServiciosFinancieros,Banco para el Fomento a Iniciativas Económicas S.A.,"Av. Muñoz Reyes No. 1004, Esq. Calle 30 de la Zona de Cota Cota de la ciudad de La Paz",null,-68.06307416,-16.54070763,gamlp
La Paz,ServiciosFinancieros,Banco para el Fomento a Iniciativas Económicas S.A.,Av. Baptista No. 1174 (Frente al cementerio General) de la ciudad de La Paz,null,-68.15065278,-16.49548333,gamlp
La Paz,ServiciosFinancieros,Banco para el Fomento a Iniciativas Económicas S.A.,"Calle Max Paredes No. 821, Zona Gran Poder de la ciudad de La Paz",null,-68.14100226,-16.49818554,gamlp
La Paz,ServiciosFinancieros,Banco para el Fomento a Iniciativas Económicas S.A.,"Avenida Kollasuyo No. 3000, Zona La Portada de la ciudad de La Paz",null,-68.16341811,-16.49194256,gamlp
La Paz,ServiciosFinancieros,Banco para el Fomento a Iniciativas Económicas S.A.,Av. Simón Bolivar No. 1990  de la ciudad de La Paz,null,-68.12493786,-16.49996727,gamlp
La Paz,ServiciosFinancieros,Banco para el Fomento a Iniciativas Económicas S.A.,"Plaza Eguino final Pando, esq. América, Edificio Loza No. 289, Planta Baja de la ciudad de La Paz",null,-68.14052889,-16.49350327,gamlp
La Paz,ServiciosFinancieros,Banco para el Fomento a Iniciativas Económicas S.A.,"Calle 18 No. 50, entre Av. Montenegro y Julio Patiño, Zona San Miguel de la ciudad de La Paz",null,-68.0806301,-16.54063173,gamlp
La Paz,ServiciosFinancieros,Banco para el Fomento a Iniciativas Económicas S.A.,"Av. 20 de Octubre, N° 2396, Edificio María Haydee de la ciudad de La Paz",null,-68.12699759,-16.50979751,gamlp
La Paz,ServiciosFinancieros,Banco para el Fomento a Iniciativas Económicas S.A.,"Av. Jaimes Freyre, No. 1594, esq. Buenos Aires de la ciudad de La Paz",null,-68.143325,-16.510075,gamlp
La Paz,ServiciosFinancieros,Banco para el Fomento a Iniciativas Económicas S.A.,"Av. Tito Yupanqui No. 1394, Zona Villa Copacabana de la ciudad de La Paz",null,-68.11688405,-16.49570473,gamlp
La Paz,ServiciosFinancieros,Banco para el Fomento a Iniciativas Económicas S.A.,"Av. Las Américas No. 205 esquina Puente Villa (frente al Shopping La Cumbre), Zona de Villa Fátima de la ciudad La Paz",null,-68.12078333,-16.47975833,gamlp
La Paz,ServiciosFinancieros,Banco para el Fomento a Iniciativas Económicas S.A.,"Av. Mecapaca, No.6309 y No.6301, Zona Obrajes de la ciudad de La Paz",null,-68.10030278,-16.53027222,gamlp
La Paz,ServiciosFinancieros,Banco para el Fomento a Iniciativas Económicas S.A.,"Calle Colón esquina Mercado, Edificio Armando Escobar Uría, Zona Central de la ciudad de La Paz",null,-68.133425,-16.49810556,gamlp
La Paz,ServiciosFinancieros,Banco para el Fomento a Iniciativas Económicas S.A.,Oficina Administrativa Cementerio General de la ciudad de La Paz,null,-68.151625,-16.49635278,gamlp
La Paz,ServiciosFinancieros,Banco para el Fomento a Iniciativas Económicas S.A.,Av. Josefa Mujía s/n dentro de las instalaciones de la Subalcaldía de Villa San Antonio de la ciudad de La Paz,null,-68.10847936,-16.49811607,gamlp
La Paz,ServiciosFinancieros,Banco para el Fomento a Iniciativas Económicas S.A.,Plaza Antofagasta dentro de las instalaciones de la Terminal de Buses de la ciudad de La Paz,null,-68.14138889,-16.48861667,gamlp
La Paz,ServiciosFinancieros,Banco para el Fomento a Iniciativas Económicas S.A.,Av. Ballivian esq. Calle 15 interiores supermercado Ketal Zona Calacoto de la ciudad de La Paz,null,-68.08392778,-16.53935278,gamlp
La Paz,ServiciosFinancieros,Banco para el Fomento a Iniciativas Económicas S.A.,"Instalaciones supermercado Ketal, Av. Busch esq. Villalobos de la ciudad de La Paz",null,-68.12111111,-16.50249444,gamlp
La Paz,ServiciosFinancieros,Banco para el Fomento a Iniciativas Económicas S.A.,Instalaciones supermercado Ketal Av. Arce esq. Pinilla de la ciudad de La Paz,null,-68.12333154,-16.51050835,gamlp
La Paz,ServiciosFinancieros,Banco para el Fomento a Iniciativas Económicas S.A.,"Hipermercado Ketal, frente al Colegio Militar, lado Megacenter, Zona Irpavi de la ciudad de La Paz",null,-68.08668056,-16.53273333,gamlp
La Paz,ServiciosFinancieros,Banco para el Fomento a Iniciativas Económicas S.A.,"Avenida Ramiro Castillo esquina calle 2 No.121, Zona Villa El Carmen de la ciudad de La Paz",null,-68.11414889,-16.46859669,gamlp
La Paz,ServiciosFinancieros,Banco para el Fomento a Iniciativas Económicas S.A.,"Instalaciones ENTEL Calle Ayacucho entre Avenidas Camacho y Mercado No.267, Edificio ENTEL de la ciudad de La Paz",null,-68.13461667,-16.49795,gamlp
La Paz,ServiciosFinancieros,Banco para el Fomento a Iniciativas Económicas S.A.,"Instalaciones ENTEL, Calle Federico Zuazo No.1771, Edificio Tower de la ciudad de La Paz",null,-68.13020833,-16.50231667,gamlp
La Paz,ServiciosFinancieros,Banco para el Fomento a Iniciativas Económicas S.A.,"Instalaciones ENTEL, Avenida Montenegro casi esquina Calle 18 No.1196, Edificio López Leytón de la ciudad de La Paz",null,-68.0801971,-16.54098138,gamlp
La Paz,ServiciosFinancieros,Banco para el Fomento a Iniciativas Económicas S.A.,"Instalaciones ENTEL, calle Federico Zuazo No.1935, Edificio Torre Ventura de la ciudad de La Paz",null,-68.12918975,-16.50357158,gamlp
La Paz,ServiciosFinancieros,Banco para el Fomento a Iniciativas Económicas S.A.,"calle Baltazar Alquiza esquina calle Huyustus No.85, Zona 14 de septiembre de la ciudad de La Paz",null,-68.14757562,-16.49503359,gamlp
La Paz,ServiciosFinancieros,Banco para el Fomento a Iniciativas Económicas S.A.,"Calle Ayata No.1198, Zona Chamoco Chico de la ciudad de La Paz",null,-68.15246679,-16.49969095,gamlp
La Paz,ServiciosFinancieros,Banco para el Fomento a Iniciativas Económicas S.A.,"Calle Pedro de la Gasca No.635, Zona Gran Poder de la ciudad de La Paz",null,-68.14207778,-16.49773056,gamlp
La Paz,ServiciosFinancieros,Mutual La Primera,Av. Mariscal Santa Cruz No. 1364,null,-68.13437753,-16.50016987,gamlp
La Paz,ServiciosFinancieros,Mutual La Primera,Calle Max Paredes No. 420 Garita de Lima,null,-68.14555809,-16.49610461,gamlp
La Paz,ServiciosFinancieros,Mutual La Primera,Av. Montenegro No. 111 San Miguel Centro Comercial La Chiwiña,null,-68.07923149,-16.54040603,gamlp
La Paz,ServiciosFinancieros,Mutual La Primera,Av. 6 de Agosto No. 2549 Sopocachi,null,-68.12472799,-16.51046594,gamlp
La Paz,ServiciosFinancieros,Mutual La Primera,Av.Saavedra N.22 Esq. Plaza tejada Sorzano (Miraflores),null,-68.12437237,-16.49893015,gamlp
La Paz,ServiciosFinancieros,Mutual La Primera,Calle Ballivian No. 1283 Esq. Colon Zona Central,null,-68.13223404,-16.49590612,gamlp
La Paz,ServiciosFinancieros,Mutual La Primera,Calle 16 No. 4 Achumani (Frente al Mercado),null,-68.07309597,-16.5307351,gamlp
La Paz,ServiciosFinancieros,Mutual La Primera,Calle Evaristo Valle N.- 127 San Sebastian,null,-68.13753342,-16.49412982,gamlp
La Paz,ServiciosFinancieros,Mutual La Primera,Calle Mercado Esq Colon,null,-68.13316294,-16.49827605,gamlp
La Paz,ServiciosFinancieros,Mutual La Paz,"Av. 16 de  Julio  esq, Bueno   El Prado  1521",null,-68.13264722,-16.50127222,gamlp
La Paz,ServiciosFinancieros,Mutual La Paz,C. Bueno  (Frente Cine Monje Campero),null,-68.13251944,-16.50109722,gamlp
La Paz,ServiciosFinancieros,Mutual La Paz,"Calle Yanacocha NÂº 319 
Edif. Asbun Antiguo Planta Baja.",null,-68.13575833,-16.49663889,gamlp
La Paz,ServiciosFinancieros,Mutual La Paz,C.Illampu NÂº 778-782 esquina calle Santa Cruz,null,-68.13977614,-16.4966733,gamlp
La Paz,ServiciosFinancieros,Mutual La Paz,Av. 20 de Octubre esq. C. Pedro Salazar  NÂº 2497,null,-68.12589334,-16.51054002,gamlp
La Paz,ServiciosFinancieros,Mutual La Paz,Av. Hernando Siles    Esq. Calle 11 Edificio El Parque,null,-68.10630948,-16.52734067,gamlp
La Paz,ServiciosFinancieros,Mutual La Paz,Av.  Montenegro  NÂº 1223,null,-68.08042679,-16.54074998,gamlp
La Paz,ServiciosFinancieros,Mutual La Paz,Av.  Saavedra NÂº   1740,null,-68.12382835,-16.50031062,gamlp
La Paz,ServiciosFinancieros,Mutual La Paz,Av. Esteban Arce NÂº 1828,null,-68.11640794,-16.49585133,gamlp
La Paz,ServiciosFinancieros,Mutual La Paz,C. Ocobaya  NÂº 286,null,-68.12009341,-16.47862737,gamlp
La Paz,ServiciosFinancieros,Mutual La Paz,Av.Montes NÂº 533.,null,-68.14011389,-16.49060556,gamlp
La Paz,ServiciosFinancieros,Mutual La Paz,Calles Colón y Mercado Â·1298 Ex Bco. del Estado,null,-68.13341389,-16.49810278,gamlp
La Paz,ServiciosFinancieros,Mutual La Paz,"Av. Victorio Garcia Lanza Nro. 300, entre calles 15 y 16, Achumani",null,-68.07318184,-16.53158593,gamlp
La Paz,ServiciosFinancieros,Mutual La Paz,"LOCAL NRO. 7 DEL SUPERMERCADO HIPERMAXI, AV. JOSE MARIA AGUIRRE ACHA S/N, ZOna LOS PINOS",null,-68.07026761,-16.54558117,gamlp
La Paz,ServiciosFinancieros,Fondo Financiero Privado Fassil S.A.,"Calle Alberto Lambert NÂº 822 Sector A, Zona Alto Obrajes.",null,-68.10485556,-16.522125,gamlp
La Paz,ServiciosFinancieros,Fondo Financiero Privado Fassil S.A.,Avenida Kollasuyo Zona Callampaya,null,-68.15236111,-16.49476111,gamlp
La Paz,ServiciosFinancieros,Fondo Financiero Privado Fassil S.A.,"Avenida Esteban Arce 1836, Villa San Antonio - Zona Cruce Villa Copacabana.",null,-68.11637454,-16.49585736,gamlp
La Paz,ServiciosFinancieros,Fondo Financiero Privado Fassil S.A.,Avenida Gral Camacho N 1415 - 1425 1er piso,null,-68.13247658,-16.49957178,gamlp
La Paz,ServiciosFinancieros,Fondo Financiero Privado Fassil S.A.,"Avenida Arce 2779,  Edificio El Escorial - Planta Baja",null,-68.12096506,-16.51261383,gamlp
La Paz,ServiciosFinancieros,Fondo Financiero Privado Fassil S.A.,Avenida Gral Camcho N 1415 - 1425,null,-68.13259167,-16.49952778,gamlp
La Paz,ServiciosFinancieros,Fondo Financiero Privado Fassil S.A.,"Avenida Muños Reyes Nº800 esquina Calle 30, Zona COTA Cota",null,-68.06359167,-16.54086667,gamlp
La Paz,ServiciosFinancieros,Fondo Financiero Privado Fassil S.A.,"Calle Maximiliano Paredes entre Calles Emilio Calderón y Sagárnaga No. 923, Zona Gran Poder",null,-68.13984057,-16.49969095,gamlp
La Paz,ServiciosFinancieros,Fondo Financiero Privado Prodem S.A.,CALLE MERCADO EX BANCO DEL ESTADO,null,-68.1334313,-16.49804614,gamlp
La Paz,ServiciosFinancieros,Fondo Financiero Privado Prodem S.A.,C/ BELISARIO SALInaS # 520 ESQ. SANCHEZ LIMA,null,-68.12751998,-16.51080113,gamlp
La Paz,ServiciosFinancieros,Fondo Financiero Privado Prodem S.A.,AV CAMACHO 1277 ESQ. COLON,null,-68.13425469,-16.49871801,gamlp
La Paz,ServiciosFinancieros,Fondo Financiero Privado Prodem S.A.,BELISARIO SALInaS NO. 520 ESQ. SANCHEZ LIMA,null,-68.12751998,-16.51080113,gamlp
La Paz,ServiciosFinancieros,Fondo Financiero Privado Prodem S.A.,AV. BALLIVIAN No. 1323,null,-68.07822537,-16.53878079,gamlp
La Paz,ServiciosFinancieros,Fondo Financiero Privado Prodem S.A.,AV. BAPTISTA # 845,null,-68.14643665,-16.49579622,gamlp
La Paz,ServiciosFinancieros,Fondo Financiero Privado Prodem S.A.,CALLE ILLAMPU ESQ. SANTA CRUZ,null,-68.13967534,-16.49634086,gamlp
La Paz,ServiciosFinancieros,Fondo Financiero Privado Prodem S.A.,AV. CAMACHO ESQ. COLON No. 2277,null,-68.13425469,-16.49871801,gamlp
La Paz,ServiciosFinancieros,Fondo Financiero Privado Prodem S.A.,CALLE RODRIGUEZ ESQ. LARA # 607,null,-68.13997908,-16.50085477,gamlp
La Paz,ServiciosFinancieros,Fondo Financiero Privado Prodem S.A.,AV. SAAVEDRA 820,null,-68.12079743,-16.50526806,gamlp
La Paz,ServiciosFinancieros,Fondo Financiero Privado Prodem S.A.,Av. Montes NÂº 755,null,-68.13675016,-16.49399982,gamlp
La Paz,ServiciosFinancieros,Fondo Financiero Privado Prodem S.A.,AV. DE LAS AMERICAS ESQ. VIRGEN DEL CARMEN,null,-68.11951895,-16.47746683,gamlp
La Paz,ServiciosFinancieros,Fondo Financiero Privado Prodem S.A.,"CALLE TUMUSLA No.590-A, GALERIA MULTICENTRO SANTO TOMAS (ACERA DE SUBIDA, FRENTE AL INGRESO DE LA CALLE ORTEGA)",null,-68.14307304,-16.49530811,gamlp
La Paz,ServiciosFinancieros,Fondo Financiero Privado Prodem S.A.,AV. 31 DE OCTUBRE Y PASOS KANQUI NO. 1525 DEL CRUCE DE VILLA COPACABAna,null,-68.11652942,-16.49608024,gamlp
La Paz,ServiciosFinancieros,Fondo Financiero Privado Prodem S.A.,AVENIDA LAS AMERICAS ESQ. PUENTE VILLA,null,-68.11990798,-16.47812453,gamlp
La Paz,ServiciosFinancieros,Eco Futuro S.A. F. F. P.,Calle México NÂº 1530 entre Otero de la Vega y Nicolás Acosta - Zona de San Pedro,null,-68.13364717,-16.50202472,gamlp
La Paz,ServiciosFinancieros,Eco Futuro S.A. F. F. P.,"Calle Gabriel Gozalvez Nº 228, entre Avenida Arce y Avenida 6 de Agosto - Zona San Jorge",null,-68.10370865,-16.52849289,gamlp
La Paz,ServiciosFinancieros,Eco Futuro S.A. F. F. P.,Plaza Alonso de Mendoza NÂº 284 - Zona Central,null,-68.1386,-16.49291111,gamlp
La Paz,ServiciosFinancieros,Eco Futuro S.A. F. F. P.,Av. Hernando Siles NÂº 6204 esq. Calle 16 de Obrajes,null,-68.10366976,-16.52848456,gamlp
La Paz,ServiciosFinancieros,Eco Futuro S.A. F. F. P.,Av. Baptista y José MarÍa AsÍn Nº788 - Zona El Tejar,null,-68.15238056,-16.49538333,gamlp
La Paz,ServiciosFinancieros,Eco Futuro S.A. F. F. P.,Cruce de Villa Copacabana y Villa San Antonio sobre la Av.Esteban Arce NÂº 1843,null,-68.11623089,-16.49562577,gamlp
La Paz,ServiciosFinancieros,Eco Futuro S.A. F. F. P.,Calle México NÂº 1530 entre Otero de la Vega y Nicolás Acosta - Zona de San Pedro,null,-68.133629,-16.50205403,gamlp
La Paz,ServiciosFinancieros,Eco Futuro S.A. F. F. P.,Calle 21 NÂº 8342 esq. Calle Pancara -Zona Calacoto,null,-68.07714167,-16.54401667,gamlp
La Paz,ServiciosFinancieros,Eco Futuro S.A. F. F. P.,"Av. de las Américas NÂº 294 esq. Ocobaya - Zona Villa Fátima
",null,-68.12024872,-16.47872909,gamlp
La Paz,ServiciosFinancieros,Fondo Financiero Privado Fassil S.A.,"Avenida Las Américas NÂº 250, Zona Villa Fátima",null,-68.1207661,-16.4791161,gamlp
La Paz,ServiciosFinancieros,Fondo Financiero Privado Fassil S.A.,Calle Tumusla NÂº 602,null,-68.14324393,-16.49492523,gamlp
La Paz,ServiciosFinancieros,Fondo Financiero Privado Fassil S.A.,"Avenida Garcia Lanza Nro. 60, entre Calle Nro. 13 y Calle Nro. 1",null,-68.07427401,-16.53312895,gamlp
La Paz,ServiciosFinancieros,Fondo de la Comunidad S.A. F.F.P.,Av. 20 de Octubre # 2379 entre Belisario Salinas y Rosendo Gutierrez,null,-68.12692568,-16.50958814,gamlp
La Paz,ServiciosFinancieros,Cooperativa de Ahorro y Crédito Los Remedios Ltda.,"Av. Saavedra NÂº 1975 Zona Miraflores
Entre Villalobos y Diaz Romero",null,-68.12223333,-16.502325,gamlp
La Paz,ServiciosFinancieros,BNB LEASING S.A.,AV.CAMCHO Nº 1312,null,-68.13407222,-16.49906111,gamlp
La Paz,ServiciosFinancieros,Almacenes Internacionales S.A.,"Av. Arce Nro 2631
Edif. Multicine Piso  16",null,-68.12247817,-16.51095712,gamlp
La Paz,ServiciosFinancieros,WARRANT MERCANTIL SANTA CRUZ S.A.,Avenida Camacho Nº 1448 Piso 6,null,-68.13295616,-16.49966134,gamlp
La Paz,ServiciosFinancieros,Bisa Leasing S.A.,Avenida Arce Nro. 2631 Edificio Multicine Piso 16,null,-68.12213889,-16.51090278,gamlp
La Paz,ServiciosFinancieros,Fortaleza Leasing S.A.,Av. 20 de Octubre esq. Campos Nº2665 Edificio Torre Azul Piso 7,null,-68.12353889,-16.51281389,gamlp
La Paz,ServiciosFinancieros,ENSERBIC S.A.,AVENIDA MARISCAL SANTA CRUZ No. 1392 EDIF. CAM. naL. DE COMERCIO,null,-68.13427887,-16.50039988,gamlp
La Paz,ServiciosFinancieros,INFOCRED BIC S.A.,CALLE VINCENTI Nº 656 ZOna SOPOCHI,null,-68.12822222,-16.51502778,gamlp
La Paz,ServiciosFinancieros,ADMINISTRADORA DE CAMARAS DE COMPENSACION Y LIQUIDACION S.A. (ACCL S.A.),AVENIDA MARISCAL SANTA CRUZ NO.1392 EDIFICIO CAMARA naCIOnaL DE COMERCIO PISO 15 ZOna CENTRAL,null,-68.13427388,-16.50034449,gamlp
La Paz,ServiciosFinancieros,CIDRE,"AV. 6 DE AGOSTO #2105, EDIFICIO SANTA TERESA, SOPOCACHI.",null,-68.12837528,-16.50646107,gamlp
La Paz,ServiciosFinancieros,CRECER,Calle Demetrio Canelas Nº27 entre calle 16 y 17 de Obrajes,null,-68.12524167,-16.51558333,gamlp
La Paz,ServiciosFinancieros,CRECER,Calle Demetrio Canelas Nº 27 entre calles 16 y 17 de Obrajes,null,-68.13676389,-16.50238333,gamlp
La Paz,ServiciosFinancieros,CRECER,Calle Demetrio Canelas Nº27 entre la 16 y 17 de Obrajes,null,-68.10085583,-16.52997962,gamlp
La Paz,ServiciosFinancieros,CRECER,Calle Diaz Romero Nº 1320 casi esquina Saavedra,null,-68.12239722,-16.50161944,gamlp
La Paz,ServiciosFinancieros,CRECER,Calle Almirante Grau Nº473,null,-68.13676389,-16.50238333,gamlp
La Paz,ServiciosFinancieros,CRECER,"Calle Heroes del PacÍfico esquina Reyes Cardona N° 1645, Zona El Tejar",null,-68.15553993,-16.49627728,gamlp
La Paz,ServiciosFinancieros,CRECER,"Avenida Defensores del Chaco Nº 1138, esquina Calle 43,Zona Chasquipampa",null,-68.05196389,-16.53796111,gamlp
La Paz,ServiciosFinancieros,DIACONIA,"AVENIDA DEFENSORES DEL CHACO, NÂº 85, ENTRE CALLES 51 y 52
",null,-68.04707359,-16.53712091,gamlp
La Paz,ServiciosFinancieros,DIACONIA,"AVENIDA ESTEBAN ARCE, NÂº 1843, CRUCE VILLA COPACABAna
",null,-68.11620364,-16.49561235,gamlp
La Paz,ServiciosFinancieros,DIACONIA,"PLAZA DEL MAESTRO, N° 70, ESQ. COVENDO, ZOna VILLA FA�TIMA
",null,-68.11774367,-16.47487739,gamlp
La Paz,ServiciosFinancieros,DIACONIA,"CALLE TUMUSLA , NÂº 481, ENTRE PLAZA EGUINO y CALLE ISAAC TAMAYO
",null,-68.14156233,-16.49451661,gamlp
La Paz,ServiciosFinancieros,DIACONIA,"AVENIDA BALTAZAR DE SALAS, NÂº 100, ENTRE AVENIDA PERIFERICA
",null,-68.14358611,-16.48356111,gamlp
La Paz,ServiciosFinancieros,DIACONIA,"AVENIDA JAIMES FREYRE, NÂº 998, ENTRE AVENIDA BUENOS AIRES Y PLAZA EL CARMEN
",null,-68.14328333,-16.51054722,gamlp
La Paz,ServiciosFinancieros,IDEPRO,Calle Campos No. 132,null,-68.12167174,-16.51171641,gamlp
La Paz,ServiciosFinancieros,IMPRO,CALLE MANUEL ERGUETA No 1741 ZOna TEMBLADERANI,null,-68.14094233,-16.51113069,gamlp
La Paz,ServiciosFinancieros,EMPRENDER,AV. 15 DE ABRIL #490 VILLA FATIMA,null,-68.11824725,-16.47672399,gamlp
La Paz,ServiciosFinancieros,EMPRENDER,AV. BUENOS AIRES Y JAIMES FREYRE No. 1578 ZOna TEMBLADERANI,null,-68.14370268,-16.5097464,gamlp
La Paz,ServiciosFinancieros,Cooperativa de Ahorro y Crédito La Sagrada Familia Ltda.,"Av. Camacho NÂº 1277, Edif. Krsul, Piso 3, Of. 301 - Zona Central",null,-68.1343482,-16.49868004,gamlp
La Paz,ServiciosFinancieros,Cooperativa de Ahorro y Crédito La Sagrada Familia Ltda.,Av. Ciudad del Niño esq. Av. 23 de Marzo NÂº 500 -  Zona Pampahasi,null,-68.10525833,-16.49925278,gamlp
La Paz,ServiciosFinancieros,Cooperativa de Ahorro y Crédito La Sagrada Familia Ltda.,Av. Ramiro Castillo esq. Calle 3 NÂº 35 - Villa El Carmen,null,-68.1140126,-16.46790043,gamlp
La Paz,ServiciosFinancieros,Cooperativa de Ahorro y Crédito La Sagrada Familia Ltda.,"Av. Heroes del Pacífico,",null,-68.15550549,-16.49625622,gamlp
La Paz,ServiciosFinancieros,Cooperativa de Ahorro y Crédito La Sagrada Familia Ltda.,"Calle Sagárnaga NÂº 547, Edif. María PB, Entre Plaza Gran Poder y calle  Max Paredes",null,-68.14058727,-16.49943777,gamlp
La Paz,ServiciosFinancieros,Cooperativa de Ahorro y Crédito La Sagrada Familia Ltda.,"Av. Camacho NÂº 1277, Edif. Krsul, Piso 3, Of. 301 - Zona Central",null,-68.13433709,-16.49867727,gamlp
La Paz,ServiciosFinancieros,Cooperativa de Ahorro y Crédito La Sagrada Familia Ltda.,En Tramite,null,-68.13600397,-16.49694986,gamlp
La Paz,ServiciosFinancieros,Cooperativa de Ahorro y Crédito El Buen Samaritano Ltda.,AV.20 DE OCTUBRE No.2463-A ENTRE CALLE BELISARIO SALInaS Y PEDRO SALAZAR,null,-68.12622153,-16.51025309,gamlp
La Paz,ServiciosFinancieros,Fondo Financiero Privado Prodem S.A.,CALLE BUSTILLOS NÂº713 (ZOna EL TEJAR),null,-68.15335561,-16.494533,gamlp
La Paz,ServiciosFinancieros,BANCO FORTALEZA S.A.,"Avenida Garcia Lanza No. 15 entre calles 11 y 12 achumani, zona sur.",null,-68.07522675,-16.53405145,gamlp
La Paz,ServiciosFinancieros,BANCO FORTALEZA S.A.,"Av. Las Américas No. 353, Zona Villa Fatima",null,-68.12140887,-16.4810626,gamlp
La Paz,ServiciosFinancieros,BANCO FORTALEZA S.A.,"Av. Arce No. 2799 esq. calle Cordero, Zona San Jorge",null,-68.12063269,-16.51297397,gamlp
La Paz,ServiciosFinancieros,BANCO FORTALEZA S.A.,"Av. 16 de Julio No. 1440, Zona Central",null,-68.13381969,-16.50084117,gamlp
La Paz,ServiciosFinancieros,BANCO FORTALEZA S.A.,"Av. Arce No. 2799 esq. calle Cordero, Zona San Jorge",null,-68.12063269,-16.51297397,gamlp
La Paz,ServiciosFinancieros,BANCO FORTALEZA S.A.,"Av. Tumusla No. 765, entre Av. Buenos Aires y Plaza Garita de Lima, Zona 14 de Septiembre",null,-68.14512222,-16.49562778,gamlp
La Paz,ServiciosFinancieros,BANCO FORTALEZA S.A.,"Calle Colón No. 610 casi esq. Ballivián, Zona Central",null,-68.13205751,-16.4959891,gamlp
La Paz,ServiciosFinancieros,BANCO FORTALEZA S.A.,"Calle 21 s/n esq. Av. Costanera, Zona Sur",null,-68.07662319,-16.5464213,gamlp
La Paz,ServiciosFinancieros,BANCO FORTALEZA S.A.,"Av. Florida No. 190 entre calles 6 y 7, Zona Mallasa",null,-68.08557898,-16.57021638,gamlp
La Paz,ServiciosFinancieros,Fondo Financiero Privado Prodem S.A.,Av. CAMACHO ESQ. CALLE COLON # 1277,null,-68.13420001,-16.4987448,gamlp
La Paz,ServiciosFinancieros,Fondo Financiero Privado Prodem S.A.,CALLE BELISARIO SALInaS # 520,null,-68.12760706,-16.51085997,gamlp
La Paz,ServiciosFinancieros,Fondo Financiero Privado Prodem S.A.,"TERMInaL DE BUSES LA PAZ
AV. URUGUAY ESQ. AV. PERU",null,-68.14135902,-16.48848663,gamlp
La Paz,ServiciosFinancieros,Fondo Financiero Privado Prodem S.A.,"AV. 20 DE OCTUBRE # 2665 ESQ. CAMPOS. 
EDIFICIO TORRE AZUL
SEGUNDO PISO",null,-68.12363889,-16.51285278,gamlp
La Paz,ServiciosFinancieros,Mutual La Paz,"C. YAnaCOCHA NO. 319, EDIFICIO ASBUN ANTIGUO",null,-68.13575833,-16.49663889,gamlp
La Paz,ServiciosFinancieros,Mutual La Primera,MEGACENTER PLAYON DE IRPAVI,null,-68.08723333,-16.53188333,gamlp
La Paz,ServiciosFinancieros,Mutual La Paz,CALLE OCOBAYA ESQ. YAnaCACHI,null,-68.12010833,-16.47861667,gamlp
La Paz,ServiciosFinancieros,Mutual La Paz,AVENIDA ESTEBAN ARCE NÂº 1828 CRUCE VILLA SAN ANTONIO Y VILLA COPACABAna,null,-68.11640794,-16.49585133,gamlp
La Paz,ServiciosFinancieros,Mutual La Paz,AV. HERnaNDO SILES ESQ. CALLE 11 EDIF. EL PARQUE,null,-68.10630948,-16.52734067,gamlp
La Paz,ServiciosFinancieros,Mutual La Paz,CALLE ILLAMPU,null,-68.13977614,-16.4966733,gamlp
La Paz,ServiciosFinancieros,Mutual La Paz,AV. 16 DE JULIO No. 1521,null,-68.13268736,-16.50123564,gamlp
La Paz,ServiciosFinancieros,Mutual La Paz,AV. SAAVEDRA No. 1740,null,-68.12382835,-16.50031062,gamlp
La Paz,ServiciosFinancieros,Mutual La Paz,AV. MONTENEGRO No. 1223,null,-68.08041176,-16.54078291,gamlp
La Paz,ServiciosFinancieros,Mutual La Paz,Av. 20 de Octubre esq. C. Pedro Salazar  NÂº 2497,null,-68.12589334,-16.51054002,gamlp
La Paz,ServiciosFinancieros,Mutual La Paz,AV. RAFAEL PAVON S/N (MEGACENTER)SUPERMERCADOS KETAL,null,-68.08659444,-16.5337,gamlp
La Paz,ServiciosFinancieros,Banco Ganadero S.A.,Centro Recreacional Megacenter - Av. Rafael Pabón,null,-68.08707778,-16.53210556,gamlp
La Paz,ServiciosFinancieros,Banco Solidario S.A.,"Av. Arce #2631, dentro de las instalaciones del Multicine, Zona San Jorge.
",null,-68.12245696,-16.51098035,gamlp
La Paz,ServiciosFinancieros,Banco Solidario S.A.,"Av. Montes Nro.614, frente a la calle Uruguay â€“ Zona Central",null,-68.1392,-16.49140556,gamlp
La Paz,ServiciosFinancieros,Banco Solidario S.A.,"Av. Rafael Pabón, dentro del patio de comidas de Magacenter, Zona Irpavi.",null,-68.08719722,-16.53204444,gamlp
La Paz,ServiciosFinancieros,Banco Unión S.A.,"Avenida Camacho Nº 1416, ,zona central",null,-68.13303998,-16.49956516,gamlp
La Paz,ServiciosFinancieros,Banco Unión S.A.,AV ARCE NO.2631 Edificio Multicine Planta Baja,null,-68.1204204,-16.51338599,gamlp
La Paz,ServiciosFinancieros,Banco Unión S.A.,Calle Potosí esq. Socabaya interior Shoping Norte,null,-68.13480833,-16.49649444,gamlp
La Paz,ServiciosFinancieros,Banco Unión S.A.,c. Indaburo esq. Colon s/n Edif. Contraloria General,null,-68.13189662,-16.49510601,gamlp
La Paz,ServiciosFinancieros,Banco Unión S.A.,"Av. Camacho No. 1416, zona Central",null,-68.13310387,-16.49955683,gamlp
La Paz,ServiciosFinancieros,Banco Unión S.A.,Av. Camacho No. 1416 zona Central,null,-68.13307053,-16.49955127,gamlp
La Paz,ServiciosFinancieros,Banco Unión S.A.,c. Loayza esq. Camacho N0. 1416,null,-68.13330556,-16.49943611,gamlp
La Paz,ServiciosFinancieros,Banco Unión S.A.,"Av. Mariscal Santa Cruz s/n esq. Oruro, zona Central Interior Palacio de Comunicaciones",null,-68.13533482,-16.49917788,gamlp
La Paz,ServiciosFinancieros,Banco Unión S.A.,"Calle Comercio s/n, entre Ayacucho y Colon Edif Camara de Diputados (Interior)",null,-68.13304726,-16.49638303,gamlp
La Paz,ServiciosFinancieros,Banco Unión S.A.,Av.Arce Plaza Isabel La Catolica No. 2479.,null,-68.12432233,-16.50883127,gamlp
La Paz,ServiciosFinancieros,Banco Unión S.A.,Av.Arce Plaza Isabel La Catolica No. 2479.,null,-68.12426938,-16.50883117,gamlp
La Paz,ServiciosFinancieros,Banco Unión S.A.,"Calle Zoilo Flores, casi esquina Colombia Nº 1366.",null,-68.13679081,-16.50301561,gamlp
La Paz,ServiciosFinancieros,Banco Unión S.A.,"Calle Zoilo Flores, casi esquina Colombia Nº 1366.",null,-68.13677414,-16.50303506,gamlp
La Paz,ServiciosFinancieros,Banco Unión S.A.,"Avenida Tito Yupanqui Nº 1261, esquina Rafael Ballivian.",null,-68.11704623,-16.49391824,gamlp
La Paz,ServiciosFinancieros,Banco Unión S.A.,Avenida Montenegro Nº1365,null,-68.07868828,-16.54526378,gamlp
La Paz,ServiciosFinancieros,Banco Unión S.A.,Calle Federico Zuazo Nº1571(Instalaciones Edificio Entel),null,-68.13017734,-16.50234331,gamlp
La Paz,ServiciosFinancieros,Banco Unión S.A.,"Avenida Montes NÂº 101, esquina Calle Pando, en instalaciones de la Agencia Recaudadora de Impuestos LPZ.",null,-68.13978611,-16.49119444,gamlp
La Paz,ServiciosFinancieros,Banco Unión S.A.,"Avenida Buenos Aires Nº 572, zona 14 de Septiembre.",null,-68.144275,-16.49491389,gamlp
La Paz,ServiciosFinancieros,Banco Unión S.A.,"Megacenter, Av. Vera - Irpavi",null,-68.08736667,-16.53176667,gamlp
La Paz,ServiciosFinancieros,Banco Unión S.A.,C. Bueno Edif. YPFB frente mercado Camacho,null,-68.132237,-16.50036505,gamlp
La Paz,ServiciosFinancieros,Banco Unión S.A.,"Avenida Miguel Casimiro Aparicio,esquina Calle Alto Beni NÂº 1510.",null,-68.12070833,-16.48093611,gamlp
La Paz,ServiciosFinancieros,Banco Unión S.A.,Avenida Busch NÂº 1333,null,-68.12111206,-16.49549202,gamlp
La Paz,ServiciosFinancieros,Banco Unión S.A.,Avenida Busch NÂº 1333,null,-68.12110372,-16.49551425,gamlp
La Paz,ServiciosFinancieros,Banco BISA S.A.,Av. Uruguay s/n esq. Av. Perú (interior Terminal de Buses),null,-68.14119444,-16.48855278,gamlp
La Paz,ServiciosFinancieros,Banco BISA S.A.,Av. 16 de Julio Nº 1628 Paseo El Prado,null,-68.13279911,-16.50199385,gamlp
La Paz,ServiciosFinancieros,Banco BISA S.A.,Av. Arequipa Nº 8450 La Florida,null,-68.09100947,-16.54645499,gamlp
La Paz,ServiciosFinancieros,Banco BISA S.A.,"Megacenter, Patio de Comidas, Av. Rafael Pabon, Irpavi",null,-68.08726389,-16.53279167,gamlp
La Paz,ServiciosFinancieros,Banco BISA S.A.,"Calle Agrario No. 3118 esquina calle 1, Zona Mallasa",null,-68.0895506,-16.56765319,gamlp
La Paz,ServiciosFinancieros,Banco BISA S.A.,Interno (Av. Arce - Embajada Americana),null,-68.12133333,-16.51283889,gamlp
La Paz,ServiciosFinancieros,Banco BISA S.A.,"Urbanización Colinas de Santa Rita S/N, Alto Auquisamaña",null,-68.07,-16.54972222,gamlp
La Paz,ServiciosFinancieros,Banco de Crédito de Bolivia S.A.,Plaza Antofagasta - Terminal de Buses La Paz,null,-68.14071944,-16.48854444,gamlp
La Paz,ServiciosFinancieros,Banco de Crédito de Bolivia S.A.,Av. Arce No.2631 (Multicine) - Sopocachi,null,-68.12231904,-16.51115152,gamlp
La Paz,ServiciosFinancieros,Banco de Crédito de Bolivia S.A.,Calle Eloy Salmón No.929,null,-68.14203611,-16.50006944,gamlp
La Paz,ServiciosFinancieros,Banco de Crédito de Bolivia S.A.,Av. Rafael Pabón S/N (Mega Center) - Irpavi,null,-68.087175,-16.53238889,gamlp
La Paz,ServiciosFinancieros,Banco Mercantil Santa Cruz S.A.,MLP461 MEGACENTER LOBBY,null,-68.08718056,-16.53211389,gamlp
La Paz,ServiciosFinancieros,Banco Mercantil Santa Cruz S.A.,AV. AREQUIPA 8450,null,-68.0907981,-16.54692094,gamlp
La Paz,ServiciosFinancieros,Banco Mercantil Santa Cruz S.A.,AV. CAMACHO NO 1448 ENTRE CALLE LOAYZA Y CALLE BUENO,null,-68.13291785,-16.49962322,gamlp
La Paz,ServiciosFinancieros,Banco Mercantil Santa Cruz S.A.,AV. CAMACHO NO 1448 ENTRE CALLE LOAYZA Y CALLE BUENO,null,-68.13291785,-16.49962322,gamlp
La Paz,ServiciosFinancieros,Banco Mercantil Santa Cruz S.A.,AV. 6 DE AGOSTO ENTRE  AGUSTIN ASPIAZU Y FERnaNDO GUACHALLA (INTERIOR EDIF. HOY),null,-68.12821899,-16.50710879,gamlp
La Paz,ServiciosFinancieros,Banco Mercantil Santa Cruz S.A.,AV. SANCHEZ BUSTAMANTE ESQ. CALLE 14 DE CALACOTO - EDIF. METROBOL  (INTERIOR NNUU),null,-68.08504266,-16.54021091,gamlp
La Paz,ServiciosFinancieros,Banco Mercantil Santa Cruz S.A.,AV. CAMACHO NO 1448 ENTRE CALLE LOAYZA Y CALLE BUENO,null,-68.13291785,-16.49962322,gamlp
La Paz,ServiciosFinancieros,Banco Mercantil Santa Cruz S.A.,Calle Ayacucho Casi esq. Mercado No. 295,null,-68.13443882,-16.49769687,gamlp
La Paz,ServiciosFinancieros,Banco Mercantil Santa Cruz S.A.,AVENIDA ARCE NRO 2631 (INTERIOR MULTICINE),null,-68.12208333,-16.51100278,gamlp
La Paz,ServiciosFinancieros,Banco nacional de Bolivia S.A.,"AV. BALLIVIAN, ESQ. CALLE 15, SUBSUELO SUPERMERCADO KETAL, ZOna CALACOTO",null,-68.08397929,-16.53941569,gamlp
La Paz,ServiciosFinancieros,Banco nacional de Bolivia S.A.,"AV. RAFAEL PABON, COMPLEJO MEGA CENTER, PLAZA DE COMIDAS, ZOna IRPAVI",null,-68.08716944,-16.53200278,gamlp
La Paz,ServiciosFinancieros,Banco nacional de Bolivia S.A.,"CALLE POTOSI, ESQ. SOCABAYA, SUBSUELO SHOPPING NORTE, ZOna CENTRAL",null,-68.13474448,-16.49658838,gamlp
La Paz,ServiciosFinancieros,Banco nacional de Bolivia S.A.,"AV.ANTOFAGASTA, ESQ. AV. PERU, TERMInaL DE BUSES, ZOna NORTE",null,-68.14075833,-16.48843611,gamlp
La Paz,ServiciosFinancieros,Banco nacional de Bolivia S.A.,"AV. CAMACHO NÂº 1296, ESQ. COLON, AGENCIA BNB, ZOna CENTRAL",null,-68.13441238,-16.4989165,gamlp
La Paz,ServiciosFinancieros,Banco nacional de Bolivia S.A.,"AV. CAMACHO NÂº 1296, ESQ. COLON, AGENCIA BNB, ZOna CENTRAL",null,-68.13437349,-16.49894428,gamlp
La Paz,ServiciosFinancieros,Banco nacional de Bolivia S.A.,"AV. CAMACHO NÂº 1296, ESQ. COLON, AGENCIA BNB, ZOna CENTRAL",null,-68.13434849,-16.49895817,gamlp
La Paz,ServiciosFinancieros,Banco nacional de Bolivia S.A.,"AV. CAMACHO NÂº 1296, ESQ. COLON, AGENCIA BNB, ZOna CENTRAL",null,-68.13436238,-16.49895539,gamlp
La Paz,ServiciosFinancieros,Banco nacional de Bolivia S.A.,"AV. MONTES NÂº 400, INTERIOR CBN, ZOna NORTE (USO EXCLUSIVO DEL PERSOnaL DE LA EMPRESA)",null,-68.1437676,-16.48902277,gamlp
La Paz,ServiciosFinancieros,Banco nacional de Bolivia S.A.,"AV. ARCE Nº 2631, INTERIOR COMPLEJO MULTICINE",null,-68.12235556,-16.51109444,gamlp
La Paz,ServiciosFinancieros,Banco nacional de Bolivia S.A.,"AV. ALEXANDER Nº 100, ENTRE CALLES 14 Y 15, ZOna ACHUMANI",null,-68.07203332,-16.53446348,gamlp
La Paz,ServiciosFinancieros,Banco nacional de Bolivia S.A.,"AV. BUENOS AIRES, ESQ. GARCILAZO DE LA VEGA, CASETA 14 BLOQUE ""Z"", CENTRO COMERCIAL GARCILAZO DE LA VEGA, ZOna 14 DE SEPTIEMBRE",null,-68.14421035,-16.49405575,gamlp
La Paz,ServiciosFinancieros,Banco nacional de Bolivia S.A.,"AV.ILLAMPU Nº704, ESQ. CALLE MARIANO GRANEROS, HOTEL ROSARIO, ZOna ROSARIO",null,-68.14028056,-16.49539722,gamlp
La Paz,ServiciosFinancieros,Banco nacional de Bolivia S.A.,"AV.STRONGUEST Nº110, ESQ.CALLE 29-A, ZOna ACHUMANI",null,-68.06358137,-16.52137744,gamlp
La Paz,ServiciosFinancieros,Banco nacional de Bolivia S.A.,"CALLE YUNGAS Nº 952, MERCADO YUNGAS, ZOna SANTA BARBARA",null,-68.12827788,-16.49752843,gamlp
La Paz,ServiciosFinancieros,Banco nacional de Bolivia S.A.,"CALLE 16 Nº 460, ESQ. AV. 14 DE SEPTIEMBRE, ZOna OBRAJES",null,-68.10214167,-16.52905833,gamlp
La Paz,ServiciosFinancieros,Banco nacional de Bolivia S.A.,"AV. SAAVEDRA Nº 1716 EDIF. DELGADILLO, ZOna MIRAFLORES",null,-68.12393622,-16.50019957,gamlp
La Paz,ServiciosFinancieros,Banco nacional de Bolivia S.A.,"AV. DEL MAESTRO Nº954, ZOna ALTO OBRAJES",null,-68.10667621,-16.52317763,gamlp
La Paz,ServiciosFinancieros,Banco nacional de Bolivia S.A.,"CALLE SEBASTIAN SEGUROLA Nº 1050, ZOna GRAN PODER",null,-68.14136389,-16.49974722,gamlp
La Paz,ServiciosFinancieros,Banco nacional de Bolivia S.A.,"AV. 20 DE OCTUBRE NÂº 2095, ESQ. ASPIAZU, AGENCIA BNB, ZOna SOPOCACHI",null,-68.1295229,-16.50716787,gamlp
La Paz,ServiciosFinancieros,Banco nacional de Bolivia S.A.,"AV. ALTAMIRANO Nº 6629, ENTRE CALLES 5 Y 6, ZOna IRPAVI",null,-68.08678412,-16.52481111,gamlp
La Paz,ServiciosFinancieros,Banco nacional de Bolivia S.A.,"CALLE ALMIRANTE GRAU Nº 327, ESQ. G. GONZALES, ZOna SAN PEDRO",null,-68.13600278,-16.50176667,gamlp
La Paz,ServiciosFinancieros,Banco nacional de Bolivia S.A.,"AV. HERnaNDO SILES NÂº 5688, ENTRE CALLES 10 Y 11, ZOna OBRAJES",null,-68.10645,-16.52724444,gamlp
La Paz,ServiciosFinancieros,Banco nacional de Bolivia S.A.,"CALLE COMERCIO NÂº 872, ESQ. GEnaRO SANJINES, ZOna CENTRAL",null,-68.13572678,-16.4949642,gamlp
La Paz,ServiciosFinancieros,Banco nacional de Bolivia S.A.,"AV. BAPTISTA, ESQ. CALATAYUD Nº 950, ZOna CALLAMPAYA",null,-68.14778611,-16.49555278,gamlp
La Paz,ServiciosFinancieros,Banco nacional de Bolivia S.A.,"AV. 16 DE JULIO, CINE 16 DE JULIO, EL PRADO, ZOna CENTRAL",null,-68.13102637,-16.50362992,gamlp
La Paz,ServiciosFinancieros,Banco nacional de Bolivia S.A.,"AV. 16 DE JULIO, EDIF. MULTICENTRO ENTEL, EL PRADO, ZOna CENTRAL",null,-68.13358088,-16.50102627,gamlp
La Paz,ServiciosFinancieros,Banco nacional de Bolivia S.A.,"AV. SAAVEDRA NÂº 2218, FRENTE HOSPITAL DE CLINICAS, ZOna MIRAFLORES",null,-68.12016111,-16.506475,gamlp
La Paz,ServiciosFinancieros,Banco nacional de Bolivia S.A.,"CALLE SAGARnaGA NÂº 326, HOTEL SAGARnaGA, ZOna EL ROSARIO",null,-68.1386221,-16.49748697,gamlp
La Paz,ServiciosFinancieros,Banco nacional de Bolivia S.A.,"AV. RAFAEL PABON, COMPLEJO MEGA CENTER, AGENCIA BNB, ZOna IRPAVI",null,-68.08696944,-16.53185,gamlp
La Paz,ServiciosFinancieros,Banco nacional de Bolivia S.A.,"AV. HEROES DEL PACIFICO NÂº 1384, CASI ESQ. EEUU, AGENCIA BNB, ZOna MIRAFLORES",null,-68.12232377,-16.49533597,gamlp
La Paz,ServiciosFinancieros,Banco nacional de Bolivia S.A.,"AV. MONTES NÂº 744, AGENCIA BNB, ZOna CENTRAL",null,-68.13736156,-16.49317394,gamlp
La Paz,ServiciosFinancieros,Banco nacional de Bolivia S.A.,"AV. MONTENEGRO NÂº 1420, EDIF. ARCANGEL, AGENCIA BNB, ZOna SAN MIGUEL",null,-68.0788051,-16.54050247,gamlp
La Paz,ServiciosFinancieros,Banco nacional de Bolivia S.A.,"AV. 20 DE OCTUBRE NÂº 2095, ESQ. ASPIAZU, AGENCIA BNB, ZOna SOPOCACHI",null,-68.12954163,-16.50715531,gamlp
La Paz,ServiciosFinancieros,Banco nacional de Bolivia S.A.,"CALLE BELISARIO SALInaS NÂº 525, ESQ. PEDRO GARCIA, TERRASUR, ZOna SOPOCACHI",null,-68.12775824,-16.51099137,gamlp
La Paz,ServiciosFinancieros,Banco nacional de Bolivia S.A.,"AV. ARGENTIna NÂº 2046, FRENTE UNIVALLE, ZOna MIRAFLORES",null,-68.12032415,-16.50353664,gamlp
La Paz,ServiciosFinancieros,Banco nacional de Bolivia S.A.,"AV. CHACALTAYA NÂº 1258, UNIVERSIDAD SALESIAna, ZOna ACHACHICALA",null,-68.14968889,-16.47780278,gamlp
La Paz,ServiciosFinancieros,Banco nacional de Bolivia S.A.,"AV. 20 DE OCTUBRE NÂº 2453, PLAZA ABAROA, ZOna SOPOCACHI",null,-68.12633439,-16.51013659,gamlp
La Paz,ServiciosFinancieros,Banco nacional de Bolivia S.A.,AVENIDA VILLAZON Nº 1957 PLAZA DEL BICENTEnaRIO (FRENTE MONOBLOCK) ZOna CENTRAL,null,-68.13058082,-16.50494438,gamlp
La Paz,ServiciosFinancieros,Banco nacional de Bolivia S.A.,"CALLE VICTOR SANJINES NÂº 2662, PLAZA ESPAÑA, HOTEL ALCALA, ZOna SOPOCACHI",null,-68.12904167,-16.51405833,gamlp
La Paz,ServiciosFinancieros,Banco nacional de Bolivia S.A.,"CALLE 8 NÂº 35, PLAZA HUMBOLT, ZOna CALACOTO",null,-68.09115431,-16.54181837,gamlp
La Paz,ServiciosFinancieros,Banco nacional de Bolivia S.A.,"PLAZA SUCRE NÂº 1483, ZOna SAN PEDRO",null,-68.13474167,-16.50223611,gamlp
La Paz,ServiciosFinancieros,Banco nacional de Bolivia S.A.,"AV. AGUIRRE ACHA NÂº 27, ZOna LOS PINOS",null,-68.07278333,-16.54535556,gamlp
La Paz,ServiciosFinancieros,Banco nacional de Bolivia S.A.,"AV. BALLIVIAN, ESQ. CALLE 13, AUTOMOVIL CLUB BOLIVIANO, ZOna CALACOTO",null,-68.08655143,-16.53966897,gamlp
La Paz,ServiciosFinancieros,Banco nacional de Bolivia S.A.,"AV. ARCE Nº 2529, EDIF. SANTA ISABEL, ZOna SOPOCACHI",null,-68.12340889,-16.50993485,gamlp
La Paz,ServiciosFinancieros,Banco nacional de Bolivia S.A.,"AV. PANDO NÂº 289, ESQ. AMERICA, EDIF. LOZA, ZOna OESTE",null,-68.14051759,-16.4933936,gamlp
La Paz,ServiciosFinancieros,Banco Mercantil Santa Cruz S.A.,AV. SAAVEDRA ESQ. PLAZA SAN MARTIN GASOLINERA SIEMPRE FULL,null,-68.12140833,-16.50374167,gamlp
La Paz,ServiciosFinancieros,Banco Mercantil Santa Cruz S.A.,"AV. MONTENEGRO # 1471  CASI ESQ. CALLE 21, SAN MIGUEL",null,-68.07835632,-16.54011625,gamlp
La Paz,ServiciosFinancieros,Banco Mercantil Santa Cruz S.A.,"AV. BALLIVIAN NRO 415 ENTRE CALLE 10 Y CALLE 11 , CALACOTO",null,-68.08913786,-16.54042018,gamlp
La Paz,ServiciosFinancieros,Banco Mercantil Santa Cruz S.A.,AV. LAS AMERICAS S/N ESQ. EX SURTIDOR,null,-68.12031943,-16.47877987,gamlp
La Paz,ServiciosFinancieros,Banco Mercantil Santa Cruz S.A.,CALLE ILLAMPU ENTRE SANTA CRUZ Y GRANEROS,null,-68.13994015,-16.49618187,gamlp
La Paz,ServiciosFinancieros,Banco Mercantil Santa Cruz S.A.,Héroes del Pacifico No. 1424 entre Estados Unidos y Busch,null,-68.12159722,-16.494725,gamlp
La Paz,ServiciosFinancieros,Banco Mercantil Santa Cruz S.A.,"AVENIDA 31 DE OCTUBRE 1536, CRUCE VILLA SAN ANTONIO VILLA COPACABAna",null,-68.11671663,-16.49615379,gamlp
La Paz,ServiciosFinancieros,Banco Mercantil Santa Cruz S.A.,JOSE AGUIRRE ACHA ENTRE CALLE 5 Y CALLE 6 - LIBRERI�A BAGU,null,-68.07287482,-16.54536295,gamlp
La Paz,ServiciosFinancieros,Banco Mercantil Santa Cruz S.A.,"Av. Arce 2671 Esq. Gozalvez , Edificio El Paraíso",null,-68.12217222,-16.51130278,gamlp
La Paz,ServiciosFinancieros,Banco Mercantil Santa Cruz S.A.,CALLE MERCADO # 1190 EDIFICIO ELECTRA,null,-68.13474899,-16.49749276,gamlp
La Paz,ServiciosFinancieros,Banco Mercantil Santa Cruz S.A.,AV MANCO KAPAC N 373 ESQUIna ISAAC TAMAYO,null,-68.14237827,-16.49324541,gamlp
La Paz,ServiciosFinancieros,Banco Mercantil Santa Cruz S.A.,PLAZA DEL ESTADIO ESQ. AV. SAAVEDRA NRO 1716,null,-68.12398198,-16.50011437,gamlp
La Paz,ServiciosFinancieros,Banco Mercantil Santa Cruz S.A.,AV. BUENOS AIRES ESQ. HUYUSTUS,null,-68.14398611,-16.49408611,gamlp
La Paz,ServiciosFinancieros,Banco Mercantil Santa Cruz S.A.,"PLAZA ABAROA, BELISARIO SALInaS CASI ESQ. 20 DE OCTUBRE, EDIF. TORRE ZAFIRO",null,-68.12692385,-16.50994778,gamlp
La Paz,ServiciosFinancieros,Banco Mercantil Santa Cruz S.A.,Av. Villazón Casi Esq. Federico Zuazo (Interior UMSA PB),null,-68.12958889,-16.50443056,gamlp
La Paz,ServiciosFinancieros,Banco Mercantil Santa Cruz S.A.,"Calle Eloy Salmón No. 820, ZOna GRAN PODER",null,-68.14315801,-16.49842597,gamlp
La Paz,ServiciosFinancieros,Banco Mercantil Santa Cruz S.A.,Calatayud Nro. 950 casi Av. Baptista,null,-68.14778605,-16.49551497,gamlp
La Paz,ServiciosFinancieros,Banco Mercantil Santa Cruz S.A.,"C/ Díaz Romero Esq. Gamarra y Av. Busch , MIRAFLORES",null,-68.12134574,-16.50140276,gamlp
La Paz,ServiciosFinancieros,Banco Mercantil Santa Cruz S.A.,"Av Ballivian esq. Calle 21 de Calacoto No. 1426, SAN MIGUEL",null,-68.07821667,-16.53913889,gamlp
La Paz,ServiciosFinancieros,Banco Mercantil Santa Cruz S.A.,PLAZA TEJADA SORZANO (STADIUM) CASI ESQ. AV. SAAVEDRA (RADIO CLUB),null,-68.12415021,-16.4989882,gamlp
La Paz,ServiciosFinancieros,Banco Mercantil Santa Cruz S.A.,"PLAZA SUCRE C. COLOMBIA # 340 ENTRE CAÑADA STRONGEST Y GRAL. GONZALES, ZOna SAN PEDRO",null,-68.13552998,-16.50211605,gamlp
La Paz,ServiciosFinancieros,Banco Mercantil Santa Cruz S.A.,Av. De las Americas S/N Esq. Puente Villa Ex Fabrica de Chocolates Corona,null,-68.12070575,-16.47946784,gamlp
La Paz,ServiciosFinancieros,Banco Mercantil Santa Cruz S.A.,C/ Díaz Romero Esq. Gamarra y Av. Busch,null,-68.12130556,-16.50140833,gamlp
La Paz,ServiciosFinancieros,Banco Mercantil Santa Cruz S.A.,Av. 16 de Julio Nº1544 lado Edif. 16 de Julio,null,-68.13308396,-16.50159988,gamlp
La Paz,ServiciosFinancieros,Banco Mercantil Santa Cruz S.A.,Av. 16 de Julio Nº1544 lado Edif. 16 de Julio,null,-68.13308396,-16.50159988,gamlp
La Paz,ServiciosFinancieros,Banco Mercantil Santa Cruz S.A.,Av. Sanchez Lima Nº2362 (Supermercado Fidalga),null,-68.12790847,-16.5105241,gamlp
La Paz,ServiciosFinancieros,Banco Mercantil Santa Cruz S.A.,"Calle Potosi Nº920, Esq. Genaro Sanjinez (Hotel Presidente)",null,-68.13599744,-16.49578932,gamlp
La Paz,ServiciosFinancieros,Banco Mercantil Santa Cruz S.A.,"Calle Potosi Nº920, Esq. Genaro Sanjinez (Hotel Presidente)",null,-68.13599744,-16.49578932,gamlp
La Paz,ServiciosFinancieros,Banco Mercantil Santa Cruz S.A.,AV. PERU NRO 291 SOBRE TERMInaL DE BUSES,null,-68.14105771,-16.4880793,gamlp
La Paz,ServiciosFinancieros,Banco Mercantil Santa Cruz S.A.,PLAZA DEL ESTUDIANTE CASI ESQ. BATALLON COLORADOS # 1907,null,-68.13083056,-16.50400556,gamlp
La Paz,ServiciosFinancieros,Banco Mercantil Santa Cruz S.A.,AV. MONTES Nº 741 CASI PLAZA PEREZ VELASCO,null,-68.1370212,-16.49326916,gamlp
La Paz,ServiciosFinancieros,Banco Mercantil Santa Cruz S.A.,AV. CAMACHO  NO 1448 ENTRE LOAYZA Y CALLE BUENO,null,-68.13291785,-16.49962322,gamlp
La Paz,ServiciosFinancieros,Banco Mercantil Santa Cruz S.A.,"PLAZA SUCRE, C. COLOMBIA  # 340 ENTRE CAÑADA STRONGEST Y GRAL. GONZALES - ZOna SAN PEDRO",null,-68.13552998,-16.50211605,gamlp
La Paz,ServiciosFinancieros,Banco Mercantil Santa Cruz S.A.,PLAZA EL CONDOR  ESQUIna LANDAETA,null,-68.1357641,-16.50892254,gamlp
La Paz,ServiciosFinancieros,Banco Mercantil Santa Cruz S.A.,CALLE COMERCIO Nº 866 ENTRE PEREZ VELASCO Y GEnaRO SANJINES,null,-68.1359628,-16.49482205,gamlp
La Paz,ServiciosFinancieros,Banco Mercantil Santa Cruz S.A.,AV. TUMUSLA Nº 734 CASI ESQ. AV. BUENOS AIRES ZOna 14 DE SEPTIEMBRE,null,-68.14478435,-16.49534158,gamlp
La Paz,ServiciosFinancieros,Banco Mercantil Santa Cruz S.A.,CALLE FERnaNDO GUACHALLA ENTRE ECUADOR Y SA�NCHEZ LIMA EDIF. SAN ANTONIO (FRENTE MERCADO SOPOCACHI),null,-68.12967205,-16.509197,gamlp
La Paz,ServiciosFinancieros,Banco Mercantil Santa Cruz S.A.,CALLE AYACUCHO CASI ESQ. MERCADO,null,-68.13427745,-16.49775135,gamlp
La Paz,ServiciosFinancieros,Banco Mercantil Santa Cruz S.A.,"PLAZA ISABEL LA CATOLICA  , AV. ARCE ESQ. PEDRO SALAZAR",null,-68.12450627,-16.50969043,gamlp
La Paz,ServiciosFinancieros,Banco Mercantil Santa Cruz S.A.,CALLE AYACUCHO CASI ESQ. MERCADO,null,-68.13432202,-16.49776206,gamlp
La Paz,ServiciosFinancieros,Banco Mercantil Santa Cruz S.A.,CALLE AYACUCHO CASI ESQ. MERCADO,null,-68.13430524,-16.49774572,gamlp
La Paz,ServiciosFinancieros,Banco Mercantil Santa Cruz S.A.,"AV- HERnaNDO SILES NRO 5593 CASI CALLE 10 OBRAJES, EDIFICIO TUNUPA LOCAL 2,",null,-68.10707222,-16.52663333,gamlp
La Paz,ServiciosFinancieros,Banco Mercantil Santa Cruz S.A.,CALLE 16 NRO 8 FRENTE AL MERCADO ACHUMANI,null,-68.07327979,-16.5304605,gamlp
La Paz,ServiciosFinancieros,Banco Mercantil Santa Cruz S.A.,AV. OVANDO CANDIA ESQ. CALLE 6 FRENTE PLAZUELA DEL MERCADO IRPAVI,null,-68.08800458,-16.5243679,gamlp
La Paz,ServiciosFinancieros,Banco Mercantil Santa Cruz S.A.,Calle 16 Nº 8 frente al Mercado Achumani,null,-68.07327979,-16.5304605,gamlp
La Paz,ServiciosFinancieros,Banco Mercantil Santa Cruz S.A.,"PLAZA ESPAÑA , AV. ECUADOR S/N ENTRE MENDEZ ARCOS Y QUINTIN BARRIOS",null,-68.12896386,-16.51460219,gamlp
La Paz,ServiciosFinancieros,Banco Mercantil Santa Cruz S.A.,"AV. DE LAS AMERICAS S/N CASI  ESQ. PUENTE VILLA, EX FABRICA DE CHOCOLATES COROna, VILLA FATIMA",null,-68.12070575,-16.47946784,gamlp
La Paz,ServiciosFinancieros,Banco nacional de Bolivia S.A.,"AV. DE LAS AMERICAS Nº 396, ZOna VILLA FATIMA",null,-68.11965,-16.47771944,gamlp
La Paz,ServiciosFinancieros,Banco nacional de Bolivia S.A.,"CALLE 16, Nº 5,(FRENTE AL MERCADO DE ACHUMANI) - ZOna ACHUMANI",null,-68.07315227,-16.53063731,gamlp
La Paz,ServiciosFinancieros,Banco Mercantil Santa Cruz S.A.,C. CUBA ESQ. AV. BRASIL EDIF. MERCEDES Z. MIRAFLORES,null,-68.12038019,-16.49597549,gamlp
La Paz,ServiciosFinancieros,Banco Mercantil Santa Cruz S.A.,AV. HERnaNDO SILES ESQ. C. 16 DE OBRAJES,null,-68.10214395,-16.52962247,gamlp
La Paz,ServiciosFinancieros,Banco Mercantil Santa Cruz S.A.,AV. AMERICA CASI ESQ. PANDO,null,-68.14028056,-16.49338889,gamlp
La Paz,ServiciosFinancieros,Banco Mercantil Santa Cruz S.A.,Terminal de Buses La Paz,null,-68.14115278,-16.48868056,gamlp
La Paz,ServiciosFinancieros,Banco Mercantil Santa Cruz S.A.,Av. Rafael Pabón S/N Ag. Megacenter,null,-68.08699444,-16.53195556,gamlp
La Paz,ServiciosFinancieros,Banco Mercantil Santa Cruz S.A.,CALLE MERCADO # 1190 EDIFICIO ELECTRA,null,-68.13474892,-16.49750902,gamlp
La Paz,ServiciosFinancieros,Banco Mercantil Santa Cruz S.A.,PLAZA TEJADA SORZANO (STADIUM) CASI ESQ. AV. SAAVEDRA,null,-68.12415021,-16.4989882,gamlp
La Paz,ServiciosFinancieros,Banco Mercantil Santa Cruz S.A.,"AV. BALLIVI�AN # 1426 ESQ. CALLE 21 DE CALACOTO , SAN MIGUEL",null,-68.07821667,-16.53913889,gamlp
La Paz,ServiciosFinancieros,Banco nacional de Bolivia S.A.,"CALLE TUMUSLA NÂº 705, ESQ. BUENOS AIRES, AGENCIA BNB, ZOna 14 DE SEPTIEMBRE",null,-68.144392,-16.49548823,gamlp
La Paz,ServiciosFinancieros,Banco Mercantil Santa Cruz S.A.,AV. BALLIVIAN NO 939 (RESTAURANT LA CAMPAna),null,-68.08390046,-16.53893625,gamlp
La Paz,ServiciosFinancieros,Banco Mercantil Santa Cruz S.A.,"AV. DEL MAESTRO Nº 820, ZOna ALTO OBRAJES",null,-68.10612306,-16.52346765,gamlp
La Paz,ServiciosFinancieros,Banco Mercantil Santa Cruz S.A.,C. JAIME ZUDAÑES ESQ. JAIMES FREYRE S/N,null,-68.13975545,-16.51516952,gamlp
La Paz,ServiciosFinancieros,Banco Mercantil Santa Cruz S.A.,CALLE 21 DE CALACOTO Nº 8511,null,-68.0764307,-16.54578436,gamlp
La Paz,ServiciosFinancieros,Banco Mercantil Santa Cruz S.A.,"AV. JOSE MARIA ACHA FRENTE A CALLE 25 FRENTE A LA CALLE LOS PINOS
",null,-68.07038306,-16.54557758,gamlp
La Paz,ServiciosFinancieros,Banco Mercantil Santa Cruz S.A.,CALLE 29 A Nº 110 ACHUMANI,null,-68.06354083,-16.52131326,gamlp
La Paz,ServiciosFinancieros,Banco Mercantil Santa Cruz S.A.,CALLE ZOILO FLORES Nº1209 SAN PEDRO,null,-68.13817693,-16.501542,gamlp
La Paz,ServiciosFinancieros,Banco de Crédito de Bolivia S.A.,Calle Colon esq. Mercado Nº1308,null,-68.13355876,-16.49823106,gamlp
La Paz,ServiciosFinancieros,Banco de Crédito de Bolivia S.A.,Calle Colon esq. Mercado Nº1308,null,-68.13353191,-16.49824674,gamlp
La Paz,ServiciosFinancieros,Banco de Crédito de Bolivia S.A.,"Av. Camacho No.1223, Edif. Krsul PB.
",null,-68.13463639,-16.49853829,gamlp
La Paz,ServiciosFinancieros,Banco de Crédito de Bolivia S.A.,"Av. América esq. Av. Pando, Edif. Loza No.289",null,-68.1407158,-16.49335271,gamlp
La Paz,ServiciosFinancieros,Banco de Crédito de Bolivia S.A.,"Calle Max Paredes esq. Buenos Aires S/N - Sub Alcaldía Rosario
",null,-68.14408032,-16.49671098,gamlp
La Paz,ServiciosFinancieros,Banco de Crédito de Bolivia S.A.,"Calle Zoilo Flores esq. Riobamba No.1209
",null,-68.13830833,-16.50163056,gamlp
La Paz,ServiciosFinancieros,Banco de Crédito de Bolivia S.A.,Av. Tejada Sorzano Nº 250 - Villa Fatima,null,-68.121375,-16.48043333,gamlp
La Paz,ServiciosFinancieros,Banco de Crédito de Bolivia S.A.,Av. Hernando Siles s/n esq. Calle 10 - Obrajes,null,-68.10715278,-16.52687222,gamlp
La Paz,ServiciosFinancieros,Banco de Crédito de Bolivia S.A.,Av. Hernando Siles s/n esq. Calle 10 - Obrajes,null,-68.10715278,-16.52687222,gamlp
La Paz,ServiciosFinancieros,Banco de Crédito de Bolivia S.A.,"Calle Potosí esq. Jenaro Sanjines 
Nº920 Edif. Hotel Presidente",null,-68.13593721,-16.49582757,gamlp
La Paz,ServiciosFinancieros,Banco de Crédito de Bolivia S.A.,"Av. Juan Muñoz Reyes No.1300 casi esq. Calle 24, frente a las oficinas de CONCRETEC y al lado de las oficinas de FEMCO",null,-68.07436899,-16.54026269,gamlp
La Paz,ServiciosFinancieros,Banco de Crédito de Bolivia S.A.,"Av. Arequipa casi esq. Costanerita No.8406 - La Florida
",null,-68.09090159,-16.54596187,gamlp
La Paz,ServiciosFinancieros,Banco de Crédito de Bolivia S.A.,Calle Altamirano esq. Calle 6 #6593 - Zona Irpavi,null,-68.08700639,-16.52460901,gamlp
La Paz,ServiciosFinancieros,Banco de Crédito de Bolivia S.A.,Av. García Lanza No.100 esq. Calle 10 - Achumani,null,-68.07528007,-16.53484837,gamlp
La Paz,ServiciosFinancieros,Banco de Crédito de Bolivia S.A.,Av. Hernando Siles casi esq. Calle 16 (Licorería Oasis) - Obrajes,null,-68.10239839,-16.52950582,gamlp
La Paz,ServiciosFinancieros,Banco de Crédito de Bolivia S.A.,Av. Saavedra No.2204 frente a la Iglesia Remedios - Zona Miraflores,null,-68.12030475,-16.5060753,gamlp
La Paz,ServiciosFinancieros,Banco de Crédito de Bolivia S.A.,Av. Buenos Aires esq. Uyustus,null,-68.14419549,-16.4938917,gamlp
La Paz,ServiciosFinancieros,Banco de Crédito de Bolivia S.A.,"Calle Yungas esq. Francisco Monroy No.932 (diagonal al Mercado Yungas)
",null,-68.12846893,-16.49748321,gamlp
La Paz,ServiciosFinancieros,Banco de Crédito de Bolivia S.A.,"Av. Ballivián entre Calles 17 y 18 - Calacoto
",null,-68.08147431,-16.53860152,gamlp
La Paz,ServiciosFinancieros,Banco de Crédito de Bolivia S.A.,Calle Comercio esq. Yanacocha,null,-68.13493895,-16.49526036,gamlp
La Paz,ServiciosFinancieros,Banco de Crédito de Bolivia S.A.,"Av. Busch esquina Calle Nicaragua Nº1409 - Frente a la Gasolinera
",null,-68.12071111,-16.50375556,gamlp
La Paz,ServiciosFinancieros,Banco de Crédito de Bolivia S.A.,Av. Ballivián casi esq. Calle 15 (Pizzería Casa Nostra) - Calacoto,null,-68.08380602,-16.53892236,gamlp
La Paz,ServiciosFinancieros,Banco de Crédito de Bolivia S.A.,"Av. José Aguirre Achá S/N - Hipermaxi Los Pinos (a media cuadra del Círculo Aeronáutico)
",null,-68.06972048,-16.54549538,gamlp
La Paz,ServiciosFinancieros,Banco de Crédito de Bolivia S.A.,"Av. Argentina No.1810 esq. José Gutiérrez y Rep. Dominicana - Miraflores
",null,-68.11854678,-16.49997233,gamlp
La Paz,ServiciosFinancieros,Banco de Crédito de Bolivia S.A.,Calle 16 frente Mercado Achumani,null,-68.07327701,-16.53044939,gamlp
La Paz,ServiciosFinancieros,Banco de Crédito de Bolivia S.A.,Av. Rafael Pabón S/N (Mega Center) - Irpavi,null,-68.08664444,-16.53261111,gamlp
La Paz,ServiciosFinancieros,Banco de Crédito de Bolivia S.A.,"Av. Tejada Sorzano Nº 250 - Villa Fatima
",null,-68.121375,-16.48043333,gamlp
La Paz,ServiciosFinancieros,Banco de Crédito de Bolivia S.A.,Calle Colombia esq. Ex Yacuma - Plaza San Pedro,null,-68.13530556,-16.50193889,gamlp
La Paz,ServiciosFinancieros,Banco de Crédito de Bolivia S.A.,Calle Sagárnaga No.383 entre Illampu y Linares,null,-68.13890295,-16.49774051,gamlp
La Paz,ServiciosFinancieros,Banco de Crédito de Bolivia S.A.,Calle Illampu No.859 Edif. Limpieza Finesse,null,-68.13941111,-16.49726944,gamlp
La Paz,ServiciosFinancieros,Banco de Crédito de Bolivia S.A.,"Av. Mariscal Santa Cruz, Farmacias Bolivia frente a Correos",null,-68.13489589,-16.4988514,gamlp
La Paz,ServiciosFinancieros,Banco de Crédito de Bolivia S.A.,Calle 21 esq. José Aguirre Achá,null,-68.07671291,-16.54451337,gamlp
La Paz,ServiciosFinancieros,Banco de Crédito de Bolivia S.A.,Av. 16 de Julio No.1473 - El Prado,null,-68.13304722,-16.50079722,gamlp
La Paz,ServiciosFinancieros,Banco de Crédito de Bolivia S.A.,Av. América esq. Pando Edif. Saiduni,null,-68.14070191,-16.49333882,gamlp
La Paz,ServiciosFinancieros,Banco de Crédito de Bolivia S.A.,Calle Mendes Arcos No.710 - Plaza España,null,-68.12897826,-16.51455774,gamlp
La Paz,ServiciosFinancieros,Banco de Crédito de Bolivia S.A.,Av. Saavedra No.1680 entre Plaza Uyuni y Plaza del Stadium,null,-68.12436332,-16.4988588,gamlp
La Paz,ServiciosFinancieros,Banco de Crédito de Bolivia S.A.,Calle 21 esq. Av. Montenegro - San Miguel,null,-68.07799192,-16.53998294,gamlp
La Paz,ServiciosFinancieros,Banco de Crédito de Bolivia S.A.,Calle 21 esq. Av. Montenegro - San Miguel,null,-68.07799192,-16.53998294,gamlp
La Paz,ServiciosFinancieros,Banco de Crédito de Bolivia S.A.,Av. Saavedra No.1845,null,-68.1229801,-16.5011345,gamlp
La Paz,ServiciosFinancieros,Banco de Crédito de Bolivia S.A.,Av. Saavedra No.1845,null,-68.1229801,-16.5011345,gamlp
La Paz,ServiciosFinancieros,Banco de Crédito de Bolivia S.A.,Av. Arce esq. Campos,null,-68.12181604,-16.51175315,gamlp
La Paz,ServiciosFinancieros,Banco de Crédito de Bolivia S.A.,Calle Comercio esq. Yanacocha,null,-68.13493895,-16.49526036,gamlp
La Paz,ServiciosFinancieros,Banco de Crédito de Bolivia S.A.,Av. 20 de Octubre Edif. Mechita,null,-68.12735789,-16.50912181,gamlp
La Paz,ServiciosFinancieros,Banco de Crédito de Bolivia S.A.,Av. 20 de Octubre Edif. Mechita,null,-68.12735789,-16.50912181,gamlp
La Paz,ServiciosFinancieros,Banco de Crédito de Bolivia S.A.,Calle 16 frente Mercado Achumani,null,-68.07327701,-16.53044939,gamlp
La Paz,ServiciosFinancieros,Banco de Crédito de Bolivia S.A.,Av. 16 de Julio No.1732 - El Prado,null,-68.13206759,-16.50297973,gamlp
La Paz,ServiciosFinancieros,Banco de Crédito de Bolivia S.A.,Av. 16 de Julio No.1732 - El Prado,null,-68.13206759,-16.50297973,gamlp
La Paz,ServiciosFinancieros,Banco de Crédito de Bolivia S.A.,Av. 6 de Agosto No.2048,null,-68.12939444,-16.50605833,gamlp
La Paz,ServiciosFinancieros,Banco de Crédito de Bolivia S.A.,"Av. Tumusla No.753. Entre Av. Buenos Aires y Garita de Lima.
",null,-68.14480281,-16.49556349,gamlp
La Paz,ServiciosFinancieros,Banco de Crédito de Bolivia S.A.,"Av. Brasil esq. San Salvador - Monumento Busch
",null,-68.12083056,-16.49469167,gamlp
La Paz,ServiciosFinancieros,Banco de Crédito de Bolivia S.A.,Av. Arce esq. Campos,null,-68.12179609,-16.51178057,gamlp
La Paz,ServiciosFinancieros,Banco de Crédito de Bolivia S.A.,Galería Taipinquiri Av. Montenegro No.1378 - San Miguel,null,-68.07932222,-16.54079444,gamlp
La Paz,ServiciosFinancieros,Banco de Crédito de Bolivia S.A.,Av. Pasoskanki No.1762 - Cruce Villa San Antonio,null,-68.11719726,-16.49588636,gamlp
La Paz,ServiciosFinancieros,Banco de Crédito de Bolivia S.A.,Av. Montes y Pérez Velasco Final Comercio No.791,null,-68.136729,-16.49399821,gamlp
La Paz,ServiciosFinancieros,Banco de Crédito de Bolivia S.A.,Av. Montes y Pérez Velasco Final Comercio No.791,null,-68.136729,-16.49399821,gamlp
La Paz,ServiciosFinancieros,Banco de Crédito de Bolivia S.A.,Calle Colón esq. Mercado,null,-68.13356015,-16.49825116,gamlp
La Paz,ServiciosFinancieros,Banco de Crédito de Bolivia S.A.,Calle Colón esq. Mercado,null,-68.13356015,-16.49825116,gamlp
La Paz,ServiciosFinancieros,Banco de Crédito de Bolivia S.A.,Calle Colón esq. Mercado,null,-68.13349936,-16.49826049,gamlp
La Paz,ServiciosFinancieros,Banco de Crédito de Bolivia S.A.,Calle Colón esq. Mercado,null,-68.13358385,-16.49827278,gamlp
La Paz,ServiciosFinancieros,Banco de Crédito de Bolivia S.A.,Calle Landaeta No.1747 - Plaza El Cóndor,null,-68.13535224,-16.50907123,gamlp
La Paz,ServiciosFinancieros,Banco de Crédito de Bolivia S.A.,Edif. Isabelita - Plaza Isabel La Católica,null,-68.12396111,-16.50974722,gamlp
La Paz,ServiciosFinancieros,Banco de Crédito de Bolivia S.A.,Av. 20 de Octubre esq. Pedro Salazar,null,-68.12596001,-16.51052348,gamlp
La Paz,ServiciosFinancieros,Banco de Crédito de Bolivia S.A.,Av. Sucre esq. Bolivar Nº 194 - Frente a Identificaciones,null,-68.13186957,-16.49416428,gamlp
La Paz,ServiciosFinancieros,Banco Do Brasil S.A.- Sucursal Bolivia,"AVENIDA 20 DE OCTUBRE ESQUIna CAMPOS EDIFICIO TORRE AZUL, 2665",null,-68.12368889,-16.51285833,gamlp
La Paz,ServiciosFinancieros,Banco BISA S.A.,"Av. Las Delicias, Calle Felipe Lopez S/N, Zona Villa Fatima",null,-68.11949685,-16.47869815,gamlp
La Paz,ServiciosFinancieros,Banco BISA S.A.,"Av. Las Delicias, calle Felipe Lopez S/N, Zona Villa Fatima",null,-68.11951492,-16.47864872,gamlp
La Paz,ServiciosFinancieros,Banco BISA S.A.,"Av. Busch esquina Parque Triangular, Gasolinera SAF",null,-68.12135781,-16.50382792,gamlp
La Paz,ServiciosFinancieros,Banco BISA S.A.,Av. Arce No. 2631 Edificio Multicine,null,-68.12237345,-16.51105989,gamlp
La Paz,ServiciosFinancieros,Banco BISA S.A.,"Edificio Valdivia No. 1442, Av. Kollasuyo entre calle Bustillos y Jose Maria Asin, Zona El Tejar.",null,-68.15254772,-16.49441594,gamlp
La Paz,ServiciosFinancieros,Banco BISA S.A.,"Av. Ballivian No. 1461, entre Calles 21 y 22 de Calacoto
",null,-68.07724722,-16.538825,gamlp
La Paz,ServiciosFinancieros,Banco BISA S.A.,"Calle Tumusla Nº 757, Zona 14 de Septiembre",null,-68.14481768,-16.49535041,gamlp
La Paz,ServiciosFinancieros,Banco BISA S.A.,"Av. Las Retamas S/N, Zona La Florida (Colegio Saint AndrewÂ´s)",null,-68.08752151,-16.54895403,gamlp
La Paz,ServiciosFinancieros,Banco BISA S.A.,"Av. Saavedra Nº 1594 Esquina Posnasky, Zona Miraflores",null,-68.12437736,-16.49784465,gamlp
La Paz,ServiciosFinancieros,Banco BISA S.A.,Av. Ormachea esq. calle 8 Nº 5390 - Obrajes,null,-68.10859167,-16.52683056,gamlp
La Paz,ServiciosFinancieros,Banco BISA S.A.,20 de Octubre Nº 927 Plaza Avaroa,null,-68.12624296,-16.51022771,gamlp
La Paz,ServiciosFinancieros,Banco BISA S.A.,Calle Illampu esq. Santa Cruz Nº 762,null,-68.13988711,-16.49644843,gamlp
La Paz,ServiciosFinancieros,Banco BISA S.A.,Av. Montenegro Nº 1365 - San Miguel,null,-68.07942853,-16.54046639,gamlp
La Paz,ServiciosFinancieros,Banco BISA S.A.,"Final Av. 6 de Agosto esq. Av. Arce Nro. 2993, San Jorge.",null,-68.11975718,-16.51501829,gamlp
La Paz,ServiciosFinancieros,Banco BISA S.A.,"Calle 16 Nº5, Zona Achumani",null,-68.07313763,-16.53067676,gamlp
La Paz,ServiciosFinancieros,Banco BISA S.A.,"Av. Francia entre calles 10 y 11, Zona Achumani.",null,-68.07680278,-16.53273889,gamlp
La Paz,ServiciosFinancieros,Banco BISA S.A.,"Av. General Inofuentes Nro. 7823, entre Calles 12 y 13 de Calacoto.",null,-68.08726389,-16.53891111,gamlp
La Paz,ServiciosFinancieros,Banco BISA S.A.,"Calle Calatayud Nº 950 esq. Calle Bautista Saavedra, Barrio 14 de Septiembre.",null,-68.14788914,-16.49534653,gamlp
La Paz,ServiciosFinancieros,Banco BISA S.A.,"Av. Hugo Ernest Nº 7050, Zona Bajo Seguencoma.",null,-68.09730833,-16.53627778,gamlp
La Paz,ServiciosFinancieros,Banco BISA S.A.,Av. 16 de Julio Nº 1591 Edif. Señor de Mayo,null,-68.13244902,-16.50159079,gamlp
La Paz,ServiciosFinancieros,Banco BISA S.A.,Av. Ballivian Nº 941 esquina calle 16 Calacoto,null,-68.08367546,-16.53890014,gamlp
La Paz,ServiciosFinancieros,Banco BISA S.A.,"Av. Rafael Pabon S/N, distrito 44, Manzano 2546, Local Comercial Nº C-16, Irpavi",null,-68.08656944,-16.53295833,gamlp
La Paz,ServiciosFinancieros,Banco BISA S.A.,"Calle Yungas Nº 876, Miraflores",null,-68.12871725,-16.49742924,gamlp
La Paz,ServiciosFinancieros,Banco BISA S.A.,Av. Pasoskanki Nº 1713,null,-68.11729448,-16.49567473,gamlp
La Paz,ServiciosFinancieros,Banco BISA S.A.,Av. Saavedra Nº 2218 (frente al Hospital de Clínicas),null,-68.12008311,-16.50698497,gamlp
La Paz,ServiciosFinancieros,Banco BISA S.A.,"Av. Saavedra Nº 1760, Edificio Ibita, Local 3 , Zona Miraflores",null,-68.12390135,-16.50022809,gamlp
La Paz,ServiciosFinancieros,Banco BISA S.A.,"Calle Sagárnaga Nº 322, Hotel Sagárnaga",null,-68.13736389,-16.49669167,gamlp
La Paz,ServiciosFinancieros,Banco BISA S.A.,"Calle Pedro de la Gasca Nº 690 esq. Eloy Salmón, Zona Gran Poder.",null,-68.14307626,-16.49800476,gamlp
La Paz,ServiciosFinancieros,Banco BISA S.A.,Av. Camacho Nº 1333 - Agencia,null,-68.133825,-16.498925,gamlp
La Paz,ServiciosFinancieros,Banco BISA S.A.,"Av. Arce Nº 2631,Edif. Multicine, Local Nº18.",null,-68.12237345,-16.51105989,gamlp
La Paz,ServiciosFinancieros,Banco BISA S.A.,Calle Sucre Nº 701 esq. Jenaro Sanjinés (Colegio San Calixto),null,-68.13444659,-16.49278509,gamlp
La Paz,ServiciosFinancieros,Banco BISA S.A.,Calle Landaeta Nº 1447(Plaza El Cóndor),null,-68.13552439,-16.50918048,gamlp
La Paz,ServiciosFinancieros,Banco BISA S.A.,"Calle 29 Nº 110, Zona Achumani",null,-68.06369981,-16.52156019,gamlp
La Paz,ServiciosFinancieros,Banco BISA S.A.,"Calle 21 Nº 8342 esq. Calle Pancara, Zona Calacoto",null,-68.07750579,-16.54237277,gamlp
La Paz,ServiciosFinancieros,Banco BISA S.A.,"Av. Altamirano Nº 6593 esq. Calle 6, Zona Irpavi.",null,-68.08707561,-16.52453814,gamlp
La Paz,ServiciosFinancieros,Banco BISA S.A.,Calle México Nº 1530 entre Calles Nicolás Acosta y Otero de la Vega (Zona San Pedro),null,-68.13332619,-16.50208883,gamlp
La Paz,ServiciosFinancieros,Banco BISA S.A.,"Av. Muñoz Reyes Nº 7, Zona Cota Cota.",null,-68.06290664,-16.54075408,gamlp
La Paz,ServiciosFinancieros,Banco BISA S.A.,"Av. Villazón Nº 1957, Edif. Viveros (Plaza del Bicentenario)",null,-68.13052401,-16.50498836,gamlp
La Paz,ServiciosFinancieros,Banco Unión S.A.,"Avenida Villazón NÂº 1957,frente a la Universidad Mayor de San Andres,zona central.",null,-68.13056077,-16.50496395,gamlp
La Paz,ServiciosFinancieros,Banco Unión S.A.,Calle Junin NÂº551,null,-68.13387778,-16.49536389,gamlp
La Paz,ServiciosFinancieros,Banco Unión S.A.,Av. Montenegro No. 966 - San Miguel (frente Col. Loretto),null,-68.07865782,-16.54521453,gamlp
La Paz,ServiciosFinancieros,Banco Unión S.A.,C. C. Strongest. No. 1587 - San Pedro,null,-68.13392903,-16.50306333,gamlp
La Paz,ServiciosFinancieros,Banco Unión S.A.,"Av. Perú, No. 555 Zona Norte (terminal)",null,-68.14056227,-16.48811309,gamlp
La Paz,ServiciosFinancieros,Banco Unión S.A.,c. Diaz Romero No. 262 entre Buchs y Saavedra,null,-68.1222637,-16.50160063,gamlp
La Paz,ServiciosFinancieros,Banco Unión S.A.,c. Diaz Romero entre Saavedra y Buch,null,-68.12219048,-16.50160484,gamlp
La Paz,ServiciosFinancieros,Banco Unión S.A.,"Av. Mcal. Santa Cruz, esq. Oruro Edificio Correos Planta Baja",null,-68.13519293,-16.4991776,gamlp
La Paz,ServiciosFinancieros,Banco Unión S.A.,Calle Bueno No. 138 casi esq. Federico Zuazo,null,-68.13229992,-16.50090191,gamlp
La Paz,ServiciosFinancieros,Banco Unión S.A.,"Calle Bueno No. 138 casi esq. federico Suazo
",null,-68.13226659,-16.50089079,gamlp
La Paz,ServiciosFinancieros,Banco Unión S.A.,"CALLE ALTAMIRANO CASI ESQ, 5 (FRENTE pLAZA)",null,-68.08691396,-16.52433834,gamlp
La Paz,ServiciosFinancieros,Banco Unión S.A.,Calle Calatayud esquina Ascui 569,null,-68.14836111,-16.49403611,gamlp
La Paz,ServiciosFinancieros,Banco Unión S.A.,Av.Idelfonzo de las Muñecas esq. Viacha,null,-68.14165482,-16.49279396,gamlp
La Paz,ServiciosFinancieros,Banco Unión S.A.,"Avenida Mariscal Santa Cruz, esquina Calle Cochabamba NÂº 525, Edificio Loteria nacional.",null,-68.13630771,-16.49760142,gamlp
La Paz,ServiciosFinancieros,Banco Unión S.A.,"CAlle Ballivian NÂº 1285, esquina Calle Colón,zona central.",null,-68.13211389,-16.49578889,gamlp
La Paz,ServiciosFinancieros,Banco Unión S.A.,Avenida 16 de Julio Nº 1544(El Prado),null,-68.13297972,-16.50174623,gamlp
La Paz,ServiciosFinancieros,Banco Unión S.A.,Avenida 16 de Julio Nº 1544(El Prado),null,-68.1190588,-16.50173876,gamlp
La Paz,ServiciosFinancieros,Banco Unión S.A.,"AV. DEL MAESTRO No. 879 ESQ. H. GUILLEN, SECTOR B DE ALTO OBRAJES",null,-68.10648398,-16.52328292,gamlp
La Paz,ServiciosFinancieros,Banco Unión S.A.,"Avenida Saavedra, rotonda Policia Militar, predios del Estado Mayor, zona Miraflores.",null,-68.11906787,-16.50919412,gamlp
La Paz,ServiciosFinancieros,Banco Unión S.A.,c. LANDAETA # 450,null,-68.13539737,-16.50911634,gamlp
La Paz,ServiciosFinancieros,Banco Unión S.A.,c. Yungas No. 876,null,-68.12874737,-16.49742404,gamlp
La Paz,ServiciosFinancieros,Banco Unión S.A.,Av. Muñoz Reyes No. 170 esq. calle 28 (Gasolinera),null,-68.06772778,-16.54090556,gamlp
La Paz,ServiciosFinancieros,Banco Unión S.A.,aV. Gral. Garcia Lanza s/n casi esq. calle 11 Achumani,null,-68.07527569,-16.53414314,gamlp
La Paz,ServiciosFinancieros,Banco Unión S.A.,"Av, Esteban Arce No. 1747 Zona Villa Copacabana",null,-68.11710734,-16.49574075,gamlp
La Paz,ServiciosFinancieros,Banco Unión S.A.,Av. hernando siles esq. c. 16 de obrajes,null,-68.10218333,-16.52959722,gamlp
La Paz,ServiciosFinancieros,Banco Unión S.A.,Av. Hernando Siles esq. c. 11 de Obrajes,null,-68.10647607,-16.5272384,gamlp
La Paz,ServiciosFinancieros,Banco Unión S.A.,Av. Hugo Ernest No. 7404 Bajo Seguencoma (Academia de Policias),null,-68.09612222,-16.54055,gamlp
La Paz,ServiciosFinancieros,Banco Unión S.A.,Plaza San Martin esq. Av. Saavedra,null,-68.12133392,-16.50384791,gamlp
La Paz,ServiciosFinancieros,Banco Unión S.A.,Calle 16 # 7 (Mercado Achumani),null,-68.07322778,-16.53053827,gamlp
La Paz,ServiciosFinancieros,Banco Unión S.A.,Av. Saavedra esq. Hugo Estrada # 1706 (inmueble Pollos Copacabana),null,-68.12368889,-16.50003889,gamlp
La Paz,ServiciosFinancieros,Banco Unión S.A.,Calle Rosendo Gutiérrez entre Sánchez Lima y 20 de Octubre,null,-68.12797778,-16.50947778,gamlp
La Paz,ServiciosFinancieros,Banco Unión S.A.,Av. Montenegro # 1365,null,-68.07964491,-16.54055087,gamlp
La Paz,ServiciosFinancieros,Banco Unión S.A.,Calle Hugo Estrada # 80 esq. Guerrilleros Lanza,null,-68.12299623,-16.49828746,gamlp
La Paz,ServiciosFinancieros,Banco Unión S.A.,Av. Montes # 275,null,-68.13700699,-16.49330435,gamlp
La Paz,ServiciosFinancieros,Banco Unión S.A.,Av. Camacho # 1416 esq. Loayza,null,-68.13313442,-16.49954016,gamlp
La Paz,ServiciosFinancieros,Banco Unión S.A.,Av. Camacho # 1416 esq. Loayza,null,-68.13305109,-16.49955127,gamlp
La Paz,ServiciosFinancieros,Banco Unión S.A.,Calle Loayza casi esq.Av.Camacho,null,-68.13325278,-16.49946389,gamlp
La Paz,ServiciosFinancieros,Banco Unión S.A.,Calle Belisario Salinas entre Calles 20 de Octubre y Sanchez Lima Edificio Alcides Arguedas,null,-68.12729444,-16.5103,gamlp
La Paz,ServiciosFinancieros,Banco Unión S.A.,Calle Pedro de la Gasca esq. Eloy Salmon # 691,null,-68.14259508,-16.4977921,gamlp
La Paz,ServiciosFinancieros,Banco Unión S.A.,Av. Buenos Aires # 470,null,-68.14437956,-16.49373367,gamlp
La Paz,ServiciosFinancieros,Banco Unión S.A.,Calle 21 # 8446 Zona Calacoto,null,-68.07667958,-16.54456892,gamlp
La Paz,ServiciosFinancieros,Banco Unión S.A.,Av. Mariscal Santa Cruz # 980,null,-68.13637951,-16.497464,gamlp
La Paz,ServiciosFinancieros,Banco Unión S.A.,Calle Ecuador esq. Méndez Arcos,null,-68.12899019,-16.51438253,gamlp
La Paz,ServiciosFinancieros,Banco Unión S.A.,Calle Sagarnaga # 288,null,-68.13806944,-16.49705,gamlp
La Paz,ServiciosFinancieros,Banco Unión S.A.,Av. Ballivian esq. Calle 10,null,-68.08889459,-16.54069798,gamlp
La Paz,ServiciosFinancieros,Banco Unión S.A.,Av. 14 de Septiembre esq. Calle 17,null,-68.10043889,-16.52953889,gamlp
La Paz,ServiciosFinancieros,Banco Unión S.A.,AV JOSE ACHA HIPERMAXI S/N ZOna LOS PINOS,null,-68.07012533,-16.54558921,gamlp
La Paz,ServiciosFinancieros,Banco Unión S.A.,CALLE COMERCIO ESQ JUNIN 1093,null,-68.13411389,-16.495675,gamlp
La Paz,ServiciosFinancieros,Banco Unión S.A.,Av. de las Americas No. 250 - Villa Fatima,null,-68.12098947,-16.47949023,gamlp
La Paz,ServiciosFinancieros,Banco Económico S.A.,Av. de las Americas #258 zona Villa Fatima,null,-68.12144167,-16.48053056,gamlp
La Paz,ServiciosFinancieros,Banco Económico S.A.,La Paz Av. Camacho Nro. 1245 entre Colon y Ayacucho,null,-68.13369804,-16.49899468,gamlp
La Paz,ServiciosFinancieros,Banco Económico S.A.,"La Paz Av. Ballivian y calle nÂº 18 Calacoto, lado Burger King.",null,-68.08118829,-16.53863,gamlp
La Paz,ServiciosFinancieros,Banco Económico S.A.,La Paz Calle Comercio Esq. Plaza Murillo,null,-68.13432712,-16.49578522,gamlp
La Paz,ServiciosFinancieros,Banco Económico S.A.,"La Paz Av. Arce, Plaza Isabel la Católica, lado Laboratorio LPZ.",null,-68.12423344,-16.50881738,gamlp
La Paz,ServiciosFinancieros,Banco Económico S.A.,La Paz Calle José Maria Aguirre S/N casi Esq. Calle 25.,null,-68.06922074,-16.54536675,gamlp
La Paz,ServiciosFinancieros,Banco Económico S.A.,CALLE SAGARnaGA NÂº519 ESQUIna MAX PAREDES.,null,-68.14036098,-16.49929402,gamlp
La Paz,ServiciosFinancieros,Banco Económico S.A.,"AVENIDA 16 DE JULIO EDIFICIO ALAMEDA LOCAL 1, LADO DISCOLANDIA.",null,-68.13203216,-16.50218035,gamlp
La Paz,ServiciosFinancieros,Banco Económico S.A.,"ZOna SAN MIGUEL BLOQUE B NÂº18 FRENTE A CHIWIÑA, AVENIDA MONTENEGRO.",null,-68.07909466,-16.54058997,gamlp
La Paz,ServiciosFinancieros,Banco Económico S.A.,"CALLE 16 MANZAna 3, PAnaDERIA DELIPAN, FRENTE A MERCADO ACHUMANI.",null,-68.07315227,-16.53064286,gamlp
La Paz,ServiciosFinancieros,Banco Económico S.A.,"CALLE SANTA CRUZ ESQUIna ILLAMPU LADO HARD ROCK CAFE, ZOna EL ROSARIO.",null,-68.13990125,-16.49651497,gamlp
La Paz,ServiciosFinancieros,Banco Solidario S.A.,"Av. Las Américas #537, casi esquina Calle Chulumani, Zona Villa Fátima.
",null,-68.11880157,-16.47580171,gamlp
La Paz,ServiciosFinancieros,Banco Solidario S.A.,"Calle Zoilo Flores Nro.1265 (Edificio Figliozzi), entre las calles Almirante Grau y Riobamba, Zona San Pedro",null,-68.13765833,-16.50220278,gamlp
La Paz,ServiciosFinancieros,Banco Solidario S.A.,"Av. Camacho #1499, esquina Calle Bueno, Edif. La Urbana - Agencia Camacho.
",null,-68.13203632,-16.49977259,gamlp
La Paz,ServiciosFinancieros,Banco Solidario S.A.,"Calle Calatayud #557, cerca de la Av. Apumalla, Zona Callampaya.
",null,-68.14825556,-16.49397778,gamlp
La Paz,ServiciosFinancieros,Banco Solidario S.A.,"Calle Illampu #843, entre Calles Sagarnaga y Santa Cruz, Zona El Rosario.",null,-68.13931389,-16.49761389,gamlp
La Paz,ServiciosFinancieros,Banco Solidario S.A.,"Av. del Maestro #252, esquina. Calle Gamarra frente al Parque Quezada, Zona Alto Obrajes.",null,-68.11015366,-16.5204932,gamlp
La Paz,ServiciosFinancieros,Banco Solidario S.A.,"Av. Baltazar de Salas #904 - Agencia Vino Tinto.
",null,-68.13991139,-16.48149954,gamlp
La Paz,ServiciosFinancieros,Banco Solidario S.A.,"Calle 6, frente a la Plaza Almirante Grau, Mercado de Irpavi,  Zona de Irpavi.
",null,-68.08747778,-16.52464722,gamlp
La Paz,ServiciosFinancieros,Banco Solidario S.A.,"Av. Defensores del Chaco #51, entre Calles 48 y 49, Zona Chasquipampa.",null,-68.04954967,-16.53777369,gamlp
La Paz,ServiciosFinancieros,Banco Solidario S.A.,"Av. Ciudad del Niño #221, Zona Pampahasi.
",null,-68.10523115,-16.50178904,gamlp
La Paz,ServiciosFinancieros,Banco Solidario S.A.,"Av. Florida, esquina Calle El Agrario, Hotel Oberland, Zona Mallasa.",null,-68.08942936,-16.56764252,gamlp
La Paz,ServiciosFinancieros,Banco Solidario S.A.,"Av. Villazón #1957, Edificio Viveros, frente a la Plaza Bicentenario.",null,-68.13061312,-16.50491843,gamlp
La Paz,ServiciosFinancieros,Banco Solidario S.A.,"Av. Juan XXIII, esquina Calle San Juan #66 - Agencia Villa Armonia.
",null,-68.11274444,-16.50818611,gamlp
La Paz,ServiciosFinancieros,Banco Solidario S.A.,"Calle Sucre #799, casi esquina Calle Bolivar, frente a la FELCC, Zona Central.",null,-68.13212617,-16.49421097,gamlp
La Paz,ServiciosFinancieros,Banco Solidario S.A.,"Av. Jaimes Freyre # 1784, casi esquina calle Landaeta, zona Tembladerani â€“ Agencia Tembladerani.",null,-68.1427,-16.51160556,gamlp
La Paz,ServiciosFinancieros,Banco Solidario S.A.,"Av. Final Kollasuyo #120 (Av. Alcides Arguedas) casi esquina Av. naciones Unidas, zona La Portada â€“ Agencia La Portada",null,-68.16761667,-16.48876111,gamlp
La Paz,ServiciosFinancieros,Banco Solidario S.A.,"Calle 21 de Calacoto #394, entre Av. Ballivian y Julio Patiño - Agencia San Miguel.",null,-68.07816111,-16.53926944,gamlp
La Paz,ServiciosFinancieros,Banco Solidario S.A.,"Av. Camacho #1499, esquina Calle Bueno, Edif. La Urbana - Agencia Camacho.",null,-68.13204465,-16.49976704,gamlp
La Paz,ServiciosFinancieros,Banco Solidario S.A.,"Av. Tejada Sorzano #305 (Av. de las Américas) , esquina Alto Beni - Agencia Villa Fátima.
",null,-68.12139716,-16.48102976,gamlp
La Paz,ServiciosFinancieros,Banco Solidario S.A.,"Calle Evaristo Valle #136 - Agencia Alonso de Mendoza.
",null,-68.13758826,-16.49395241,gamlp
La Paz,ServiciosFinancieros,Banco Solidario S.A.,"Av. Buenos Aires #708, esquina Max Paredes - Agencia Garita.
",null,-68.14451679,-16.49665083,gamlp
La Paz,ServiciosFinancieros,Banco Solidario S.A.,"Calle Nicolás Acosta #289, esquina Cañada Strongest - Agencia San Pedro.
",null,-68.13453056,-16.50246111,gamlp
La Paz,ServiciosFinancieros,Banco Solidario S.A.,"Av. 16 de Julio #1544, frente a Calles Bueno y Campero.
",null,-68.13310063,-16.50159155,gamlp
La Paz,ServiciosFinancieros,Banco Solidario S.A.,"Plaza Tejada Sorzano (Plaza del Estadio) #1392, Edif. Radio Club La Paz, al lado de la Agencia Miraflores.",null,-68.12416094,-16.49891546,gamlp
La Paz,ServiciosFinancieros,Banco Solidario S.A.,"Calle Comercio #1001, esquina Yanacocha, Zona Central.",null,-68.13474796,-16.49537722,gamlp
La Paz,ServiciosFinancieros,Banco Solidario S.A.,"Av. 31 de Octubre #1542, Cruce Villas Copacabana y San Antonio - Agencia Villa Copacabana.
",null,-68.11666931,-16.49627391,gamlp
La Paz,ServiciosFinancieros,Banco Solidario S.A.,"Calle Manuel Bustillos #745, Zona El Tejar - Agencia El Tejar.
",null,-68.15356069,-16.49502513,gamlp
La Paz,ServiciosFinancieros,Banco Solidario S.A.,"Calle Yungas #876, frente al Mercado (lado importadora Rojas), casi esquina Francisco Monrroy.",null,-68.12877508,-16.49741846,gamlp
La Paz,ServiciosFinancieros,Banco Solidario S.A.,"Av.Busch y Av. Saavedra #2085, casi esquina C. Nicaragua, cerca a la Plaza San Martin , Zona de Miraflores.
",null,-68.12138889,-16.50373889,gamlp
La Paz,ServiciosFinancieros,Banco Solidario S.A.,"Av. Perú #291, casi esquina Beni, Hotel Bolivian Passport, Zona Challapampa.",null,-68.14111437,-16.48807347,gamlp
La Paz,ServiciosFinancieros,Banco Solidario S.A.,"Calle Victor Sanjinez #2654, entre Calles Barrios y Mendez Arcos, Z. Sopocachi, Hotel Alcalá, frente a la Plaza España.",null,-68.12902058,-16.51416387,gamlp
La Paz,ServiciosFinancieros,Banco Solidario S.A.,"Av. García Lanza #200, casi esquina Calle 15, Zona Achumani.",null,-68.07340407,-16.53185815,gamlp
La Paz,ServiciosFinancieros,Banco Solidario S.A.,"Calle Maximiliano Paredes, esquina Antonio Gallardo #514 y 844 - Agencia Gran Poder.
",null,-68.14082425,-16.49862683,gamlp
La Paz,ServiciosFinancieros,Banco Solidario S.A.,"Calle Illampu #760, casi esquina Calle Santa Cruz, Zona  El Rosario.
",null,-68.13991251,-16.49633807,gamlp
La Paz,ServiciosFinancieros,Banco Solidario S.A.,"Av. Busch #1319, Casa de Funerales Santa Maria, cerca al Monumento a Busch, Z. de Miraflores.",null,-68.12113753,-16.49489238,gamlp
La Paz,ServiciosFinancieros,Banco Solidario S.A.,"Av. Sanchez Lima #2349, entre Calles Rosendo Gutierrez y B. Salinas, frente supermercado Fidalga, Zona de Sopocachi.",null,-68.12776111,-16.51034167,gamlp
La Paz,ServiciosFinancieros,Banco Solidario S.A.,"Calle Potosí #909,  esquina Genaro Sanjinez, Hotel Gloria.
",null,-68.1358751,-16.49565656,gamlp
La Paz,ServiciosFinancieros,Banco Solidario S.A.,"Av. Ballivián #413, casi esquina Calle 10, Zona de Calacoto.
",null,-68.08931212,-16.54046148,gamlp
La Paz,ServiciosFinancieros,Banco Solidario S.A.,"Av. Hernando Siles #6204, esquina Calle 16, Zona de Obrajes.
",null,-68.1022041,-16.52962219,gamlp
La Paz,ServiciosFinancieros,Banco Solidario S.A.,"Calle Sagárnaga #334, Hotel Alem, Zona El Rosario.
",null,-68.13868002,-16.49771766,gamlp
La Paz,ServiciosFinancieros,Banco Solidario S.A.,"Av. Manco Kapac, esquina Isaac Tamayo #745, Zona San Sebastián.",null,-68.14237827,-16.49326763,gamlp
La Paz,ServiciosFinancieros,Banco Solidario S.A.,"Av. Muñoz Reyes #32, entre Calles 32 y 33 - Agencia Cota Cota
",null,-68.06055,-16.541275,gamlp
La Paz,ServiciosFinancieros,Banco Ganadero S.A.,Plaza Isabel La Católica (Lado Laboratorio La Paz),null,-68.12434498,-16.50879136,gamlp
La Paz,ServiciosFinancieros,Banco Ganadero S.A.,Plaza Tejada Sorzano Esq. Saavedra (Zona Miraflores por el Stadium),null,-68.12413487,-16.50004023,gamlp
La Paz,ServiciosFinancieros,Banco Ganadero S.A.,"Av. 16 de Julio Nº 1805 entre Calles Tihuanacu y Batallón Colorados, Zona El Prado",null,-68.13111389,-16.503475,gamlp
La Paz,ServiciosFinancieros,Banco Ganadero S.A.,Av. Esteban Arce Nº 1827 cruce Villa San Antonio - Villa Copacabana.,null,-68.11637732,-16.4958407,gamlp
La Paz,ServiciosFinancieros,Banco Ganadero S.A.,Av. Manuel Garcia Lanza Nº 18  entre Calle 15 y 16 Zona Achumani.,null,-68.07299018,-16.53146371,gamlp
La Paz,ServiciosFinancieros,Banco Ganadero S.A.,"Edificio Topater Nº 2473  Av. 20 de Octubre entre Belisario Salinas y Pedro Salazar, Zona de la Plaza Abaroa.",null,-68.12612791,-16.51030822,gamlp
La Paz,ServiciosFinancieros,Banco Ganadero S.A.,"Av. Hernando Siles N. 6204 Esq. Calle 16, Zona de Obrajes, cruce a Següencoma, La Paz",null,-68.13546944,-16.52959444,gamlp
La Paz,ServiciosFinancieros,Banco Ganadero S.A.,"Calle Illampu Nº 670, Zona el Rosario.",null,-68.14048889,-16.49489167,gamlp
La Paz,ServiciosFinancieros,Banco Ganadero S.A.,"Calle 21 Nº 8215, Zona de Calacoto.",null,-68.0776704,-16.54008886,gamlp
La Paz,ServiciosFinancieros,Banco Ganadero S.A.,"Supermercado Hipermaxi de la Av. José María  Achá Nº 85, Zona Los Pinos, LPZ.",null,-68.06739859,-16.54457928,gamlp
La Paz,ServiciosFinancieros,Banco Los Andes Procredit S.A.,Av. Landaeta esq José Saravia Nº 1801,null,-68.140872,-16.51156167,gamlp
La Paz,ServiciosFinancieros,Banco Los Andes Procredit S.A.,Av Landaeta esq. José María Camacho Nº 1731 frente Plaza El Condor,null,-68.13578596,-16.50897404,gamlp
La Paz,ServiciosFinancieros,Banco Los Andes Procredit S.A.,"Calle 21 Nº58, Zona Calacoto",null,-68.07711111,-16.54275,gamlp
La Paz,ServiciosFinancieros,Banco Los Andes Procredit S.A.,"Avenida Tejada Sorzano No 393, Zona Miraflores",null,-68.12137778,-16.48052222,gamlp
La Paz,ServiciosFinancieros,Banco Los Andes Procredit S.A.,"Calle Linares, esquina Santa Cruz No 265",null,-68.13876219,-16.49628194,gamlp
La Paz,ServiciosFinancieros,Banco Los Andes Procredit S.A.,"Avenida Saavedra, esquina calle Hugo estrada No 1706",null,-68.12367264,-16.50013138,gamlp
La Paz,ServiciosFinancieros,Banco Los Andes Procredit S.A.,Avenida Garcia Lanza Nº 1500 Zona Achumani,null,-68.07382369,-16.53246839,gamlp
La Paz,ServiciosFinancieros,Banco Los Andes Procredit S.A.,Av. Hernando Siles # 6204 casi esquina Calle 16 â€“ Zona Obrajes,null,-68.10215833,-16.5296,gamlp
La Paz,ServiciosFinancieros,Banco Los Andes Procredit S.A.,Av. Ballivian esq. Calle 20 Nº 8047,null,-68.07861389,-16.53925,gamlp
La Paz,ServiciosFinancieros,Banco Los Andes Procredit S.A.,Av. 16 de Julio No. 1486 - Edificio Banco Los Andes ProCredit SA - El Prado,null,-68.13316683,-16.50146982,gamlp
La Paz,ServiciosFinancieros,Banco Los Andes Procredit S.A.,"Av. América No. 203, a una cuadra de la Plaza Alonso de Mendoza",null,-68.13971097,-16.49351768,gamlp
La Paz,ServiciosFinancieros,Banco Los Andes Procredit S.A.,Calle Belisario Salinas No 438,null,-68.12698251,-16.510014,gamlp
La Paz,ServiciosFinancieros,Banco Los Andes Procredit S.A.,Av. Buenos Aires No 555,null,-68.14401389,-16.49468056,gamlp
La Paz,ServiciosFinancieros,Banco Los Andes Procredit S.A.,"Calle Pedro de la Gasca No. 520, Esquina Sebastian Segurola",null,-68.14276565,-16.49804953,gamlp
La Paz,ServiciosFinancieros,Banco Los Andes Procredit S.A.,Avenida Esteban Arce No 1705,null,-68.11748957,-16.4955979,gamlp
La Paz,ServiciosFinancieros,Banco Los Andes Procredit S.A.,Avenida Baptista esquina Calle Calatayud No950 zona Callampaya,null,-68.14777971,-16.49552959,gamlp
La Paz,ServiciosFinancieros,Banco para el Fomento a Iniciativas Económicas S.A.,"Plaza Eguino, esq. América, Edificio Loza No.289, de la ciudad de La Paz",null,-68.14052889,-16.49350327,gamlp
La Paz,ServiciosFinancieros,Banco para el Fomento a Iniciativas Económicas S.A.,"Av. Simón Bolívar No.1990, Zona Miraflores de la ciudad de La Paz",null,-68.12472839,-16.4998722,gamlp
La Paz,ServiciosFinancieros,Banco para el Fomento a Iniciativas Económicas S.A.,"Calle Gral. Gónzales No.1272, Zona San Pedro de la ciudad de La Paz",null,-68.13664506,-16.5014625,gamlp
La Paz,ServiciosFinancieros,Banco para el Fomento a Iniciativas Económicas S.A.,Av. Camacho No. 1355 de la ciudad de La Paz,null,-68.13372026,-16.49896135,gamlp
La Paz,ServiciosFinancieros,Banco para el Fomento a Iniciativas Económicas S.A.,"Calle 18 No.50 entre Av. Montenegro y Julio Patiño, Zona San Miguel ciudad de La Paz",null,-68.08061389,-16.54071667,gamlp
La Paz,ServiciosFinancieros,Mutual La Primera,Av. Montenegro No. 111 San Miguel Centro Comercial La Chiwiña,null,-68.07918256,-16.54039434,gamlp
La Paz,ServiciosFinancieros,Mutual La Primera,Av. Saavedra No. 22  esquina Plaza Tejada Sorzano(Miraflores),null,-68.12440015,-16.49895237,gamlp
La Paz,ServiciosFinancieros,Mutual La Primera,Av. Mariscal Santa Cruz Nº 1364,null,-68.13433864,-16.50027265,gamlp
La Paz,ServiciosFinancieros,Mutual La Primera,Av.Uruguay y Armentia Terminal de Buses,null,-68.14108889,-16.48862222,gamlp
La Paz,ServiciosFinancieros,Mutual La Primera,AV. 20 DE OCTUBRE nO. 402 ESQUIna BELISARIO SALInaS ED. TORRE SAFIRO,null,-68.12691236,-16.5098847,gamlp
La Paz,ServiciosFinancieros,Mutual La Primera,"Av.Saavedra N.- 2204  Miraflores Bajo
 
",null,-68.1203214,-16.50604494,gamlp
La Paz,ServiciosFinancieros,Mutual La Primera,"Calle Calatayud N.-557 Zona Callampaya
",null,-68.14825556,-16.49397778,gamlp
La Paz,ServiciosFinancieros,Banco para el Fomento a Iniciativas Económicas S.A.,"Avenida Mecapaca No.6301, Zona Obrajes de la ciudad de La Paz",null,-68.10043327,-16.53012074,gamlp
La Paz,ServiciosFinancieros,Banco para el Fomento a Iniciativas Económicas S.A.,"Av. Las Américas, No.205, esq. Puente Villa, Zona Villa Fátima de la ciudad de La Paz",null,-68.12083056,-16.47975556,gamlp
La Paz,ServiciosFinancieros,Banco para el Fomento a Iniciativas Económicas S.A.,"Plaza Pérez Velasco No.785, Zona Central de la ciudad de La Paz",null,-68.13674844,-16.49398432,gamlp
La Paz,ServiciosFinancieros,Banco para el Fomento a Iniciativas Económicas S.A.,"Av. Buenos Aires No. 561, frente ingreso calle Huyustus, Zona Buenos Aires de la ciudad de La Paz
",null,-68.14396055,-16.49389952,gamlp
La Paz,ServiciosFinancieros,Mutual La Primera,Calle Evaristo Valle N.- 127 San Sebastian,null,-68.13751119,-16.49414649,gamlp
La Paz,ServiciosFinancieros,Mutual La Primera,Av.Esteban Arce N.-1747,null,-68.11709594,-16.49574551,gamlp
La Paz,ServiciosFinancieros,Mutual La Primera,Av. 6 de Agosto No. 2549 Sopocachi entre Pedro Salazar y Pinilla,null,-68.12473355,-16.51051316,gamlp
La Paz,ServiciosFinancieros,Mutual La Primera,Calle 16 No. 4 Achumani (Frente al Mercado de Achumani),null,-68.0730293,-16.53081565,gamlp
La Paz,ServiciosFinancieros,Mutual La Primera,Calle Max Paredes No.420 Garita de Lima,null,-68.14551587,-16.49615503,gamlp
La Paz,ServiciosFinancieros,Mutual La Primera,Av. Jose Maria Acha No.  N.- 27 entre calle 5 y 6 Zona Los Pinos,null,-68.07294444,-16.54536667,gamlp
La Paz,ServiciosFinancieros,Mutual La Primera,AV.16 DE JULIO N.-1642 EL PRADO,null,-68.13238965,-16.50259527,gamlp
La Paz,ServiciosFinancieros,Mutual La Primera,AV.HERnaNDO SILES N.- 5688 Entre Calles 10 y 11 OBRAJES,null,-68.10651625,-16.52721707,gamlp
La Paz,ServiciosFinancieros,Mutual La Primera,Calle Comercio Esq.Plaza Murillo N.-1092,null,-68.13413889,-16.49572778,gamlp
La Paz,ServiciosFinancieros,Mutual La Primera,Cajero Automatico Calle Illampu N.- 747 entre graneros y santa cruz Zona El Rosario,null,-68.13993611,-16.49549444,gamlp
La Paz,ServiciosFinancieros,Mutual La Paz,AV. JOSE MARIA AGUIRRE ACHA S/N (HIPERMERCADO HIPERMAXI LOS PINOS) MODULO 4,null,-68.07026761,-16.54558117,gamlp
La Paz,ServiciosFinancieros,Mutual La Primera,Calle Landaeta N.- 1747 Esq.Plaza El CondorZona San Pedro,null,-68.13559334,-16.50918945,gamlp
La Paz,ServiciosFinancieros,Mutual La Paz,AV. GARCIA LANZA No.300 ENTRE CALLES 15 Y 16,null,-68.07318184,-16.53158593,gamlp
La Paz,ServiciosFinancieros,Fondo Financiero Privado Fassil S.A.,"Calle Alberto Lambert NÂº822 sector A, zona Alto Obrajes",null,-68.10406651,-16.52142259,gamlp
La Paz,ServiciosFinancieros,Fondo Financiero Privado Fassil S.A.,"Avenida 16 de Julio Nº 1642, zona El Prado.",null,-68.13271834,-16.50213351,gamlp
La Paz,ServiciosFinancieros,Fondo Financiero Privado Fassil S.A.,"Avenida General Lanza Nº 60, Entre Calle Nº 13 y Calle Nº 14, Zona de Achumani",null,-68.074025,-16.53328889,gamlp
La Paz,ServiciosFinancieros,Fondo Financiero Privado Fassil S.A.,"Avenida Esteban Arce Nº 1836, Villa San Antonio, Zona Cruce Villa Copacabana",null,-68.1182818,-16.4946774,gamlp
La Paz,ServiciosFinancieros,Fondo Financiero Privado Fassil S.A.,"Avenida Kollasuyo Nº 1432, Zona Callampaya",null,-68.15236111,-16.49476111,gamlp
La Paz,ServiciosFinancieros,Fondo Financiero Privado Fassil S.A.,"Calle Maximiliano Paredes, entre Calles Emilio Calderón y Sagárnaga No. 923 Zona Gran Poder",null,-68.13984057,-16.49969095,gamlp
La Paz,ServiciosFinancieros,Fondo Financiero Privado Fassil S.A.,"Avenida Muñoz Reyes Nº800 esquina Calle 30, Zona de Cota Cota",null,-68.06359167,-16.54086667,gamlp
La Paz,ServiciosFinancieros,Fondo Financiero Privado Fassil S.A.,"Avenida Arce 2779,  Edificio El Escorial - Planta Baja",null,-68.12098173,-16.5125916,gamlp
La Paz,ServiciosFinancieros,Fondo Financiero Privado Fassil S.A.,Avenida Gral Camacho NÂº 1415 - 1425,null,-68.13250435,-16.49956345,gamlp
La Paz,ServiciosFinancieros,Fondo Financiero Privado Fassil S.A.,Calle Tumusla NÂº 602,null,-68.14380833,-16.49511389,gamlp
La Paz,ServiciosFinancieros,Fondo Financiero Privado Fassil S.A.,"Avenida Las Américas NÂº 250, zona Villa Fátima",null,-68.12056124,-16.47919655,gamlp
La Paz,ServiciosFinancieros,Fondo de la Comunidad S.A. F.F.P.,Av. 20 de Octubre # 2379 entre Belisario Salinas y Rosendo Gutierrez,null,-68.12692568,-16.50958814,gamlp
La Paz,ServiciosFinancieros,Fondo Financiero Privado Prodem S.A.,AV. BALLIVIAN # 1323  ENTRE CALLES 20 Y 21 DE CALACOTO,null,-68.07820315,-16.53875579,gamlp
La Paz,ServiciosFinancieros,Fondo Financiero Privado Prodem S.A.,AV. CAMACHO ESQ. COLON No. 2277,null,-68.13420001,-16.4987448,gamlp
La Paz,ServiciosFinancieros,Fondo Financiero Privado Prodem S.A.,Av. CAMACHO ESQ. CALLE COLON # 1277,null,-68.13420001,-16.4987448,gamlp
La Paz,ServiciosFinancieros,Fondo Financiero Privado Prodem S.A.,PLAZA DEL ESTUDIANTE ESQ. CALLE LANDAETA S/N. EDIFICIO GAMARRA,null,-68.1314,-16.5045,gamlp
La Paz,ServiciosFinancieros,Fondo Financiero Privado Prodem S.A.,AV. SANCHEZ LIMA ESQ. BELISARIO SALInaS # 520,null,-68.12757309,-16.51083074,gamlp
La Paz,ServiciosFinancieros,Fondo Financiero Privado Prodem S.A.,AV. 31 DE OCTUBRE # 1525 ZOna VILLA COPACABAna (CRUCE VILLA COPACABAna),null,-68.11652942,-16.49608024,gamlp
La Paz,ServiciosFinancieros,Fondo Financiero Privado Prodem S.A.,AV. LAS AMERICAS NO. 398,null,-68.11958643,-16.47759726,gamlp
La Paz,ServiciosFinancieros,Fondo Financiero Privado Prodem S.A.,AV. BAPTISTA NO. 845,null,-68.14647738,-16.4957946,gamlp
La Paz,ServiciosFinancieros,Fondo Financiero Privado Prodem S.A.,CALLE ILLAMPU ESQ. SANTA CRUZ No. 784,null,-68.13962778,-16.49636389,gamlp
La Paz,ServiciosFinancieros,Fondo Financiero Privado Prodem S.A.,AV. SAAVEDRA # 2136,null,-68.12077163,-16.50530416,gamlp
La Paz,ServiciosFinancieros,Fondo Financiero Privado Prodem S.A.,AV. HERnaNDO SILES NÂº 6204 ESQ. CALLE 16 DE OBRAJES,null,-68.10236657,-16.52960548,gamlp
La Paz,ServiciosFinancieros,Fondo Financiero Privado Prodem S.A.,AV. MONTES No. 755,null,-68.13675016,-16.49399982,gamlp
La Paz,ServiciosFinancieros,Banco Los Andes Procredit S.A.,Avenida Rafael Pabón frente al Colegio Militar,null,-68.08706111,-16.53209722,gamlp
La Paz,ServiciosFinancieros,Banco Ganadero S.A.,Av. Camacho Nº 1372 (Zona Central),null,-68.13282854,-16.49940389,gamlp
La Paz,ServiciosFinancieros,Banco Ganadero S.A.,Av. Montenegro Esquina Calle 18 Calacoto Nº 5 (Zona San Miguel),null,-68.0806905,-16.54080265,gamlp
La Paz,ServiciosFinancieros,Banco Económico S.A.,"La Paz Av. Saavedra Nro. 1392, esq. Plaza Stadium, Lado Radio Club La Paz",null,-68.12414409,-16.49902408,gamlp
La Paz,ServiciosFinancieros,Banco Económico S.A.,La Paz Calle Tumusla  Nro. 758 entre Av. Buenos Aires y  Plaza Garita de Lima,null,-68.14506465,-16.4954018,gamlp
La Paz,ServiciosFinancieros,Banco Unión S.A.,Calle Socabaya esq Mercado,null,-68.13502162,-16.49731447,gamlp
La Paz,ServiciosFinancieros,Banco Unión S.A.,Plaza El Estudiante Edificio Inchauste Zelaya,null,-68.13117677,-16.5045358,gamlp
La Paz,ServiciosFinancieros,Banco BISA S.A.,Av. del Maestro Nº 954 Sector B,null,-68.10731825,-16.52281039,gamlp
La Paz,ServiciosFinancieros,Banco BISA S.A.,"Esq. Colombia y Zoilo Flores Nº 490, Zona San Pedro",null,-68.13651906,-16.50303145,gamlp
La Paz,ServiciosFinancieros,Banco BISA S.A.,Av. Arce Nº 2799 esq. calle Cordero Edificio Fortaleza,null,-68.12071845,-16.51291247,gamlp
La Paz,ServiciosFinancieros,Banco BISA S.A.,Av. Ballivian Nº 1461 entre calles 21 y 22 (AutoBanco) - Agencia,null,-68.07715,-16.53885278,gamlp
La Paz,ServiciosFinancieros,Banco BISA S.A.,Av. Arequipa Nº 8221 - Shopping Sur La Florida - Agencia,null,-68.09143333,-16.54476389,gamlp
La Paz,ServiciosFinancieros,Banco BISA S.A.,Av. Arce esq. Hermanos Manchego Nº 2572 - Agencia,null,-68.12379089,-16.50993878,gamlp
La Paz,ServiciosFinancieros,Banco BISA S.A.,Calle Aspiazu Nº 387 esq. Av. 20 de Octubre - Sopocachi,null,-68.12921697,-16.50720615,gamlp
La Paz,ServiciosFinancieros,Banco BISA S.A.,Calle Potosí  Nº 1012 - Agencia Calle Potosí,null,-68.13502292,-16.49615479,gamlp
La Paz,ServiciosFinancieros,Banco BISA S.A.,Av. 16 de Julio Nº 1628 - Agencia Principal,null,-68.13279077,-16.50202162,gamlp
La Paz,ServiciosFinancieros,Banco BISA S.A.,Av. Camacho Nº 1333 - Agencia,null,-68.13384515,-16.4989209,gamlp
La Paz,ServiciosFinancieros,Banco BISA S.A.,Av. Ballivian entre calles 21 y 22 (AutoBanco) - Agencia,null,-68.07724722,-16.538825,gamlp
La Paz,ServiciosFinancieros,Banco BISA S.A.,Calle Cuba Nº 1406 esq. Brasil - Edificio Mercedes Miraflores,null,-68.12041353,-16.49586715,gamlp
La Paz,ServiciosFinancieros,Banco BISA S.A.,Av. 14 de Septiembre esq. calle 17 Obrajes Nº 40 - Estacion de Servicio Carsur,null,-68.10062222,-16.52944722,gamlp
La Paz,ServiciosFinancieros,Banco BISA S.A.,Calle Comercio Nº 848,null,-68.13610625,-16.49471942,gamlp
La Paz,ServiciosFinancieros,Banco BISA S.A.,Calle 16 Nº 5 - Frente al Mercado de Achumani,null,-68.07313763,-16.53067676,gamlp
La Paz,ServiciosFinancieros,Banco BISA S.A.,Av. Jose María Acha esq. calle 3 (Juan Chalco) Nº 472,null,-68.075173,-16.54519481,gamlp
La Paz,ServiciosFinancieros,Banco BISA S.A.,Calle Mendez  Arcos esq. V. Sanjines Nº 2706 - Sopocachi,null,-68.12894722,-16.51474444,gamlp
La Paz,ServiciosFinancieros,Banco BISA S.A.,"Av. Buenos Aires esquina nudo Vita No. 470, Z/14 de septiembre.",null,-68.1444028,-16.49372879,gamlp
La Paz,ServiciosFinancieros,Banco de Crédito de Bolivia S.A.,Av. Baptista esq. Calle Calatayud No. 950 - Zona Callampa,null,-68.14779685,-16.4954898,gamlp
La Paz,ServiciosFinancieros,Banco de Crédito de Bolivia S.A.,Av. Ballivian esq. Calle 9 Nº 302 - Calacoto,null,-68.09028865,-16.54109253,gamlp
La Paz,ServiciosFinancieros,Banco de Crédito de Bolivia S.A.,Calle Haití No.1248 entre Trinidad y Tobago y EE.UU. - Frente Mercado Haití,null,-68.12197071,-16.49106548,gamlp
La Paz,ServiciosFinancieros,Banco Mercantil Santa Cruz S.A.,AV. 6 DE AGOSTO EDIF. V CENTEnaRIO,null,-68.12974628,-16.50578886,gamlp
La Paz,ServiciosFinancieros,Banco Mercantil Santa Cruz S.A.,CALLE SAGARnaGA # 328 ENTRE ILLAMPU Y LInaRES,null,-68.13856116,-16.49761223,gamlp
La Paz,ServiciosFinancieros,Banco Mercantil Santa Cruz S.A.,"AV. BALLIVIAN NRO 415 ENTRE CALLE 10 Y CALLE 11 , CALACOTO",null,-68.08905278,-16.540325,gamlp
La Paz,ServiciosFinancieros,Banco nacional de Bolivia S.A.,"AV. GARCIA LANZA NÂº 1484, ESQ. CALLE 13, AGENCIA BNB, ZOna ACHUMANI",null,-68.07459227,-16.53359899,gamlp
La Paz,ServiciosFinancieros,Banco nacional de Bolivia S.A.,"AV. GARCIA LANZA NÂº 1484, ESQ. CALLE 13, AGENCIA BNB, ZOna ACHUMANI",null,-68.07450741,-16.53354555,gamlp
La Paz,Farmacia,Corporación Boliviana de Farmacias S.A.,C. Comercio # 866,null,-68.1360016,-16.49480216,gamlp
La Paz,Farmacia,Farmacia Bolivia,Av. 6 de Agosto # 2628,null,-68.12449363,-16.51109692,gamlp
La Paz,Farmacia,Farmacia Acuario,C. Sagarnaga # 432,null,NA,NA,gamlp
La Paz,Farmacia,Farmacia R y F,Av. Entre Ríos # 1203,null,-68.15112921,-16.49850011,gamlp
La Paz,Farmacia,Farmacia Luz de Fé,C. Mururata # 1368,null,NA,NA,gamlp
La Paz,Farmacia,Farmacia Jaciel,Pza. Israel # 600,null,-68.13655836,-16.50587283,gamlp
La Paz,Farmacia,Distribución de Medicamentos,Av. Del Policía # 611,null,NA,NA,gamlp
La Paz,Farmacia,Farmacia San Expedito Milagroso,C. Mururata # 1370,null,-68.11656429,-16.46934125,gamlp
La Paz,Farmacia,Farmacia Tejada Sorzano,Av. Tejada Sorzano # 574,null,-68.12345678,-16.48449477,gamlp
La Paz,Farmacia,Farmacia Santa Clara,Av. Buenos Aires # 712,null,-68.14455682,-16.49695532,gamlp
La Paz,Farmacia,Venta por menor de productos Farmacéuticos Requilab,C. Víctor Eduardo # 2250,null,-68.12136048,-16.50648829,gamlp
La Paz,Farmacia,Venta de productos Farmacéuticos,C. Alexander # 108,null,-68.07172181,-16.53377743,gamlp
La Paz,Farmacia,Farmacia,C. 16 de Julio Esq. Av. Tejada Sorzano # 988,null,-68.12570133,-16.48932153,gamlp
La Paz,Farmacia,Importador y Exportador de productos Farmacéuticos - Tecno Medical Bolivia,Av. Busch # 1211,null,-68.12099393,-16.49351434,gamlp
La Paz,Farmacia,Farmacia Gloria,Av. Las Américas # 264,null,-68.12043841,-16.47901728,gamlp
La Paz,Farmacia,Venta de productos Farmacéuticos,Av. Hernando Siles # 6106,null,NA,NA,gamlp
La Paz,Farmacia,Fabricación y venta de productos Farmacéuticos,C. Méndez Arcos # 957-B,null,-68.13177396,-16.51556901,gamlp
La Paz,Farmacia,Farmacia Rodríguez,C. Venancio Burgoa # 658,null,-68.14133515,-16.50050947,gamlp
La Paz,Farmacia,Farmacia Lita,C. Martínez Monje # 1111,null,NA,NA,gamlp
La Paz,Farmacia,Farmacia Lara Soto,C. Lizardo Taborga # 1523,null,-68.15396177,-16.49498233,gamlp
La Paz,Farmacia,Farmacia Europa,C. Yanacocha # 538,null,NA,NA,gamlp
La Paz,Farmacia,Farmacia San Juan,C. Manuel Bustillo # 712,null,-68.15348092,-16.49446549,gamlp
La Paz,Farmacia,Venta por menor de productos Farmacéuticos,Av. Altamirano # 6629,null,-68.08678314,-16.52483837,gamlp
La Paz,Farmacia,Hypermarcas,Av. Jaime Zudañez # 1444,null,-68.1388914,-16.51468798,gamlp
La Paz,Farmacia,Farmacia Fatima,C. Arapata No. 1120,null,NA,NA,gamlp
La Paz,Farmacia,Farmacia América,C. Yungas # 601 Esq. C. Ballivián,null,-68.13002583,-16.4971837,gamlp
La Paz,Farmacia,Farmacia Reencarnación,Av. 9 De Abril # 194,null,-68.15317037,-16.50484584,gamlp
La Paz,Farmacia,Importador y Exportador Sumipharma,C. Eusebio Gutierrez # 134,null,NA,NA,gamlp
La Paz,Farmacia,Farmacia Virgen de Las Nieves,Av. Chacaltaya # 1146,null,NA,NA,gamlp
La Paz,Farmacia,Farmacia Isis,C. Constitución # 113,null,-68.14349544,-16.48806636,gamlp
La Paz,Farmacia,Farmacia,Av. Chacaltaya # 1080,null,-68.14820738,-16.47952601,gamlp
La Paz,Farmacia,Inmed F.C.,C. 8 # 1630,null,-68.11842417,-16.48004063,gamlp
La Paz,Farmacia,Comercialización de productos de Tocador Y Farmacéuticos,C. 12 # 315,null,-68.10557064,-16.52816951,gamlp
La Paz,Farmacia,Farmacia Señor de Mayo,Av. República # 1479,null,-68.15197989,-16.49170121,gamlp
La Paz,Farmacia,Provein Medica,Av. Saavedra # 2218,null,-68.1201597,-16.50656386,gamlp
La Paz,Farmacia,Farmacia San Alberto,Av. García Lanza # 652,null,-68.07402296,-16.53219175,gamlp
La Paz,Farmacia,Farmacia Niño Jesús I,C. Evaristo Valle # 153,null,-68.13777248,-16.49402298,gamlp
La Paz,Farmacia,Farmacia Bolivia,C. Claudio Pinilla # 150,null,-68.12470294,-16.49908899,gamlp
La Paz,Farmacia,Ave María,Av. Tejada Sorzano # 258,null,-68.12148687,-16.48057084,gamlp
La Paz,Farmacia,Farmacia Gloria,C. Figueroa # L-3 Edf. Gonzales,null,-68.13783519,-16.49526676,gamlp
La Paz,Farmacia,Farmacia Libertad,Av. Entre Ríos # 1119,null,-68.14988667,-16.49774481,gamlp
La Paz,Farmacia,Farmacia Placido,Av. Buenos Aires # 724,null,-68.14455029,-16.49767129,gamlp
La Paz,Farmacia,Farmacia Suazo,C. Juan de Vargas # 1205 Vivero II,null,-68.12279112,-16.50501434,gamlp
La Paz,Farmacia,Farmacia San Francisco de Borja,Av. 23 de Marzo # 289,null,-68.10304354,-16.49931222,gamlp
La Paz,Farmacia,Farmacia Oliseb,Av. Vicente Burgaleta # 996,null,-68.11753011,-16.48899147,gamlp
La Paz,Farmacia,Farmacia Merialbi,Av. Jaime Zudañes # 1123,null,NA,NA,gamlp
La Paz,Farmacia,Farmacias Bolivia,Av. Hernando Siles # 6204,null,-68.10195518,-16.52972545,gamlp
La Paz,Farmacia,P H A R M A J 4 - Med,C. Ovando Candia # 280,null,-68.08801655,-16.52870439,gamlp
La Paz,Farmacia,Farmacia Trébol,Av. Simón Bolívar # 1984,null,-68.125131,-16.50002262,gamlp
La Paz,Farmacia,Farmacia las Flores,C. Bueno # 204,null,NA,NA,gamlp
La Paz,Farmacia,Farmandrug,C. Potosí # 990,null,NA,NA,gamlp
La Paz,Farmacia,Servicios de Farmacia,C. 25 Esq. Los Pinos # 333,null,NA,NA,gamlp
La Paz,Farmacia,Farmacia Bolivia,Pza. Isabel la Católica # 2508,null,-68.12446785,-16.5097122,gamlp
La Paz,Farmacia,Farmacia Bolivia,Av. Tumusla # 465,null,-68.14144267,-16.49443713,gamlp
La Paz,Farmacia,Raimenbol S.R.L.,C. Díaz Romero # 1704,null,-68.11801543,-16.50142218,gamlp
La Paz,Farmacia,Farmacia Bolivia,C. Víctor Sanjinés # A- 2698,null,-68.12896383,-16.51452914,gamlp
La Paz,Farmacia,Farmacia,Av. Defensores del Chaco # 1000,null,-68.04324016,-16.53509659,gamlp
La Paz,Farmacia,Farmacia Gloria,Av. Iturralde # 1390,null,-68.12440372,-16.49660041,gamlp
La Paz,Farmacia,Farmacia Bolivia,Av. Tumusla # 569 Paulinas,null,-68.14277624,-16.49498796,gamlp
La Paz,Farmacia,Farmaexpres S.A.,C. Loayza # 250,null,-68.13298081,-16.49889812,gamlp
La Paz,Farmacia,Farmacia Aldo,Av. Muñoz Reyes # 224,null,NA,NA,gamlp
La Paz,Farmacia,Mifarma S.A.,Av. H. Siles Edf. I. de Loyola II Loc. # 2,null,-68.10797931,-16.52611538,gamlp
La Paz,Farmacia,Empresa Comercializadora Mifarma S.A.,Av. R. Pabón - Megacenter,null,-68.08665413,-16.53288524,gamlp
La Paz,Farmacia,Corporación Boliviana de Farmacias S.A.,C. Zoilo Flores # 1198,null,NA,NA,gamlp
La Paz,Farmacia,Farmacia Luz de Copacabana,Av. Final Burgaleta # 611,null,NA,NA,gamlp
La Paz,Farmacia,Farmacorp S.A.,C. 21 Esq. Aguirre Acha,null,-68.07667633,-16.54451525,gamlp
La Paz,Farmacia,Farmacia Psalm 23,Av. Alcides Arguedas # 507,null,NA,NA,gamlp
La Paz,Farmacia,Farmacia Señor de la Sentencia,Pza. El Minero # 57,null,-68.11101147,-16.50830678,gamlp
La Paz,Farmacia,Farmacia Petra,C. 53 # 7,null,NA,NA,gamlp
La Paz,Farmacia,Ultrafarma,C. Villalobos # 1466 Edf. Huari,null,-68.12032309,-16.50274524,gamlp
La Paz,Farmacia,Farmacia Alarcón,C. Max Paredes # 447,null,NA,NA,gamlp
La Paz,Farmacia,Farmacias Gloria,Av. 20 de Octubre # 2497,null,-68.12587272,-16.51051186,gamlp
La Paz,Farmacia,Farmacia Niño de Sikimira,C. Matías Terrazas # 7,null,NA,NA,gamlp
La Paz,Farmacia,Farmacia Genaro Sanjinés,C. Genaro Sanjinés # 451,null,-68.13588393,-16.49527198,gamlp
La Paz,Farmacia,Farmacia Luz Briana,Av. Utapulpera # 1903,null,-68.15825417,-16.4976202,gamlp
La Paz,Farmacia,Farmacia Magua,Av. Baltazar de Salas # 200,null,-68.14216831,-16.47903694,gamlp
La Paz,Farmacia,"Venta por menor de productos Farmacéuticos, Medicinales, Cosméticos Grimas S.R.L.",C. 22 # 450,null,-68.07090533,-16.52912419,gamlp
La Paz,Farmacia,Farmacia Pampahasi,"C. E, entre Av. 5 Raúl Salmon # 1-A",null,NA,NA,gamlp
La Paz,Farmacia,Farmacia Rada Suarez,Av. Landaeta # 432,null,-68.13215112,-16.50560629,gamlp
La Paz,Farmacia,Farmacia La Paz,Av. 16 de Julio Edf. Alameda,null,-68.13199997,-16.50223615,gamlp
La Paz,Farmacia,Corporación Boliviana de Farmacias S.A.,C. Loayza Edf. V. de Copacabana # Pb-3,null,NA,NA,gamlp
La Paz,Farmacia,Corporación Boliviana de Farmacias S.A.,Av. Montes # 749,null,-68.13694336,-16.49351607,gamlp
La Paz,Farmacia,Corporación Boliviana de Farmacias S.A.,C. Comercio Esq. G. Sanjinés # 943,null,NA,NA,gamlp
La Paz,Farmacia,Corporación Boliviana de Farmacias S.A.,Av. Camacho Edf. Krsul-Pb,null,-68.13456423,-16.4985659,gamlp
La Paz,Farmacia,Distribuidora T.L.C (Venta de productos Farmacéuticos),C. Arturo Posnasky # 1184,null,NA,NA,gamlp
La Paz,Farmacia,Farmacia San Valentín,C. Max Paredes # 990,null,NA,NA,gamlp
La Paz,Farmacia,Farmacia Bolivia,Av. 16 de Julio # 1473,null,-68.13303227,-16.50081922,gamlp
La Paz,Farmacia,Farmacia Bolivia,Av. Mariscal Santa Cruz No. 1271,null,-68.1347953,-16.49896041,gamlp
La Paz,Farmacia,Farmacia Bolivia,C. Eduardo # 2119 Esq. Saavedra,null,-68.12110445,-16.50477918,gamlp
La Paz,Farmacia,Global Pharma,C. Virrey Toledo # 1295,null,-68.14987595,-16.49098618,gamlp
La Paz,Farmacia,Farmacia Farmaplus E&E,C. Venancio Burgoa # 785,null,-68.14098676,-16.50356002,gamlp
La Paz,Farmacia,Corporación Boliviana de Farmacias S.A.,Av. 20 de Octubre # 2473,null,-68.12613519,-16.51032695,gamlp
La Paz,Farmacia,Corporación Boliviana de Farmacias S.A.,C. Fernando Guachalla # 521,null,-68.12948642,-16.50923049,gamlp
La Paz,Farmacia,Corporación Boliviana de Farmacias S.A.,Av. Mariscal Santa Cruz # 1050,null,NA,NA,gamlp
La Paz,Farmacia,Esbafox S.R.L. Importación y Exportación,C. José Cardón # 10,null,NA,NA,gamlp
La Paz,Farmacia,Corporación Boliviana de Farmacias S.A.,Av. Landaeta # 221,null,-68.13142911,-16.50453733,gamlp
La Paz,Farmacia,Corporación Boliviana de Farmacias S.A.,Av. Mariscal Santa Cruz # 1324,null,NA,NA,gamlp
La Paz,Farmacia,Corporación Boliviana de Farmacias S.A.,Av. 6 de Agosto # 2002,null,NA,NA,gamlp
La Paz,Farmacia,Farmacia Progreso,C. Pasos Kanki # 1184,null,-68.12345737,-16.49846099,gamlp
La Paz,Farmacia,Farmacia Hispana,C. Yanacocha # 311,null,NA,NA,gamlp
La Paz,Farmacia,Farmacia Jesús Salvador,Av. Costanera # 500,null,NA,NA,gamlp
La Paz,Farmacia,Farmacia Bolivia,Av. las Delicias # 1351 Esq. C. Antezana,null,-68.12132062,-16.47949958,gamlp
La Paz,Farmacia,Farmacia Porvenir,C. Federico Zuazo # 1508,null,NA,NA,gamlp
La Paz,Farmacia,Rosati Importaciones,C. Rodrigo de Mejía # 1936,null,NA,NA,gamlp
La Paz,Farmacia,Fendermed,C. Rodrigo de Mejía # 1936,null,-68.12379904,-16.50208496,gamlp
La Paz,Farmacia,Bioser S.R.L.,C. Lucas Jaimes # 1711,null,NA,NA,gamlp
La Paz,Farmacia,Farmacia Bolivia,C. Yungas # 876,null,-68.12868321,-16.49743934,gamlp
La Paz,Farmacia,Farmacia Unifar,Av. Arce # 2630,null,-68.1227689,-16.511063,gamlp
La Paz,Farmacia,Farmacia Bolivia,Av. Landaeta # 836,null,-68.13715097,-16.51026992,gamlp
La Paz,Farmacia,Farmacia Uru's,C. Casimiro Corrales # 1020,null,-68.12769612,-16.49761546,gamlp
La Paz,Farmacia,Farmacia Rivera,C. Larecaja # 141,null,-68.14180405,-16.48791826,gamlp
La Paz,Farmacia,Farmacia Bolivia,Av. Arce # 2631 - Multicine,null,-68.12237732,-16.51105519,gamlp
La Paz,Farmacia,Farmacia Agua de Vida,C. Hugo Reck # 1489,null,-68.1541445,-16.49855543,gamlp
La Paz,Farmacia,Farmacia Fenix,Av. Mariscal Santa Cruz # 893,null,NA,NA,gamlp
La Paz,Farmacia,Farmacia Angelitos,C. Josefa Mujia # 2000,null,NA,NA,gamlp
La Paz,Farmacia,Farmacia Bolognia,Av. Ciudad del Niño Esq. C. 5 # 1,null,NA,NA,gamlp
La Paz,Farmacia,Den Jhonson,C. Reyes Cardona # 771,null,NA,NA,gamlp
La Paz,Farmacia,Venta de productos Farmacéuticos,C. 10 Hermanos Ariñez Esq. Av. Ballivián,null,-68.08910317,-16.54075565,gamlp
La Paz,Farmacia,Venta de productos Farmacéuticos,Av. Ballivián,null,NA,NA,gamlp
La Paz,Farmacia,Farmacia Raphael,C. Claudio Sanjinés # 1590,null,NA,NA,gamlp
La Paz,Farmacia,Farmacia Ryana,Av. Juan José Torrez Gonzales # 215,null,-68.13318827,-16.48625573,gamlp
La Paz,Farmacia,Farmacia Señor de la Cruz Milagroso,C. Landaeta # 533,null,-68.13301544,-16.50698248,gamlp
La Paz,Farmacia,Farmacia Filadelfia,Av. La Zarzuela # 567,null,-68.14417103,-16.48255598,gamlp
La Paz,Farmacia,Farmacia Santa Cecilia de La Paz,C. Otero de la Vega # 1604,null,-68.1375846,-16.50646039,gamlp
La Paz,Farmacia,Farmacia del Sur,Av. José Aguirre Achá # 502,null,-68.07437401,-16.54525515,gamlp
La Paz,Farmacia,Farmacia Terra,C. Tejada Sorzano # 855,null,-68.12443878,-16.48742971,gamlp
La Paz,Farmacia,Farmacia,Av. Agustín Ugarte # 52,null,-68.13394698,-16.51626676,gamlp
La Paz,Farmacia,Farmacia Noé,Av. Baptista # 915,null,-68.14696965,-16.49577062,gamlp
La Paz,Farmacia,Farmacia la Glorieta,C. Otero de la Vega # 450,null,NA,NA,gamlp
La Paz,Farmacia,Farmacia Mariana de Jesús,C. Sebastián Segurola # 723,null,NA,NA,gamlp
La Paz,Farmacia,Farmacia el Buen Pastor,Av. República # 1507,null,-68.15250704,-16.49159766,gamlp
La Paz,Farmacia,Farmacia Luz,C. Zapata # 141,null,-68.12906779,-16.50497007,gamlp
La Paz,Farmacia,Farmacia Calacoto,C. Díaz Romero # 1350,null,-68.12209447,-16.5015807,gamlp
La Paz,Farmacia,Farmacia K & L,C. Santa Cruz # 399,null,-68.13928157,-16.4963348,gamlp
La Paz,Farmacia,Farmacia Cesar´s,C. Luciano Alcoreza # 1370,null,-68.14850735,-16.50620598,gamlp
La Paz,Farmacia,Farmacia Arcangel,Av. Pasos Kanki # 1619,null,-68.11908295,-16.49738519,gamlp
La Paz,Farmacia,Farmacias Gloria,Av. Ballivián # 1175,null,-68.08062847,-16.53865825,gamlp
La Paz,Farmacia,Farmacia José Manuel,C. Luciano Alcoreza # 1529,null,-68.15046616,-16.50785949,gamlp
La Paz,Farmacia,Farmacia Santa Ana,Av. 6 de Agosto # 2190,null,-68.12804438,-16.50743602,gamlp
La Paz,Farmacia,Farmacia Prisval,C. Mururata # 1253,null,NA,NA,gamlp
La Paz,Farmacia,Farmacia Nuestra Señora de Candelaria,Av. M. Quiroga Santa Cruz # 1926,null,-68.14594541,-16.52249816,gamlp
La Paz,Farmacia,Farmacia Gloria,Av. Eduardo # 2612,null,-68.12881798,-16.51352649,gamlp
La Paz,Farmacia,Farmacia Gloria,C. Almirante Grau # 349,null,-68.13598993,-16.50171229,gamlp
La Paz,Farmacia,San Bartolomé,Av. Juan José Torrez # 250,null,-68.12840004,-16.48001519,gamlp
La Paz,Farmacia,Farmacia Arvin,Av. Periférica # 498,null,NA,NA,gamlp
La Paz,Farmacia,Farmacia Las Américas,Av. las Américas # 489,null,NA,NA,gamlp
La Paz,Farmacia,Farmacia Cindy,Av. Buenos Aires # 1882,null,-68.14412347,-16.51341876,gamlp
La Paz,Farmacia,Farmacia Bolívar,C. Ballivián # 1211,null,NA,NA,gamlp
La Paz,Farmacia,Farmacia Única,Av. 16 de Julio # 1490,null,-68.1331613,-16.50146891,gamlp
La Paz,Farmacia,Farmacia Bernardo,Av. Ramiro Castillo # 1000,null,-68.11458712,-16.46883264,gamlp
La Paz,Farmacia,Farmacia Galicia I,Av. Baltazar de Salas # 930,null,-68.14012347,-16.48077892,gamlp
La Paz,Farmacia,Corporación Boliviana de Farmacias S.A.,Av. 31 de Octubre # 1513,null,NA,NA,gamlp
La Paz,Farmacia,Farmacia Jackeline,C. Haití # 1226,null,-68.12290517,-16.4911177,gamlp
La Paz,Farmacia,Farmacia Niño Jesús nazareno,Av. Montes # 787,null,-68.136709,-16.49404423,gamlp
La Paz,Farmacia,Farmacia Vida y Salud,Av. Tito Yupanqui # 1131,null,-68.11755715,-16.49151308,gamlp
La Paz,Farmacia,Farmacia San Ignacio,Av. Tejada Sorzano # 351,null,NA,NA,gamlp
La Paz,Farmacia,Farmacia,Av. 31 de Octubre # 1584,null,NA,NA,gamlp
La Paz,Farmacia,Farmacia el Zodiaco,Av. Hernando Siles # 5505,null,NA,NA,gamlp
La Paz,Farmacia,Farmacia Mariel,Av. Baltazar de Salas # 1132,null,-68.14198125,-16.47908521,gamlp
La Paz,Farmacia,Farmacia Jeannette,C. 12 # 58,null,-68.10490981,-16.50198175,gamlp
La Paz,Farmacia,Farmacia Santa Lucia,C. José María Asin # 691,null,NA,NA,gamlp
La Paz,Farmacia,Farmacia Isam,Av. Sucre # 930,null,-68.13378742,-16.49326082,gamlp
La Paz,Farmacia,Farmacia Ruiz,Av. Héroes del Pacifico # 1567,null,NA,NA,gamlp
La Paz,Farmacia,Farmacia Emaus,Av. 9 de Abril # 1066,null,-68.15184917,-16.50514747,gamlp
La Paz,Farmacia,Farmacia San Damián,C. Illampu # 703,null,-68.14008942,-16.49527695,gamlp
La Paz,Farmacia,Farmacia Pompeya,Av. Saavedra # 2218,null,NA,NA,gamlp
La Paz,Farmacia,Farmacia Curabitur,Av. Ballivián # 275,null,-68.09094803,-16.54093464,gamlp
La Paz,Farmacia,Venta de Productos Farmacéuticos,C. 2 # 357 Pza. Arturo Borda,null,-68.11319507,-16.46889187,gamlp
La Paz,Farmacia,Farmacia Megafarma,C. Santa Cruz # 423,null,NA,NA,gamlp
La Paz,Farmacia,Farmacia Bioenergía,C. Max Paredes # 847,null,NA,NA,gamlp
La Paz,Farmacia,Terapéutica Boliviana S.A.Terbol S.A.,C. Landaeta # 432,null,NA,NA,gamlp
La Paz,Farmacia,Farmacia Hipermaxi S.A.,Av. Strongest # 100,null,NA,NA,gamlp
La Paz,Farmacia,Farmacia Viviana,C. Rodríguez # 477,null,NA,NA,gamlp
La Paz,Farmacia,Corporación Mercantil Sudamericana Ltda,Av. 14 de Septiembre # 5299,null,NA,NA,gamlp
La Paz,Farmacia,Allemed S.R.L.,Av. Tejada Sorzano # 1140-B,null,-68.12526574,-16.49222312,gamlp
La Paz,Farmacia,Farmacia M & B,Av. Busch # 885 Edf. Murano,null,-68.12143743,-16.48876813,gamlp
La Paz,Farmacia,Farmacia la Merced,Av. Jaimes Freyre # 2109,null,-68.13939467,-16.51519705,gamlp
La Paz,Farmacia,Farmacia Gloria,Av. Busch # 1924,null,NA,NA,gamlp
La Paz,Farmacia,Corporación Boliviana de Farmacias S.A.,C. Graneros # 390 Esq. C. Isaac Tamayo,null,-68.14130794,-16.49565005,gamlp
La Paz,Farmacia,Mifarma S.A.,Av. Muñoz Reyes Esq. C. 27,null,-68.06841492,-16.54044426,gamlp
La Paz,Farmacia,"Venta de productos Farmacéuticos, Medicinales y artículos de Tocador",Av. Las Américas # 343 Local 4,null,NA,NA,gamlp
La Paz,Farmacia,Farmacia Yahuita,Av. 31 de Octubre # 2040,null,-68.11128525,-16.50017595,gamlp
La Paz,Farmacia,Farmacia Florida,Av. Saavedra # 1659,null,NA,NA,gamlp
La Paz,Farmacia,Farmacia Buena Esperanza,Av. Buenos Aires # 1132,null,-68.14483306,-16.50266228,gamlp
La Paz,Farmacia,Farmacia San Pedro,Av. 31 de Octubre # 1828,null,-68.11346884,-16.49940977,gamlp
La Paz,Farmacia,Farmacia Uyuni,Av. 6 de Agosto Edf. Alianza # L.06,null,NA,NA,gamlp
La Paz,Farmacia,Farmacia Vicenti,C. Chirca # 24,null,-68.12169509,-16.47044252,gamlp
La Paz,Farmacia,Venta de productos Farmacéuticos,Av. 20 de Octubre # 1782,null,NA,NA,gamlp
La Paz,Farmacia,Farmacia Carmelita S.R.L,C. Ayacucho # 211,null,NA,NA,gamlp
La Paz,Farmacia,Farmacia Primavera,C. Pando # 287,null,-68.14056338,-16.49293857,gamlp
La Paz,Farmacia,Farmacia Flores,C. Núñez del Prado # 88,null,-68.11689334,-16.49147929,gamlp
La Paz,Farmacia,Farmacia Crucen Dominum,C. 23 De Marzo # 110,null,-68.10474687,-16.4993381,gamlp
La Paz,Farmacia,Farmacia Irazi,Av. Mario Quintanilla # 20 -B,null,NA,NA,gamlp
La Paz,Farmacia,Farmacia Entre Ríos,C. Reyes Cardona # 990,null,NA,NA,gamlp
La Paz,Farmacia,Farmacia Emanuel,Av. Buenos Aires # 1111,null,-68.14484955,-16.50224765,gamlp
La Paz,Farmacia,Venta de productos Farmacéuticos,C. Juan Granier # 1130,null,NA,NA,gamlp
La Paz,Farmacia,Farmacia Candelaria,C. Pasos Kanki # 1531,null,-68.11988914,-16.49751524,gamlp
La Paz,Farmacia,Farmacia Arco Iris,Av. Tejada Sorzano # 420,null,-68.12242976,-16.48269506,gamlp
La Paz,Farmacia,Farmacia Pharma Center,Av. San José # 2057,null,NA,NA,gamlp
La Paz,Farmacia,Farmacia Mar - Mau,Av. Landaeta # 984,null,-68.13910923,-16.51137747,gamlp
La Paz,Farmacia,Sant Drug S.R.L.,C. Vicente Álvarez Plata # 1191,null,-68.12594145,-16.49254615,gamlp
La Paz,Farmacia,Farmacia 14 De Septiembre,C. Maximiliano Paredes # 412,null,-68.14562414,-16.49603672,gamlp
La Paz,Farmacia,Farmacia Mis Ángeles,Av. Busch # 1696,null,-68.12127743,-16.49920312,gamlp
La Paz,Farmacia,Santiago Salud,Av. Buenos Aires # 2011,null,NA,NA,gamlp
La Paz,Farmacia,Farmacia Ariana,C. Manco Kapac # 307,null,-68.14145349,-16.49363476,gamlp
La Paz,Farmacia,Farmacia Internacional,C. Sucre # 765-B,null,-68.1349987,-16.4923351,gamlp
La Paz,Farmacia,Díaz Miranda Gonzalo,Av. Kollasuyo # 1991,null,-68.15724788,-16.49325229,gamlp
La Paz,Farmacia,Farmacia Complutense,Av. Primavera # 137,null,-68.14926874,-16.45105845,gamlp
La Paz,Farmacia,Farmacia Victoria Andrea,Av. Octavio Campero # 1746,null,-68.10905808,-16.49749025,gamlp
La Paz,Farmacia,Farmacia Rocio Madelen,C. Maximiliano Paredes # 915,null,-68.13989698,-16.49957137,gamlp
La Paz,Farmacia,Farmacia Arznei,C. Aspiazu # 1342,null,-68.11732566,-16.47127347,gamlp
La Paz,Farmacia,Farmacia Americana,Av. Tito Yupanqui # 1336,null,-68.11717508,-16.49433891,gamlp
La Paz,Farmacia,Corporación Boliviana De Farmacias S.A.,Av. José Ballivián # 7898,null,-68.08118178,-16.53862862,gamlp
La Paz,Farmacia,Farmacia Luz de Vida,C. Cinco # 191-A,null,NA,NA,gamlp
La Paz,Farmacia,Farmacia Medi - Salud,Av. Héroes Del Pacífico # 1769,null,-68.15652468,-16.49664953,gamlp
La Paz,Farmacia,Farmacia Pribian,Av. Busch # 1373,null,-68.12107696,-16.49632252,gamlp
La Paz,Farmacia,Farmacia Complutense,Av. Costanera # 536,null,NA,NA,gamlp
La Paz,Farmacia,Farmacia Santa María de los Ángeles,Av. Costanera # 42,null,NA,NA,gamlp
La Paz,Farmacia,Farmacia Kioto,C. 7 Enanos # 894,null,-68.13971827,-16.48157357,gamlp
La Paz,Farmacia,Farmacia Hipermaxi,Av. José Aguirre Acha # 85,null,NA,NA,gamlp
La Paz,Farmacia,Distribuidora Illampu,Pza. Villarroel # 53 Of-B,null,NA,NA,gamlp
La Paz,Farmacia,Farmacia S.C. Latino Americana,C. Republica Dominicana # 2012,null,NA,NA,gamlp
La Paz,Farmacia,Farmacia Orly,C. San Borja # 488,null,-68.11881434,-16.4764498,gamlp
La Paz,Farmacia,Farmacia Incahuasi,Av. Octavio Campero # 1726,null,-68.10937853,-16.49716168,gamlp
La Paz,Farmacia,Farmacenter,C. Colón # 921,null,NA,NA,gamlp
La Paz,Farmacia,Farmacia Andina,C. Isaac Tamayo # 812,null,NA,NA,gamlp
La Paz,Farmacia,Farmacia Pio XII,Av. Baptista # 1018,null,NA,NA,gamlp
La Paz,Farmacia,Farmacia Santa Bárbara,Av. Florida # 35,null,-68.16065801,-16.48895721,gamlp
La Paz,Farmacia,Farmacia Baptista,C. Antonio Quijarro # 994,null,-68.14794171,-16.49578287,gamlp
La Paz,Farmacia,"Farmacia Si Yo, Tú",Av. Del Maestro # 1472,null,-68.10603961,-16.52351874,gamlp
La Paz,Farmacia,Farmacia Ninoska,Av. Escobar Uría # 176,null,NA,NA,gamlp
La Paz,Farmacia,Farmacia Santa Catalina,C. Boquerón # 1358-D,null,NA,NA,gamlp
La Paz,Farmacia,Corporación Boliviana de Farmacias S. A.,C. Bolívar # 876,null,NA,NA,gamlp
La Paz,Farmacia,Farmacia Illimani,Av. Landaeta # 573,null,-68.13413665,-16.50805703,gamlp
La Paz,Farmacia,Farmacia San Andrés,Av. Mcal. Santa Cruz # 2150,null,NA,NA,gamlp
La Paz,Farmacia,Farmacia Bolivia,C. Héroes del Acre # 518,null,NA,NA,gamlp
La Paz,Farmacia,Farmacia Mariel,Av. Baltazar de Salas # 1132,null,NA,NA,gamlp
La Paz,Farmacia,Farmacia Bolivia,Av. Manco Kapac,null,NA,NA,gamlp
La Paz,Farmacia,Farmacia Hipermaxi,Av. 14 de Septiembre # 6020,null,-68.10340469,-16.52810308,gamlp
La Paz,Farmacia,Farmacia San Rafael,Av. Las Américas # 716,null,-68.11725988,-16.4737751,gamlp
La Paz,Farmacia,Farmacia Galicia,Av. Manco Kapac # 450,null,-68.14277069,-16.49320942,gamlp
La Paz,Farmacia,Farmacia Unión,C. Ocho # 35,null,NA,NA,gamlp
La Paz,Farmacia,All Pharmacy III,Av. Saavedra # 1716,null,NA,NA,gamlp
La Paz,Farmacia,Punto Bienestar,Av. Arce # 2656,null,NA,NA,gamlp
La Paz,Farmacia,Farmacias Alianza,Av. Mcal. Santa Cruz # 870,null,NA,NA,gamlp
La Paz,Farmacia,Pharmasur,Av. Hernando Siles # 5259,null,-68.10901758,-16.52554424,gamlp
La Paz,Farmacia,Mifarma S.A.,C. 16 # 450,null,NA,NA,gamlp
La Paz,Farmacia,Big - Pharmacy,C. José Saravia # 1735,null,-68.14096535,-16.51089287,gamlp
La Paz,Farmacia,Farmacia Lía,C. Francisco de Miranda # 1836,null,-68.11929241,-16.50070175,gamlp
La Paz,Farmacia,Farmacia Chaski,Av. Muñoz Reyes # 170 Esq. C. 35,null,-68.0576342,-16.5412051,gamlp
La Paz,Farmacia,Farmacia Roca,C. Puerto Rico # 1425,null,-68.12131002,-16.4872009,gamlp
La Paz,Farmacia,Farmacia Isis,C. Constitución # 113,null,NA,NA,gamlp
La Paz,Farmacia,Farmacia Mocedades,C. Rodríguez # 335,null,NA,NA,gamlp
La Paz,Farmacia,Farmacias Bolivia,C. 12 # 247,null,-68.10517874,-16.52766608,gamlp
La Paz,Farmacia,Farmacia Liz,Av. De las Américas # 488,null,NA,NA,gamlp
La Paz,Farmacia,Hospimed S.R.L.,C. Villalobos # 1403,null,-68.12052603,-16.50255552,gamlp
La Paz,Farmacia,Farmacia la Serena,C. Eusebio Guilarte # 437,null,NA,NA,gamlp
La Paz,Farmacia,Farmacia Unicruz,C. Max Paredes # 647,null,NA,NA,gamlp
La Paz,Farmacia,Farmacia Avenida,Av. Ecuador # 2503,null,-68.12926368,-16.51251667,gamlp
La Paz,Farmacia,P J M Farmacy Group,C. Loayza # 1399,null,-68.13192421,-16.49699299,gamlp
La Paz,Farmacia,Farmacia Luz Del Señor,C. Eusebio Guilarte # 882,null,-68.12006156,-16.484749,gamlp
La Paz,Farmacia,Farmacia Gloria,C. General Centeno # 612 Esq. G. Jurado,null,-68.08727705,-16.53022584,gamlp
La Paz,Farmacia,Farmacia Gloria,C. 16 Esq. Iturri y G. Lanza # 330,null,NA,NA,gamlp
La Paz,Farmacia,Farmacia Gloria,C. 21 # 8239,null,-68.07756832,-16.54052835,gamlp
La Paz,Farmacia,Farmacia Gloria,Av. Aguirre Achá # 26,null,-68.07330876,-16.54531864,gamlp
La Paz,Farmacia,All Pharmacy,C. Claudio Sanjinés # 1641,null,-68.11847658,-16.5056917,gamlp
La Paz,Farmacia,Farmacia José María,C. Vicente Peñaloza # 410,null,-68.15714704,-16.49075979,gamlp
La Paz,Farmacia,Farmacia la Concepción,Av. Héroes Del Pacífico # 1529,null,-68.15409147,-16.4957064,gamlp
La Paz,Farmacia,Farmacia Unicruz III,C. Chorolque # 748,null,NA,NA,gamlp
La Paz,Farmacia,Farmacia Unicruz I,Av. Buenos Aires # 884,null,NA,NA,gamlp
La Paz,Farmacia,Farmacia Divino Niño,C. O # 7,null,NA,NA,gamlp
La Paz,Farmacia,Farmacia Alan - Matías,Av. Jaimes Freyre # 1848-B,null,-68.14230939,-16.51233913,gamlp
La Paz,Farmacia,Corporación Boliviana de Farmacias S.A.,C. Adolfo Ortega # 615,null,-68.14302466,-16.49543591,gamlp
La Paz,Farmacia,Farmacia 10 de Octubre,C. Illampu # 619,null,NA,NA,gamlp
La Paz,Farmacia,Farmacia Zamar,Av. Ramiro Castillo # 200,null,-68.11199807,-16.46691999,gamlp
La Paz,Farmacia,Farmacia Chávez,Av. Montenegro # 1247,null,-68.08026229,-16.54076195,gamlp
La Paz,Farmacia,Farmacia Máxima,Pza. Villarroel # 53,null,-68.12098275,-16.48439195,gamlp
La Paz,Farmacia,Farmacia Junior,Av. Tito Yupanqui # 1307,null,-68.1170215,-16.49383843,gamlp
La Paz,Farmacia,Comercialización de productos Farmacéuticos,Av. Vera # 127 Esq. C. 3,null,-68.0849574,-16.52810251,gamlp
La Paz,Farmacia,Farmacia Señor Jesús,Av. Arce # 150 Edf. El Escorial,null,-68.12095769,-16.51258428,gamlp
La Paz,Farmacia,Farmacia Caly,Av. Estados Unidos # 1131,null,-68.12212476,-16.49174551,gamlp
La Paz,Farmacia,Farmacia Marilyn,C. Evaristo Valle # 118,null,-68.1373823,-16.49399586,gamlp
La Paz,Farmacia,Farmacia Unicruz,C. Max Paredes # 523,null,NA,NA,gamlp
La Paz,Farmacia,Venta de productos Farmacéuticos,Av. Ballivián # 941 Esq. C. 16,null,-68.08354802,-16.53882818,gamlp
La Paz,Farmacia,Marie - Stopes - Bolivia Farmacia,C. Conchitas # 414,null,-68.13299087,-16.50481044,gamlp
La Paz,Farmacia,Farmacia el Salvador,Av. Juan XXIII # 300,null,-68.11296196,-16.50797573,gamlp
La Paz,Farmacia,Farmacia Capitol,C. Murillo # 413,null,-68.13973014,-16.49353678,gamlp
La Paz,Farmacia,Farmacia 25 De Mayo,C. Luis Lara # 670,null,-68.14055421,-16.50283231,gamlp
La Paz,Farmacia,Farmacia Rene Gabriel,Av. Perú # 135,null,NA,NA,gamlp
La Paz,Farmacia,Farmacia Pharma J4-Med 1,Av. Ballivián # 1063,null,NA,NA,gamlp
La Paz,Farmacia,Farmacia Betania,Av. Ramos Gavilán # 1955,null,-68.15085668,-16.4685415,gamlp
La Paz,Farmacia,Farmacia la Sagrada Familia,C. Landaeta # 762,null,-68.13664006,-16.50994232,gamlp
La Paz,Farmacia,Farmacia Rey David,C. Lucas Jaimes # 1915 - A,null,-68.11733348,-16.50141582,gamlp
La Paz,Farmacia,Venta de productos Farmacéuticos,C. Mercado # 1328,null,-68.13319981,-16.49842724,gamlp
La Paz,Farmacia,Farmacia Señor de Huanca,Av. 20 de Octubre # 2005,null,NA,NA,gamlp
La Paz,Farmacia,Farmacia Elyson,C. General Gonzales # 1106,null,-68.13745069,-16.50007487,gamlp
La Paz,Farmacia,Farmacia Santa Cecilia,Av. Simón Bolívar # 1999,null,NA,NA,gamlp
La Paz,Farmacia,Farmacia Multifuncional,Av. naciones Unidas # 290,null,-68.15829914,-16.48548156,gamlp
La Paz,Farmacia,Farmacia San Gerardo,Av. Saavedra # 2166,null,-68.12071316,-16.50537778,gamlp
La Paz,Farmacia,Distribución de productos Farmacéuticos,C. Capitán Ravelo # 2327,null,NA,NA,gamlp
La Paz,Farmacia,Farmacia la Plata,Av. Armentia # 656,null,-68.13614899,-16.49134268,gamlp
La Paz,Farmacia,Comercio de productos Farmacéuticos,C. Pablo Guillen # 29,null,-68.07786663,-16.54615617,gamlp
La Paz,Farmacia,Farmacia Porvenir,C. Federico Suazo # 1508,null,NA,NA,gamlp
La Paz,Farmacia,Importadora Interorbita S.R.L. Importación de productos para el Cabello-Cosméticos,Av. 20 de Octubre # 2473,null,NA,NA,gamlp
La Paz,Farmacia,Farmacia Lapachos,C. Brasil # 1584,null,NA,NA,gamlp
La Paz,Farmacia,Importación de Medicamentos,C. 20 # 7780 Esq. Inofuentes,null,-68.07886422,-16.53761601,gamlp
La Paz,Farmacia,Farmacias Farmacorp,Av. García Lanza,null,NA,NA,gamlp
La Paz,Farmacia,Farmacia Mariaca,Av. Eduardo Abaroa # 1369,null,NA,NA,gamlp
La Paz,Farmacia,Farmacia Kaliz,Av. Ramos Gavilán # 1981,null,-68.15081794,-16.46826259,gamlp
La Paz,Farmacia,Farmacorp S.A.,C. Pedro Salazar # 497,null,NA,NA,gamlp
La Paz,Farmacia,Farmacorp,C. Pedro Salazar # 497,null,NA,NA,gamlp
La Paz,Farmacia,Farmacia Noemí,Av. Baptista # 1047,null,NA,NA,gamlp
La Paz,Farmacia,Farmacia Virgen De La Merced,Av. Tejada Sorzano # 393,null,-68.12175399,-16.48222685,gamlp
La Paz,Farmacia,Farmacia Tu Salud,Av. Ciudad del Niño # 52,null,NA,NA,gamlp
La Paz,Farmacia,Farmacia Eliezer,Pza. San Martín # 2145,null,-68.12051931,-16.50446998,gamlp
La Paz,Farmacia,Farmacia y Droguería Bristol S.R.L.,C. Ingavi # 1047,null,-68.13402149,-16.49482218,gamlp
La Paz,Farmacia,Farmacias Gloria,Av. Tumusla # 416,null,-68.14113573,-16.49399502,gamlp
La Paz,Farmacia,Farmacia Galicia II,Av. Manco Kapac # 550,null,-68.14236051,-16.4935784,gamlp
La Paz,Farmacia,Farmacia Paulo VI,Av. Buenos Aires # 1450,null,NA,NA,gamlp
La Paz,Farmacia,Venta de productos Farmacéuticos,Av. Del Policía # 611,null,NA,NA,gamlp
La Paz,Farmacia,Latín Med,Av. Busch # 1944,null,-68.12113694,-16.50219521,gamlp
La Paz,Farmacia,Mi Sol Amiga,Av. Montes # 214,null,-68.13861859,-16.49175712,gamlp
La Paz,Farmacia,Farmacia O'Neil,C. Tejada Sorzano # 1174,null,NA,NA,gamlp
La Paz,Farmacia,Mifarma S.A.,C. 32 y Av. Strongest # 200,null,NA,NA,gamlp
La Paz,Farmacia,Farmacia Aries,Pza. Eguino # 389,null,NA,NA,gamlp
La Paz,Farmacia,Farmacia Dommy,Av. Juan José Torrez # 5,null,-68.12829096,-16.47874546,gamlp
La Paz,Farmacia,Farmacia Gloria,Av. Arce # 2670,null,NA,NA,gamlp
La Paz,Farmacia,Farmacia Gloria,Av. Arce,null,NA,NA,gamlp
La Paz,Farmacia,Venta Insumos Medicos,C. Díaz Romero # 1765,null,NA,NA,gamlp
La Paz,Farmacia,Farmacia Bolivia,C. Chuquisaca # 697,null,-68.13892225,-16.49316308,gamlp
La Paz,Farmacia,Venta Minorista de Insumos Medicos Tausen,C. Federico Zuazo # 1885,null,NA,NA,gamlp
La Paz,Farmacia,Venta de productos Farmacéuticos y Medicinales,C. Enrique Peñaranda # 11,null,NA,NA,gamlp
La Paz,Farmacia,Farmacia Inmaculada Concepción,Av. S. Bustamante Esq. C. 15 Torre Ketal,null,NA,NA,gamlp
La Paz,Farmacia,Farmacia Farmandrug,Av. Mariscal Santa Cruz,null,NA,NA,gamlp
La Paz,Farmacia,Farmacia Juárez I,Av. Saavedra # 2142,null,-68.12090398,-16.50514315,gamlp
La Paz,Farmacia,Gedeon Richter Bolivia S.R.L.,Av. 6 de Agosto # 2455,null,-68.12552105,-16.50960059,gamlp
La Paz,Farmacia,Importadora y Distribuidora San Sebastián,Av. Costanera # 1223,null,NA,NA,gamlp
La Paz,Farmacia,Farmacia Gloria,Av. 16 de Julio # 1456,null,-68.1335828,-16.50106456,gamlp
La Paz,Farmacia,Farmacia Italia,C. Sagarnaga # 495,null,NA,NA,gamlp
La Paz,Farmacia,Farmacia Haybar,C. Héroes de Acre # 1708,null,-68.13444456,-16.50519191,gamlp
La Paz,Farmacia,Farmacia Paris,C. Zoilo Flores # 1232,null,NA,NA,gamlp
La Paz,Farmacia,Clinilab Reactivos,Av. Ecuador # 2241,null,-68.12942476,-16.50996257,gamlp
La Paz,Farmacia,Farmacia Ojitos Virgen del Carmen,Av. Entre Ríos # 2036,null,-68.15853387,-16.49517493,gamlp
La Paz,Farmacia,Farmacia Caliz de Vida,Av. Buenos Aires # 977,null,-68.14523651,-16.50079056,gamlp
La Paz,Farmacia,Farmacia Illampu,Av. Héroes del Pacifico # 1470,null,NA,NA,gamlp
La Paz,Farmacia,Farmacia Nobel,C. León de la Barra # 974,null,-68.14449816,-16.49965979,gamlp
La Paz,Farmacia,Farmacia Bolivia,Av. 16 de Julio # 1598,null,-68.13293665,-16.5018789,gamlp
La Paz,Farmacia,Farmacia Gloria,Pza. Tejada Sorzano # 120 - Estadium,null,-68.1246429,-16.49993917,gamlp
La Paz,Farmacia,Mercaptopharma,C. Palos Blancos # 1333,null,-68.11707292,-16.46952396,gamlp
La Paz,Farmacia,Farmacia,Av. Buenos Aires # 1704,null,NA,NA,gamlp
La Paz,Farmacia,Farmacia Santa Rosa Kedi,Av. Burgaleta # 995,null,-68.11731286,-16.48883472,gamlp
La Paz,Farmacia,Farmacia José Nicolas 1,C. Lino Monasterios # 855,null,-68.14908438,-16.49670029,gamlp
La Paz,Farmacia,Icys Medical,Av. Busch Esq. S. Salvador # 1285,null,-68.12094242,-16.49440012,gamlp
La Paz,Farmacia,Almacén Central,C. 27 R. Reyes Romero # 78,null,NA,NA,gamlp
La Paz,Farmacia,Farmacia Niño Jesús,C. José María Asin # 698,null,NA,NA,gamlp
La Paz,Farmacia,Farmacia El Sol,Av. Saavedra # 2106,null,NA,NA,gamlp
La Paz,Farmacia,Farmacia Israelita,Av. Mariscal Santa Cruz # 938,null,-68.13665727,-16.4967828,gamlp
La Paz,Farmacia,Farmacias Alianza II,C. Evaristo Valle # 227,null,-68.13820594,-16.49382158,gamlp
La Paz,Farmacia,Farmacia Fabiola,Av. Brasil # 1647,null,-68.11876472,-16.49791663,gamlp
La Paz,Farmacia,Farmacia José Nicolás,Av. Sánchez Lima # 2574,null,NA,NA,gamlp
La Paz,Farmacia,Farmacia Panamericana,Av. Baptista # 823,null,NA,NA,gamlp
La Paz,Farmacia,Farmacia Santa Ana Sucursal 1,Av. Ramiro Castillo # 480-C,null,NA,NA,gamlp
La Paz,Farmacia,Farmacia San Agustín,Av. Pando # 335,null,-68.14052205,-16.493615,gamlp
La Paz,Farmacia,Mi Salud,C. Las Violetas,null,NA,NA,gamlp
La Paz,Farmacia,Cormed - Comercializadora De Medicamentos,Av. Busch Edf. Girasoles # 1759,null,-68.12085945,-16.4999542,gamlp
La Paz,Farmacia,Farmacia Nueva Luna,Av. 6 de Agosto # 2264,null,NA,NA,gamlp
La Paz,Farmacia,Gedesa Ltda.,C. Díaz Romero # 1647,null,NA,NA,gamlp
La Paz,Farmacia,Gedesa Ltda.,C. Díaz Romero # 1647,null,NA,NA,gamlp
La Paz,Farmacia,Farmacia Heredia,Av. Ramiro Castillo # 175,null,-68.11071548,-16.46562725,gamlp
La Paz,Farmacia,Farmacia San José,C. Juan XXIII # 11,null,NA,NA,gamlp
La Paz,Farmacia,Venta de productos naturales Morinda,Av. Mariscál Santa Cruz # 1295 Perrin,null,NA,NA,gamlp
La Paz,Farmacia,Farmacias Bolivia,Av. Sánchez Lima # 490 Pza. Abaroa,null,-68.12759577,-16.51043498,gamlp
La Paz,Farmacia,Farmacia Pribian,Av. Las Américas # 546,null,-68.11860835,-16.47599477,gamlp
La Paz,Farmacia,Farmacias Gloria,C. Colón # 626,null,NA,NA,gamlp
La Paz,Farmacia,R.S.K. Distribuidora,Av. 20 de Octubre # 2052,null,-68.13024535,-16.50690107,gamlp
La Paz,Farmacia,Farmacia María Reina,Av. Hernando Siles # 6192,null,NA,NA,gamlp
La Paz,Farmacia,Farmacia Jaimes Freyre,C. Alberto Gutierrez # 2084,null,-68.13797884,-16.51404805,gamlp
La Paz,Farmacia,Emporio Oftalmológico,C. Francisco de Miranda # 2251,null,-68.11886726,-16.50557336,gamlp
La Paz,Farmacia,Farmacia Uncía,Av. Vásquez # 710,null,-68.14888191,-16.4828364,gamlp
La Paz,Farmacia,Súper Farmacia Virgen de Copacabana XII,Av. Ballivián # 1613,null,NA,NA,gamlp
La Paz,Farmacia,Farmacia Santa Gema,Pza. Lira # 112,null,NA,NA,gamlp
La Paz,Farmacia,Súper Farmacia Virgen De Copacabana IX,Av. Mariscal Santa Cruz # 1297,null,NA,NA,gamlp
La Paz,Farmacia,Venta por menor de productos Farmacéuticos Medicinales,Av. 6 de Agosto # 2440,null,-68.12595103,-16.50952978,gamlp
La Paz,Farmacia,Ositolandia,Av. Quintanilla Zuazo # 538,null,-68.14735389,-16.48794939,gamlp
La Paz,Farmacia,Farmacia Ayelen,C. Zoilo Flores # 1024,null,-68.1389066,-16.50125101,gamlp
La Paz,Farmacia,Farmacia Luz Mariana,C. Rodríguez # 614,null,-68.14005466,-16.50067085,gamlp
La Paz,Farmacia,Súper Farmacia Virgen de Copacabana XV,Av. Mariscal Santa Cruz # 2150,null,-68.13644234,-16.49732622,gamlp
La Paz,Farmacia,Farmacia Alejandra,Av. Tejada Sorzano # 514,null,-68.12309988,-16.48365626,gamlp
La Paz,Farmacia,Farmacia Niño Divino,Av. Mario Mercado # 1822,null,NA,NA,gamlp
La Paz,Farmacia,Farmacia Siglo XXI,Av. General Lanza # 990,null,NA,NA,gamlp
La Paz,Farmacia,Venta por Mayor de productos Farmacéuticos y Medicinales,Av. Max Fernández # 200,null,-68.14415961,-16.53307386,gamlp
La Paz,Farmacia,Farmacia Mecofarma,C. Gral. Gonzales # 1190,null,NA,NA,gamlp
La Paz,Farmacia,Farmacia María Auxiliadora,Av. 15 de Abril # 511,null,-68.11842128,-16.47645776,gamlp
La Paz,Farmacia,Farmacia Chávez,C. Los Pinos,null,NA,NA,gamlp
La Paz,Farmacia,Vitalfarm,C. 9 de Abril # 810,null,NA,NA,gamlp
La Paz,Farmacia,Farmacia Tayamar,Av. Defensores del Chaco C. 51 # 77,null,NA,NA,gamlp
La Paz,Farmacia,Farmacia Salven,C. Ricardo Bustamante # 690,null,-68.14187358,-16.5002625,gamlp
La Paz,Farmacia,Súper Farmacia Virgen de Copacabana X,C. 17 y Av. Pról. 14 de Septiembre # 506,null,NA,NA,gamlp
La Paz,Farmacia,Farmacia Beni II,C. Aspiazu # 391,null,NA,NA,gamlp
La Paz,Farmacia,Farmacia Enrines,Av. 31 de Octubre # 1619,null,-68.11617273,-16.49688416,gamlp
La Paz,Farmacia,Farmacia Venus,Av. Esteban Arce # 1851,null,NA,NA,gamlp
La Paz,Farmacia,Venta por menor de productos Farmacéuticos Medicinales,C. Adrián Patiño # 8317,null,NA,NA,gamlp
La Paz,Farmacia,Farmacia Felicidad,C. Otero de la Vega # 1541,null,NA,NA,gamlp
La Paz,Farmacia,Farmacia Señor de Coata,Av. Entre Ríos # 1670,null,NA,NA,gamlp
La Paz,Farmacia,Farmairpavi,Av. Circunvalación # 116,null,NA,NA,gamlp
La Paz,Farmacia,Farmacia Luz de Dios,Av. I. de las Muñecas # 364,null,NA,NA,gamlp
La Paz,Farmacia,Gramon Bolivia Ltda.,Av. Arce Edf. Serrano # 2308,null,-68.12623207,-16.50799682,gamlp
La Paz,Farmacia,Farmacia Lety,Av. Buenos Aires # 1646,null,-68.14280239,-16.50704863,gamlp
La Paz,Farmacia,Farmacia Beni,C. Nicolás Acosta # 571,null,NA,NA,gamlp
La Paz,Farmacia,Farmacia Arce,Av. Arce # 2580,null,NA,NA,gamlp
La Paz,Farmacia,Farmacia Manus Dei,Av. Las Américas # 867,null,-68.11626705,-16.4707295,gamlp
La Paz,Farmacia,Farmacia Tatiana,C. Max Paredes # 605,null,-68.14518139,-16.49625184,gamlp
La Paz,Farmacia,Farmacia,Av. Manco Kapac # 349,null,NA,NA,gamlp
La Paz,Farmacia,Farmacia Canadá,C. Max Paredes # 487,null,NA,NA,gamlp
La Paz,Farmacia,Farmacia Zonia I,C. Max Paredes # 798,null,-68.14122337,-16.49796933,gamlp
La Paz,Farmacia,Farmacia Lucia,Av. 31 de Octubre # 1683,null,-68.11584987,-16.49738018,gamlp
La Paz,Farmacia,Dismelab S.R.L.,C. Juan de la Riva # 1406,null,-68.13277506,-16.49870217,gamlp
La Paz,Farmacia,Farmacia Catedral,Av. García Lanza C. 15 # 250,null,NA,NA,gamlp
La Paz,Farmacia,Farmacia el Cristo,Av. Montenegro Gral. El Triunfo # 716,null,NA,NA,gamlp
La Paz,Farmacia,Farmacia Copacabana,C. José V. Saravia # 1662,null,-68.14111669,-16.5101588,gamlp
La Paz,Farmacia,Farmacia Victoria,C. Pedro Salazar # 297,null,NA,NA,gamlp
La Paz,Farmacia,Farmacia Catedral,Av. Ballivián Esq. C. 20 # 1348,null,NA,NA,gamlp
La Paz,Farmacia,Farmacia Virgen de Cotoca,Av. Tito Yupanqui # 1394,null,-68.11688403,-16.49564162,gamlp
La Paz,Farmacia,Farmacia Vital,Av. Sánchez # 6400,null,NA,NA,gamlp
La Paz,Farmacia,Farmacia Alemana,Av. 6 de Agosto # 255 L-3,null,NA,NA,gamlp
La Paz,Farmacia,Farmacia Pharma J4 - Med 2,C. 13 # 8289,null,NA,NA,gamlp
La Paz,Farmacia,Importación y Distribución de Medicamentos e Insumos,Av. Kollasuyo # 1884,null,NA,NA,gamlp
La Paz,Farmacia,Venta productos Odontológicos,C. Max Paredes # 874,null,NA,NA,gamlp
La Paz,Farmacia,Farmacia E y G,Av. Buenos Aires # 1683,null,-68.14354609,-16.51104914,gamlp
La Paz,Farmacia,Romilab S.R.L.,C. Pedro Salazar # 694,null,NA,NA,gamlp
La Paz,Farmacia,Farmacia José de nazaret,Av. Pando # 221,null,-68.14051323,-16.49229746,gamlp
La Paz,Farmacia,Comercio de Cosméticos,Av. Ballivián # 1110,null,NA,NA,gamlp
La Paz,Farmacia,Farmacia María Teresa,Av. Nieves Linares # 29,null,NA,NA,gamlp
La Paz,Farmacia,Farmacia David,Av. I. de las Muñecas # 310,null,NA,NA,gamlp
La Paz,Farmacia,Farmacia Moisés,Av. Manco Kapac # 405,null,NA,NA,gamlp
La Paz,Farmacia,Venta al por menor de productos Farmacéuticos,Av. Cristo Vencedor # 2057,null,-68.15793988,-16.48896777,gamlp
La Paz,Farmacia,Farmacia Cemdi,Av. 6 de Agosto # 2530,null,-68.12490484,-16.51068535,gamlp
La Paz,Farmacia,Farmacia Nelly,Av. J. Freyre Esq. A. Gonzales # 2379,null,NA,NA,gamlp
La Paz,Farmacia,Farmacia Claret,Av. Buenos Aires # 1247,null,NA,NA,gamlp
La Paz,Farmacia,Farmacia Nicole Daniela,Av. Buenos Aires # 1727,null,-68.14284966,-16.50777847,gamlp
La Paz,Farmacia,Farmacia ABC,Av. Manco Kapac # 287,null,NA,NA,gamlp
La Paz,Farmacia,Farmacia Atenas,C. Peñas # 479,null,-68.15111878,-16.49278717,gamlp
La Paz,Farmacia,Farmacia Santa Cecilia,Av. Los Rosales # 3212,null,NA,NA,gamlp
La Paz,Farmacia,Farmacia Metropolitana,Av. Buenos Aires # 867,null,-68.14460841,-16.49957019,gamlp
La Paz,Farmacia,Farmacia Cruz Verde,C. Zoilo Flores Edf. Figliozzi # 2,null,-68.13752064,-16.5023846,gamlp
La Paz,Farmacia,Farmacia Libra,Av. Jaimes Freyre # 1000,null,-68.14338904,-16.51042373,gamlp
La Paz,Farmacia,Farmacia María Alejandra,C. Illampu # 1161,null,NA,NA,gamlp
La Paz,Farmacia,Farmacia,Av. Buenos Aires # 1001,null,NA,NA,gamlp
La Paz,Farmacia,Farmacia Bioenergía,C. Max Paredes # 559,null,-68.14362127,-16.49666726,gamlp
La Paz,Farmacia,Farmacia Saavedra,Av. Saavedra # 2240,null,-68.12006271,-16.50722146,gamlp
La Paz,Farmacia,Servicios Farmacéuticos,C. Warnes # 1780,null,-68.14034243,-16.51146351,gamlp
La Paz,Farmacia,Farmacia 3 de Mayo,C. Illampu # 1111,null,NA,NA,gamlp
La Paz,Farmacia,Farmacia Alianza,C. Fernando Guachalla # 646,null,-68.13010322,-16.50966475,gamlp
La Paz,Farmacia,Farmacias Bolivia - Sucursal # 40,Av. Buenos Aires # 470,null,-68.14439301,-16.49372501,gamlp
La Paz,Farmacia,Venta de Suplementos Alimenticios,Av. Ballivián Esq. C. 16 # 1020,null,NA,NA,gamlp
La Paz,Farmacia,Farmacia La Piedad,Av. Buenos Aires # 857,null,-68.14448239,-16.49935296,gamlp
La Paz,Farmacia,Farmacia Andrea Alexandra,Av. Baltazar de Salas # 100,null,NA,NA,gamlp
La Paz,Farmacia,Gel natural,Av. Las Américas # 732,null,NA,NA,gamlp
La Paz,Farmacia,Farmedical,Av. H. Siles Esq. C. 14 # 6007,null,NA,NA,gamlp
La Paz,Farmacia,Farmacia nahuma,Av. M. Q. Santa Cruz # 151,null,-68.14343097,-16.52271445,gamlp
La Paz,Farmacia,Laboratorio LKM S.A.,Av. Arce # 2132,null,-68.12827434,-16.50654546,gamlp
La Paz,Farmacia,Importadora Mitofarma,C. Covendo # 830,null,-68.11585213,-16.47231794,gamlp
La Paz,Farmacia,Farmacia Señora del Tepeyac,C. Colón # 708,null,-68.13152606,-16.49522068,gamlp
La Paz,Farmacia,Farmacia Ap Santifar,C. Santa Cruz # 490,null,-68.14054837,-16.49685498,gamlp
La Paz,Farmacia,Galería Copacabana,C. Puente Villa # 1451,null,-68.12043887,-16.47961155,gamlp
La Paz,Farmacia,Farmacia Ecuador II,C. Litoral # 1374,null,-68.12148258,-16.50486862,gamlp
La Paz,Farmacia,Farmacia Dios te Sana,Av. Buenos Aires # 1192,null,-68.14462034,-16.50310431,gamlp
La Paz,Farmacia,Distribución De Productos Farmacéuticos,C. Luis Uría de la Oliva # 2894,null,-68.12735632,-16.51607049,gamlp
La Paz,Farmacia,Jaklin Yamile Estrada Torrez,C. Sagarnaga # 189,null,NA,NA,gamlp
La Paz,Farmacia,Laboratorio de Cosmética y Farmoquimica S.A. Cofar,C. Víctor Eduardo # 2293,null,-68.12113105,-16.50713519,gamlp
La Paz,CentroMedico,8 de Diciembre,C. Benedeto Vincenti y Circunvalación,2320913,-68.13306958,-16.51822901,gamlp
La Paz,CentroMedico,Biblioteca,C. Martinez Monje,2472843 - 2325172,-68.1498271,-16.50486429,gamlp
La Paz,CentroMedico,Pasankery,Av. Marcelo Quiroga,2320994,-68.14570939,-16.52290116,gamlp
La Paz,CentroMedico,Kantutani,C. Romecín Campos,null,-68.12390259,-16.51418748,gamlp
La Paz,CentroMedico,La Gruta,Av. 9 de Abril,2325171,-68.15523409,-16.50654758,gamlp
La Paz,CentroMedico,Llojeta,Av. Troncal Mario Mercado,2320982,-68.1382932,-16.53360406,gamlp
La Paz,CentroMedico,Penal de San Pedro,Pza. San Pedro (Penal de San Pedro Interior),null,-68.13452628,-16.5029727,gamlp
La Paz,CentroMedico,San Luis,"C. Justo Avila y Chaco, Pza. las Americas",2417927,-68.1357025,-16.51067968,gamlp
La Paz,CentroMedico,San Pedro Bajo,"C. General Gonzales #1328, Pza. Belzu",2495547,-68.1369098,-16.50073291,gamlp
La Paz,CentroMedico,Alto Tacagua,C. Inca Roca e Inca Mayo,null,-68.14971982,-16.51353595,gamlp
La Paz,CentroMedico,Bajo Tacagua,"Av. Julio Tellez, Parada Minibus 211",2489552,-68.14586734,-16.51033881,gamlp
La Paz,CentroMedico,Tembladerani,C. Canonigo Ayllon,2420002,-68.14266638,-16.51060821,gamlp
La Paz,CentroMedico,Villa Nueva Potosí,C. Manuel Jofre #3614 y C. Ondarza,2489494,-68.14385325,-16.50740265,gamlp
La Paz,CentroMedico,Caja de Caminos,C. Rosendo Gutierrez entre 20 de Octubre y 6 de Agosto #386,null,-68.12754113,-16.50867793,gamlp
La Paz,CentroMedico,Caja Petrolera de Salud La Paz,Av. 20 de Octubre y Rosendo Gutierrez,null,-68.12792146,-16.5090324,gamlp
La Paz,CentroMedico,9 de Abril,Av. 6 de Agosto Esq. Belisario Salinas  #2403,null,-68.12583144,-16.50922699,gamlp
La Paz,CentroMedico,Universitario,Av. 6 de Agosto,null,-68.12366988,-16.51191078,gamlp
La Paz,CentroMedico,C.I.E.S. La Paz,C. Boquerón y Colombia #1444,null,-68.13699293,-16.50378746,gamlp
La Paz,CentroMedico,Carmen Llojeta,C. H #4,null,-68.13777925,-16.53212766,gamlp
La Paz,CentroMedico,Pasankeri,C. 4 de Agosto,null,-68.14177976,-16.52443941,gamlp
La Paz,CentroMedico,El Carmen San Pedro,C. Canonigo Ayllon Pza. el Carmen,null,-68.13802013,-16.50938447,gamlp
La Paz,CentroMedico,Las Lomas,Entre C. 7 y C. F,null,-68.13749931,-16.52386285,gamlp
La Paz,CentroMedico,Marie Stopes - BOLIVIA,C. Conchitas,null,-68.13365717,-16.50624516,gamlp
La Paz,CentroMedico,Pro Mujer San Pedro,C. Canonigo Ayllón,null,-68.13502958,-16.50615839,gamlp
La Paz,CentroMedico,CEMEP,C. Reyes Ortiz,null,-68.13174198,-16.50245629,gamlp
La Paz,CentroMedico,Cemes,Av. 6 de Agosto Edificio Clavijo,null,-68.12091109,-16.51416033,gamlp
La Paz,CentroMedico,Pediatria Neont.P.,Av. 16 de Julio Edif. San Pablo 1er. Piso,null,-68.13356129,-16.50135345,gamlp
La Paz,CentroMedico,Reg. Policial #1,C. Colombia,null,-68.13407733,-16.50060027,gamlp
La Paz,CentroMedico,Sanjinez,Av. Buenos Aires Pza. Ramiro Castillo,null,-68.14386403,-16.49399028,gamlp
La Paz,CentroMedico,6 de Agosto,Av. 6 de Agosto Esq. Pedro Salazar,null,-68.12112996,-16.51449534,gamlp
La Paz,CentroMedico,Liendo,C. Aspiazu Esq. Ecuador,null,-68.13051994,-16.50868996,gamlp
La Paz,CentroMedico,Paraná,C. Sagarnaga #659,null,-68.14094571,-16.49988136,gamlp
La Paz,CentroMedico,San Pablo,Av. Ecuador #2416 entre Boquerón y Colombia,null,-68.13761152,-16.50390897,gamlp
La Paz,CentroMedico,Virgen de Asunción,Av. 6 de Agosto #2899 entre c. clavijo,null,-68.12081217,-16.51433203,gamlp
La Paz,CentroMedico,CLINIMED SRL,Av. 6 de Agosoto #2440,null,-68.12204573,-16.513543,gamlp
La Paz,CentroMedico,Policial Virgen de Copacabana,C. Luis Uría de la Oliva,null,-68.12796677,-16.5152657,gamlp
La Paz,CentroMedico,Alto Mcal.Santa Cruz,"Av. Segundo Bascones, Parada Minibus 395",2394011,-68.16232081,-16.49378146,gamlp
La Paz,CentroMedico,Bajo Tejar,Pza. 27 de Mayo,2380928,-68.15420432,-16.49538125,gamlp
La Paz,CentroMedico,Ciudadela Ferroviaria,"C. 1 Sede Social Junta de Vecinos, Frente Escuela Tapia",2324156,-68.15008425,-16.45716862,gamlp
La Paz,CentroMedico,Munaypata,"Av. naciones Unidas, frente Complejo Deportivo",2397756,-68.15939711,-16.48731015,gamlp
La Paz,CentroMedico,Obispo Indaburo,C. Obispo Balderrama  Nº 1448 frente al Col.  Educativo Libertad.,2472084,-68.14917434,-16.50038163,gamlp
La Paz,CentroMedico,Said,C. 21 de Enero #29,2384660,-68.1511406,-16.48219223,gamlp
La Paz,CentroMedico,Panticirca,"Av. 3, Frente a la Escuela Lucio Velasco",null,-68.15834085,-16.46007406,gamlp
La Paz,CentroMedico,Villa Victoria,Av. República Esq. C. Tupiza #1896,2385938,-68.15590039,-16.49105306,gamlp
La Paz,CentroMedico,Chamoco Chico,"Av. Segundo Bascones, Segundo Puente Topater",2471333,-68.15416435,-16.50162181,gamlp
La Paz,CentroMedico,El Tejar,C. Damas de Cotagaita S/N Pza. Tte. Max Garcia,2471332,-68.15595663,-16.49761114,gamlp
La Paz,CentroMedico,La Portada,Av. Florida y C. Carlos Quintanilla lado  Parroquia Nuestra señora de Copacabana.,2395329,-68.16492861,-16.48933534,gamlp
La Paz,CentroMedico,La Paz,Pza. 14 de Septiembre Garita de Lima,null,-68.14585827,-16.4960034,gamlp
La Paz,CentroMedico,18 de Mayo,C. Raul Salmón s/n Cj. Salamanca,null,-68.14691868,-16.49257452,gamlp
La Paz,CentroMedico,Ceprosi,Av. naciones Unidas,null,-68.15561496,-16.48719114,gamlp
La Paz,CentroMedico,Apumalla,"Av. Apumalla, lado Parque Huallparimachi",null,-68.15051858,-16.49259896,gamlp
La Paz,CentroMedico,Juan XXII,Av. naciones Unidas C. Juan XXIII,null,-68.15782647,-16.48738202,gamlp
La Paz,CentroMedico,Suma Warmi,C. Max Paredes #491,null,-68.14454104,-16.49628661,gamlp
La Paz,CentroMedico,Urkupiña,Av. Bautista,null,-68.14687645,-16.49579824,gamlp
La Paz,CentroMedico,Achachicala,"Av. Chacaltaya #1502, frente Esc. Industrial Pedro Domingo Murillo",2320556,-68.15097219,-16.47555265,gamlp
La Paz,CentroMedico,San Juan Lazareto,Av. Tejada Sorzano esq. San Salvador,2322298,-68.12754574,-16.48781008,gamlp
La Paz,CentroMedico,Alto Miraflores,C. Urias Rodriguez y Adriana Pariente,null,-68.12596906,-16.4791482,gamlp
La Paz,CentroMedico,El Calvario,Av. Periférica y C. Juan de la Cruz Monje (lado Colegio Adolfo Costa Durels),2320442,-68.13461424,-16.4854959,gamlp
La Paz,CentroMedico,Juancito Pinto,C. Graneros y Murillo,null,-68.13951666,-16.49464861,gamlp
La Paz,CentroMedico,Plan Autopista,Av. Ramos Gavilan,2320584,-68.14662335,-16.45741464,gamlp
La Paz,CentroMedico,Retén de Emergencias,Av. Simón Bolivar frente Mercado Camacho,null,-68.13182024,-16.4998713,gamlp
La Paz,CentroMedico,San José de natividad,C. 20 y Av. Costanera #26,2322415,-68.11497267,-16.47541144,gamlp
La Paz,CentroMedico,Agua de la Vida,Av. La Bandera Esq. C. La Cruz,2320446,-68.12987243,-16.49422068,gamlp
La Paz,CentroMedico,Las Delicias,C. San José de Tipuani y Taca #398,null,-68.12100724,-16.47391094,gamlp
La Paz,CentroMedico,Vino Tinto,Av. Baltazar de Salas #51 Sede Junta de Vecinos,null,-68.14167039,-16.48275495,gamlp
La Paz,CentroMedico,Centro Penitenciario Miraflores,C. Diaz Romero y Argentina,null,-68.11906631,-16.50098619,gamlp
La Paz,CentroMedico,Central,C. Ingavi,null,-68.13392153,-16.4951691,gamlp
La Paz,CentroMedico,Manco Kapac,Av. Manco Kapac S/N,null,-68.14322854,-16.49312445,gamlp
La Paz,CentroMedico,Miraflores,Diaz Romero entre Av. Busch y Cuba,null,-68.12042424,-16.50157217,gamlp
La Paz,CentroMedico,Villa Fátima,C. Matias Terrazas S/N,null,-68.12079175,-16.4821624,gamlp
La Paz,CentroMedico,Banca Privada (Aramayo),C. Felix Reyes Ortiz Esq. Federico Zuazo Ed. Gundlach,null,-68.13102792,-16.5019436,gamlp
La Paz,CentroMedico,Caja Bancaria Estatal,C. Panama #1162,null,-68.12324581,-16.49714037,gamlp
La Paz,CentroMedico,C.O.R.D.E.S.,Av. Arce #2419,null,-68.12480618,-16.50857024,gamlp
La Paz,CentroMedico,PROSALUD (Alto Miraflores),Av. Periferica #12,null,-68.12956932,-16.48311965,gamlp
La Paz,CentroMedico,PROSALUD (Chuquiaguillo),Av. La Paz  Cotapata #11,null,-68.11446423,-16.46977847,gamlp
La Paz,CentroMedico,PROSALUD (Tejada Sorzano),Esq. San Salvador S/N,null,-68.12595613,-16.49465484,gamlp
La Paz,CentroMedico,Villa Fátima,Av. Las Delicias Esq. Yanacachi S/N,null,-68.1224092,-16.47863909,gamlp
La Paz,CentroMedico,Pro Mujer 3 de Mayo,Av. Periferica Esq. Costanera #1658,null,-68.15768139,-16.48606994,gamlp
La Paz,CentroMedico,Pro Mujer Vino Tinto,Av Chacaltaya #892 Cruce Achachicala y Vino Tinto,null,-68.14993339,-16.47730165,gamlp
La Paz,CentroMedico,CEMSE,Entre Pichincha y Sucre Edif. Cemse Piso 3,null,-68.13494891,-16.49262621,gamlp
La Paz,CentroMedico,San Antonio de Padua,C. Sagarnaga entre Murillo y San Francisco,null,-68.13787924,-16.49697194,gamlp
La Paz,CentroMedico,San Francisco de Asis,C. Costanera #170,null,-68.11456655,-16.46962957,gamlp
La Paz,CentroMedico,Señor Exaltación,Av. Final Baltazar de Salas  S/N,null,-68.14396177,-16.4797545,gamlp
La Paz,CentroMedico,CESDI,C. Suapi esq. Quiquibey #25,null,-68.10460472,-16.46137411,gamlp
La Paz,CentroMedico,Arco iris,Av. 15 de Abril #400 Barrio Gráfico,null,-68.12033479,-16.48406207,gamlp
La Paz,CentroMedico,Kupini,"Av. Rogelio Carrillo, Cancha Kupini lado Col. Sergio Villegas",2251810,-68.09867972,-16.5117471,gamlp
La Paz,CentroMedico,Villa Copacabana (Pacasa),Av. Burgaleta cerca del Hospital Luis Uria,2322655,-68.11730057,-16.48420405,gamlp
La Paz,CentroMedico,Pampahasi Alto,"C. K esq. D, Parada Minibus 332",2258222,-68.10377738,-16.49120182,gamlp
La Paz,CentroMedico,Pampahasi Bajo,C. 4 detrás del Colegio Delia Gambarte de Quezada,2256896,-68.10169702,-16.50493999,gamlp
La Paz,CentroMedico,San Antonio Alto,"Av. Josefa Mujia, S/N lado (Sub Alcaldia)",2239352,-68.10798108,-16.50016687,gamlp
La Paz,CentroMedico,San Antonio Bajo,Av. Costanera entre Av. Regimiento Castrillo y 31 de Octubre S/N,2239678,-68.11605111,-16.49885216,gamlp
La Paz,CentroMedico,San Isidro,"Plaza Elizardo Perez, Parada 210",2253837,-68.10845626,-16.514351,gamlp
La Paz,CentroMedico,Kupini,"C. Barrizueta #133, 1/2 cuadra E. Uria",null,-68.09736401,-16.50896791,gamlp
La Paz,CentroMedico,Pro Mujer Villa Copacabana,Av. 31 de Oct,null,-68.11678827,-16.49607461,gamlp
La Paz,CentroMedico,San Gabriel,C. Nuñez del Prado Esq. P. Villamil S/N,NA,-68.11715231,-16.49142704,gamlp
La Paz,CentroMedico,Valle Hermoso,"Av. Litoral  y C. Batallon Colorados, parada del mini bus 299",2322660,-68.11061064,-16.48895306,gamlp
La Paz,CentroMedico,Pampahasi,C. E Esq. Av. 5 cerca mercado 23 de Enero,null,-68.10093608,-16.50495755,gamlp
La Paz,CentroMedico,NA,NA,null,NA,NA,gamlp
La Paz,CentroMedico,Alto Irpavi,Av. Circunvalación,2723186,-68.0845267,-16.51553203,gamlp
La Paz,CentroMedico,Alto Següencoma,Pza. Cívica,2751550,-68.09993704,-16.53882566,gamlp
La Paz,CentroMedico,Apaña,C. 34 B,null,-68.05890539,-16.53832866,gamlp
La Paz,CentroMedico,Bajo Llojeta,Av. Los Sargentos - entre C. 5 y C. 4,null,-68.11720848,-16.52571097,gamlp
La Paz,CentroMedico,NA,NA,null,NA,NA,gamlp
La Paz,CentroMedico,Mallasa,Pza. 2 de Febrero - C. 2 y 3,2323264,-68.08972236,-16.56932246,gamlp
La Paz,CentroMedico,Mallasilla,C. D,null,-68.0988511,-16.56566251,gamlp
La Paz,CentroMedico,Obrajes,Av. Ormachea entre C. 15 y C. 16,2751039,-68.1028983,-16.52969411,gamlp
La Paz,CentroMedico,Centro de Orientación Femenina,C. 7 y Diaz Villamil - Carcel de Mujeres,null,-68.11003069,-16.52703073,gamlp
La Paz,CentroMedico,Achumani,Av. José Manuel Chinchilla Esq. C. 15,2713981,-68.0747929,-16.53098592,gamlp
La Paz,CentroMedico,Chasquipampa,C. General Toro y C. Teniente Morales,2794546,-68.04758292,-16.53873326,gamlp
La Paz,CentroMedico,Bolognia,Av. Jose Garcia Lanza y Av. Caballero,2724785,-68.08720329,-16.52564431,gamlp
La Paz,CentroMedico,Wiñay,Av. Defensores del Chaco #57,null,-68.04922153,-16.53739263,gamlp
La Paz,CentroMedico,Alto Obrajes,Av. del Maestro - Lado Pza. UFAQ,null,-68.10589561,-16.52375738,gamlp
La Paz,CentroMedico,San Pablo  (La Paz),C. 8 y 9 de Obrajes Av. Hernando Siles - Detrás de la Iglesia de Exaltación,null,-68.10809118,-16.5265983,gamlp
La Paz,CentroMedico,Del Sur,Av. Hernando Siles C. 7 #3539,null,-68.10868856,-16.52570544,gamlp
La Paz,CentroMedico,Metodista,Entre C. 11 y 12,null,-68.10458206,-16.52696068,gamlp
La Paz,CentroMedico,Trauma CLINIK SA,C. Claudio Aliaga #1271,null,-68.07970742,-16.54202852,gamlp
La Paz,CentroMedico,De Clínicas,Av. Saavedra,null,-68.11925644,-16.50716177,gamlp
La Paz,CentroMedico,De La Mujer,Av. Saavedra,null,-68.11911947,-16.50833192,gamlp
La Paz,CentroMedico,Del Niño,Av. Saavedra frente Estado Mayor,null,-68.11839857,-16.50833735,gamlp
La Paz,CentroMedico,Instituto nacional Salud Ocupacional,C. Claudio Sanjinez,null,-68.11947168,-16.50566742,gamlp
La Paz,CentroMedico,Instituto de Gastroenterología,Av. Saavedra,null,-68.11820089,-16.50755564,gamlp
La Paz,CentroMedico,Instituto nal.De Oftalmologia,C. Claudio Sanjinez,null,-68.11873763,-16.50636882,gamlp
La Paz,CentroMedico,Instituto nal.Del Torax,C. Claudio Sanjinez #1683,null,-68.1181728,-16.50669706,gamlp
La Paz,CentroMedico,Piloto,Av. Vasquez,null,-68.14465345,-16.48855529,gamlp
La Paz,CentroMedico,INLASA,Av. Saavedra #1889,null,-68.11728071,-16.50874133,gamlp
La Paz,CentroMedico,SELADIS,Av. Saavedra,null,-68.12017548,-16.50700218,gamlp
La Paz,CentroMedico,Centro de Especialidades,Av. Buenos Aires S/N Z 14 de Septiembre,null,-68.14300668,-16.50631463,gamlp
La Paz,CentroMedico,Geriátrica,C. Corneta Mamani,null,-68.13104492,-16.50531268,gamlp
La Paz,CentroMedico,Policlínico de Especialidades,Av. Diaz Romero #1408,null,-68.12204693,-16.50162734,gamlp
La Paz,CentroMedico,COSSMIL Hospital Militar,Av. Saavedra,null,-68.12018939,-16.50511363,gamlp
La Paz,CentroMedico,General  L.U.O,Av. Burgaleta,null,-68.11678166,-16.48271,gamlp
La Paz,CentroMedico,Obrero,Av. Brasil,null,-68.11809434,-16.49941728,gamlp
La Paz,CentroMedico,Materno Infantil,C. Villalobos,null,-68.1177258,-16.50188667,gamlp
La Paz,CentroMedico,Instituto de  Rehabilitación,C. 3 Obrajes,null,-68.11189591,-16.52372939,gamlp
La Paz,CentroMedico,Psiquiatrico San Juan de Dios,C. Braulio Vera,null,-68.08381178,-16.49760934,gamlp
La Paz,CentroMedico,Villa Salome,Av. La Paz de Ayacucho Esq. C. 7 Nogales,2322837,-68.09581437,-16.48672158,gamlp
La Paz,CentroMedico,Bella Vista,Av. Pio XII,2783200,-68.09487025,-16.53033515,gamlp
La Paz,CentroMedico,NA,NA,null,NA,NA,gamlp
La Paz,CentroMedico,C.M.I. Niño Kollo,"Tacagua, Av. 12 de Abril y 16 de Julio",2324015,-68.14907985,-16.50999398,gamlp
La Paz,CentroMedico,Los Pinos,"C. 25, Lado del Mercado Los Pinos",null,-68.07159291,-16.54232977,gamlp
La Paz,CentroMedico,Psiquiatrico #14.,Entre Diaz Romero y Villalobos,null,-68.12037991,-16.50247644,gamlp
La Paz,CentroMedico,Centro Vocacional SOS,C. 2 de Febrero Esq. C.7,null,-68.08737289,-16.57181525,gamlp
La Paz,CentroMedico,Colegio aldeas Infantiles SOS,Av. Florida Esq. C. 7,null,-68.08462859,-16.57007851,gamlp
La Paz,CentroMedico,La Florida,Av. Costanera Esq. Av. Arequipa,null,-68.09177218,-16.54521937,gamlp
La Paz,CentroMedico,Clínica de Rehabilitación,C. Nicolas Fernandez naranjo Esq. Av Costanera,null,-68.08169563,-16.54491694,gamlp
La Paz,CentroMedico,Embriovid,Av. 21 Washington entre Adrian Patiño y Mariscal de Montenegro,null,-68.0774765,-16.5405306,gamlp
La Paz,CentroMedico,CIASE,Av. Defensores del Chaco Esq. C. 13,null,-68.04603641,-16.53637137,gamlp
La Paz,CentroMedico,Geriátrico Nuevo Amanecer,C. Villegas entre Av. 8 Max Toledo y C. 6 de Julio de la Vega Iturri,null,-68.08507947,-16.52325317,gamlp
La Paz,CentroMedico,Caja Petrolera,Av. 8 Andres de Santa Cruz entre Antonio Diaz Villamil y Costanera,null,-68.10910155,-16.52831631,gamlp
La Paz,CentroMedico,COMIBOL,C. 9 entre Antonio Diaz Villamil y Costanera,null,-68.10837546,-16.52816558,gamlp
La Paz,CentroMedico,Centro Felix Equino Zabala,C. 11 Esq. Final Antonio Diaz Villamil,null,-68.10698324,-16.52850434,gamlp
La Paz,CentroMedico,COF. OBRAJES,C. Roberto Jordan Cuellar 14 de septiembre,null,-68.10976453,-16.52326716,gamlp
La Paz,CentroMedico,El Rosal,Calle E y Calle Clivia,2320987,-68.13139501,-16.5342061,gamlp
La Paz,CentroMedico,Sociedad Católica San José,C. 8,null,-68.13614898,-16.52375589,gamlp
La Paz,CentroMedico,Cotahuma,C. Moxos  C. 5 de Agosto,null,-68.14469027,-16.51512931,gamlp
La Paz,CentroMedico,COTAHUMA,Av. Jaimes Freyre y Av. Jaime Zudañez,null,-68.13944689,-16.51542234,gamlp
La Paz,CentroMedico,Húngara,C. Carlos Medinacelli final C. Severo Alonzo,null,-68.13510553,-16.51289458,gamlp
La Paz,CentroMedico,El Buen Pastor,C. Adan Sardon Z. entre Jaimes Freyre y Melchor Perez de Olguín,null,-68.13294944,-16.51535249,gamlp
La Paz,CentroMedico,MEDICENTRO,Av. 6 de Agosto casi Esq. Belizario Salinas,null,-68.12592896,-16.50958784,gamlp
La Paz,CentroMedico,Banco de Sangre,Av. Bautista Saavedra,null,-68.11956607,-16.50729329,gamlp
La Paz,CentroMedico,Ontológico (V),Av. Bautista Saavedra,null,-68.11976671,-16.50624436,gamlp
La Paz,CentroMedico,INSO,Av. Bautista Saavedra,null,-68.11886226,-16.50683098,gamlp
La Paz,CentroMedico,Morgue,Av. Bautista Saavedra,null,-68.118221,-16.50616659,gamlp
La Paz,CentroMedico,Asistencia Medica Integral,Av. Bautista Saavedra,null,-68.11908695,-16.50596768,gamlp
La Paz,CentroMedico,12 de Abril,C. Francisco Miranda Esq. Nicaragua,null,-68.11921525,-16.5036884,gamlp
La Paz,CentroMedico,Sagrado Corazón,Av. German Busch entre Diaz romero y Rosendo Villalobos,null,-68.1212492,-16.50195237,gamlp
La Paz,CentroMedico,Villa Armonía Policonsultorio,C. Juan XXIII Esq. San Juan,null,-68.11259224,-16.50840845,gamlp
La Paz,CentroMedico,Villa Armonía,"Av. Tupac Katari y C. 6, Parque Picapiedra",2322913,-68.10979536,-16.5080831,gamlp
La Paz,CentroMedico,Posta Sanitaria San Antonio Cebtral,C. Circunvalación,null,-68.10107807,-16.50636419,gamlp
La Paz,CentroMedico,San Antonio,C. Mariano Antezana y Pasaje vehicular,null,-68.11472439,-16.49482665,gamlp
La Paz,CentroMedico,Escobar Uría,Av. H entre C. 7 y C. 9,null,-68.10889199,-16.49276206,gamlp
La Paz,CentroMedico,San Gabriel,C. Pedro Villamil Antonio Velazco,null,-68.11663882,-16.49140955,gamlp
La Paz,CentroMedico,Pacasa,C. Unión,null,-68.11270559,-16.48358725,gamlp
La Paz,CentroMedico,Alcoreza,"C. Alcoreza, 2 cuadras arriba Parada Micro 132",2324019,-68.15153684,-16.50909822,gamlp
La Paz,CentroMedico,Villamil de Rada,C. Villamil de Rada,null,-68.1516617,-16.50706078,gamlp
La Paz,CentroMedico,Alto Chijini,Av. 9 de Abril,null,-68.15561561,-16.50656988,gamlp
La Paz,CentroMedico,Alto San Pedro,C. Zeballos Esq.  Buenos Aires,null,-68.14267514,-16.5075087,gamlp
La Paz,CentroMedico,Brasil,C. Pionero de Rochalde Esq. Canonigo Ayllon,null,-68.13702572,-16.50676116,gamlp
La Paz,CentroMedico,Rengel,C. Victor Sanjines,null,-68.12890975,-16.51515922,gamlp
La Paz,CentroMedico,Caja nacional de Salud,C. Almirante Grau Esq. Mariscal Santa Cruz,null,-68.1349109,-16.49976813,gamlp
La Paz,CentroMedico,La Paz Nro 2 Emergencias,C. Juan de La Riva Casi Esq. Bueno,null,-68.13210647,-16.49881908,gamlp
La Paz,CentroMedico,Modelo,C. Panamá,null,-68.12347458,-16.49719715,gamlp
La Paz,CentroMedico,Dermatológica,C. Guerrilleros Lanza,null,-68.12259282,-16.49716789,gamlp
La Paz,CentroMedico,Arandia,Av. Abel iturralde Esq. Uyuni,null,-68.12413454,-16.49662071,gamlp
La Paz,CentroMedico,Santa Fé,C. Jorge Saenz Esq. Heroes del pacifico,null,-68.12382146,-16.49635941,gamlp
La Paz,CentroMedico,Choferes 1º de Mayo,C. Aspiazu,null,-68.1176445,-16.47063808,gamlp
La Paz,CentroMedico,Caja de Salud,Av. Manco Kapac,null,-68.14304142,-16.49374552,gamlp
La Paz,CentroMedico,Politecnico 21 de Septiembre,C. Nuestra Señora de La Asunción,null,-68.15340682,-16.49166652,gamlp
La Paz,CentroMedico,18 de Mayo,C. Rubén Amezaga,2320580,-68.14643762,-16.47541572,gamlp
La Paz,CentroMedico,Pura Pura,Av. Vasquez,null,-68.14886912,-16.4831126,gamlp
La Paz,CentroMedico,Centro de Salud,Av. Ismael Vasquez,null,-68.14987176,-16.48300286,gamlp
La Paz,CentroMedico,Ciudad Ferroviaria,C. 21 de Enero,null,-68.15131464,-16.48093381,gamlp
La Paz,CentroMedico,La Portada,C. Carlos Quintana,null,-68.15877958,-16.49038175,gamlp
La Paz,CentroMedico,La Merced,C. Aspiazu,null,-68.11776161,-16.47105392,gamlp
La Paz,CentroMedico,NA,NA,null,NA,NA,gamlp
La Paz,CentroMedico,Asistencia Pública,Av. Simón Bolivar #1519,2203316,-68.13142843,-16.50003009,gamlp
La Paz,CentroMedico,Choquechihuani Hampaturi,C. Choquechihuani,null,-68.04546524,-16.45018572,gamlp
La Paz,CentroMedico,Camsique,Comunidad Pueblo de Zongo,null,-68.06480571,-16.1041399,gamlp
La Paz,CentroMedico,La Portada,Av. Florida,null,-68.16570668,-16.4892944,gamlp
La Paz,CentroMedico,Zongo Choro,Comunidad Monte Verde,null,-67.66878443,-15.76632697,gamlp
La Paz,CentroMedico,Chuquiaguillo,Av. Ramiro Castillo S/N,null,-68.1025452,-16.4594608,gamlp
La Paz,CentroMedico,Cota Cota,"Calle 4 esq. San Luis, Zona Los Rosales",2790376,-68.05072607,-16.54358539,gamlp
