Departamento,Tipo,Nombre,Direccion,Telefono,Latitud,Longitud,Fuente
Cochabamba,Alimentos,Mercado movil-GAM Cochabamba,Av. Juan Pablo II esq. Pedro Cayetano,4 4258030,-17.389389,-66.199381,web
Cochabamba,Alimentos,Mercado movil-GAM Cochabamba,Av. Thunupa esq.  calle Apurimak,4 4258030,-17.378163,-66.188111,web
Cochabamba,Alimentos,Mercado movil-GAM Cochabamba,Av. Dorbigni esq. Av. Villavicencio,4 4258030,-17.387385,-66.182269,web
Cochabamba,Alimentos,Mercado movil-GAM Cochabamba,Av. Tadeo Haenke esq. Juan Pablo II,4 4258030,-17.381416,-66.198917,web
Cochabamba,Alimentos,Mercado movil-GAM Cochabamba,Av. Ingavi esq. Cornelio  Saavedra,4 4258030,-17.404163,-66.180518,web
Cochabamba,Alimentos,Mercado movil-GAM Cochabamba,Av. Melchor Perez y Av. Dorbigni,4 4258030,-17.388118,-66.179124,web
Cochabamba,Alimentos,Mercado movil-GAM Cochabamba,OTB Nueva Jerusalen,4 4258030,-17.431635,-66.141808,web
Cochabamba,Alimentos,Mercado movil-GAM Cochabamba,Av. Siglo XX esq. Libertad,4 4258030,-17.444589,-66.125164,web
Cochabamba,Alimentos,Mercado movil-GAM Cochabamba,Av. París OTB Nueva Vera Cruz,4 4258030,-17.464159,-66.120245,web
Cochabamba,Alimentos,Mercado movil-GAM Cochabamba,OTB Jarkamayu,4 4258030,-17.452628,-66.102311,web
Cochabamba,Alimentos,Mercado movil-GAM Cochabamba,OTB Gualberto Villarroel,4 4258030,-17.456380,-66.116872,web
Cochabamba,Alimentos,Mercado movil-GAM Cochabamba,OTB Serena Calicanto,4 4258030,-17.468704,-66.110463,web
Cochabamba,Alimentos,Mercado movil-GAM Cochabamba,Av. Suecia (Biblio Avión) - D6,4 4258030,-17.419745,-66.139731,web
Cochabamba,Alimentos,Mercado movil-GAM Cochabamba,OTB Alto Cochabamba - D8,4 4258030,-17.423424,-66.145061,web
Cochabamba,Alimentos,Mercado movil-GAM Cochabamba,"OTB Villa Aguada, OTB Villa Brasil - D7",4 4258030,-17.422232,-66.118136,web
Cochabamba,Alimentos,Mercado movil-GAM Cochabamba,OTB Rocas Blancas - D7,4 4258030,-17.420293,-66.114978,web
Cochabamba,Alimentos,Mercado movil-GAM Cochabamba,"OTB Yuraj Rumy, OTB Las Peñas - D14",4 4258030,-17.431495,-66.109405,web
Cochabamba,Alimentos,Mercado movil-GAM Cochabamba,OTB Colinas de Pasbol - D14,4 4258030,-17.434705,-66.109413,web
Cochabamba,Alimentos,Mercado movil-GAM Cochabamba,Av. Manco Kapac y Av. 27 de agosto,4 4258030,-17.403910,-66.166728,web
Cochabamba,Alimentos,Mercado movil-GAM Cochabamba,"Av. Huayna Kapac, plaza Reforma Agraria",4 4258030,-17.398862,-66.164203,web
Cochabamba,Alimentos,Mercado movil-GAM Cochabamba,"Av. Heroínas, Plaza Gumán Quiton",4 4258030,-17.393286,-66.161548,web
Cochabamba,Alimentos,Mercado movil-GAM Cochabamba,"Calle México, Plaza Colón",4 4258030,-17.387801,-66.155863,web
Cochabamba,Alimentos,Mercado movil-GAM Cochabamba,Av. Heroínas y av. Oquendo,4 4258030,-17.391064,-66.149985,web
Cochabamba,Alimentos,Mercado movil-GAM Cochabamba,Av. Guillermo Urquidi y Av. Belzu,4 4258030,-17.393932,-66.141834,web
Cochabamba,Alimentos,Mercado movil-GAM Cochabamba,Av. Ruben Darío y Parque Noruego,4 4258030,-17.390946,-66.138801,web
Cochabamba,Alimentos,Mercado movil-GAM Cochabamba,Av. Ruben Darío y Av. J. Cruz Torrez,4 4258030,-17.381444,-66.142125,web
Cochabamba,Alimentos,Mercado movil-GAM Cochabamba,Av. Ramon Rivero y pasaje Viscarra,4 4258030,-17.380419,-66.150788,web
Cochabamba,Alimentos,Mercado movil-GAM Cochabamba,Plaza Quintanilla,4 4258030,-17.382198,-66.151796,web
Cochabamba,Alimentos,Mercado movil-GAM Cochabamba,"Av. Libertador Bolivar y Av. Oblitas, Plaza Cordova",4 4258030,-17.380647,-66.160008,web
Cochabamba,Alimentos,Mercado movil-GAM Cochabamba,Av. Juan de la Rosa y Av. Félix Aranibar,4 4258030,-17.379127,-66.165380,web
Cochabamba,Alimentos,Mercado movil-GAM Cochabamba,Parque Franz Tamayo y calle Washington,4 4258030,-17.375397,-66.167472,web
Cochabamba,Alimentos,Mercado movil-GAM Cochabamba,Av. América y Av. Jaime Mendoza,4 4258030,-17.372220,-66.168560,web
Cochabamba,Alimentos,Mercado movil-GAM Cochabamba,Av. Man Césped y Jaimes Freire,4 4258030,-17.368173,-66.167926,web
Cochabamba,Alimentos,Mercado movil-GAM Cochabamba,"Av. Libertador Bolivar, Plaza Cala Cala",4 4258030,-17.368457,-66.163860,web
Cochabamba,Alimentos,Mercado movil-GAM Cochabamba,Av. Atahuallpa y Av. Circunvalacion,4 4258030,-17.365098,-66.162285,web
Cochabamba,Alimentos,Mercado movil-GAM Cochabamba,Av. Circunvalación y Av. Santa Cruz,4 4258030,-17.366498,-66.156436,web
Cochabamba,Alimentos,Mercado movil-GAM Cochabamba,Av. Circunvalación y Av. Melchor Urquidi,4 4258030,-17.367146,-66.149613,web
Cochabamba,Alimentos,Mercado movil-GAM Cochabamba,Av. Circunvalación y Parque Jorge Trigo Andia,4 4258030,-17.369374,-66.144038,web
Cochabamba,Alimentos,Mercado movil-GAM Cochabamba,"Av. América, Plaza Tarija",4 4258030,-17.373794,-66.142957,web
Cochabamba,Alimentos,Mercado movil-GAM Cochabamba,Av. Uyuni y Av. Melchor Urquidi,4 4258030,-17.378465,-66.149734,web
Cochabamba,Alimentos,Mercado movil-GAM Cochabamba,Av. Humboldt y Av. Dorbigni,4 4258030,-17.387288,-66.165919,web
Cochabamba,Alimentos,Mercado movil-GAM Cochabamba,"Av.  II Circunvalación y cancha multifuncional, OTB 24 de mayo",4 4258030,-17.354645,-66.156848,web
Cochabamba,Alimentos,Mercado movil-GAM Cochabamba,Av. II Circunvalación y Torrentera Logostani,4 4258030,null,null,web
Cochabamba,Alimentos,Mercado movil-GAM Cochabamba,"OTB Los Ceibos, frente al Hospital del Norte",4 4258030,-17.345846,-66.165797,web
Cochabamba,Alimentos,Mercado movil-GAM Cochabamba,Av. Circunvalación y Melchor Peréz,4 4258030,-17.359252,-66.172070,web
Cochabamba,Alimentos,Mercado movil-GAM Cochabamba,"OTB Colquiri Norte, sede",4 4258030,-17.354623,-66.180253,web
Cochabamba,Alimentos,Mercado movil-GAM Cochabamba,Av. Hernán Siles y Porfirio Diaz Machicado,4 4258030,-17.357259,-66.165183,web
Cochabamba,Alimentos,Mercado movil-GAM Cochabamba,Av. Atahuallpa y Mostajo,4 4258030,-17.361927,-66.161077,web
Cochabamba,Alimentos,Mercado movil-GAM Cochabamba,Av. Luis Calvo y Zarzamora,4 4258030,-17.363155,-66.151708,web
Cochabamba,Alimentos,Mercado movil-GAM Cochabamba,Kara Kara lado colegio Juancito Pinto tinglado - D15,4 4258030,-17.473767,-66.120883,web
Cochabamba,Alimentos,Mercado movil-GAM Cochabamba,"Pampa San Miguel, final Av. Autonomía, tinglado - D15",4 4258030,-17.466753,-66.145647,web
Cochabamba,Alimentos,Mercado movil-GAM Cochabamba,Kara Kara - D15,4 4258030,-17.471945,-66.130232,web
Cochabamba,Alimentos,Mercado movil-GAM Cochabamba,Villaflores - D15,4 4258030,-17.476704,-66.121129,web
Cochabamba,Alimentos,Mercado movil-GAM Cochabamba,Ichucollo - D15,4 4258030,-17.481132,-66.124550,web
Cochabamba,Alimentos,Mercado movil-GAM Cochabamba,OTB Paz Nueva Jerusalen - D9,4 4258030,-17.491074,-66.177283,web
Cochabamba,Alimentos,Mercado movil-GAM Cochabamba,"Colegio 1 de Mayo, cerca plaza vecinal - D9",4 4258030,-17.467023,-66.204130,web
Cochabamba,Alimentos,Mercado movil-GAM Cochabamba,"Itocta, templo frente al colegio - D9",4 4258030,-17.457944,-66.185038,web
Cochabamba,Alimentos,Mercado movil-GAM Cochabamba,"OTB Villa Oropeza, Cobol cerca colegio - D9",4 4258030,-17.483958,-66.159673,web
Cochabamba,Alimentos,Mercado movil-GAM Cochabamba,"OTB 21 de septiembre, tinglado - D9",4 4258030,-17.482268,-66.180290,web
Cochabamba,Alimentos,Mercado movil-GAM Cochabamba,"Sivingani, entrada lado del colegio - D9",4 4258030,-17.472719,-66.182749,web
Cochabamba,Alimentos,Mercado movil-GAM Cochabamba,"Pucarita Chica, lado del colegio - D9",4 4258030,-17.452255,-66.202087,web
Cochabamba,Alimentos,Mercado movil-GAM Cochabamba,Albarrancho - D9,4 4258030,-17.453885,-66.244445,web
Cochabamba,Alimentos,Mercado movil-GAM Cochabamba,Caico - D9,4 4258030,-17.451919,-66.231451,web
Cochabamba,Alimentos,Mercado movil-GAM Cochabamba,Cobol - D9,4 4258030,-17.492215,-66.161410,web
Cochabamba,Alimentos,Mercado movil-GAM Cochabamba,Villa Israel - D9,4 4258030,-17.494817,-66.177233,web
Cochabamba,Alimentos,Mercado movil-GAM Cochabamba,Pucara - D9,4 4258030,-17.458082,-66.202617,web
Cochabamba,Alimentos,Mercado movil-GAM Cochabamba,Villa Rosario - D9,4 4258030,-17.468847,-66.125691,web
Cochabamba,Alimentos,Mercado movil-GAM Cochabamba,Pucarita Chica Urb - D9,4 4258030,-17.441523,-66.200860,web
Cochabamba,Alimentos,Mercado movil-GAM Cochabamba,Lomas de Panamericana - D9,4 4258030,-17.500668,-66.177972,web
La Paz,Alimentos,Mercado movil-GAM La Paz,Plan Autopista,null,-16.458834,-68.147223,web
La Paz,Alimentos,Mercado movil-GAM La Paz,Santiago de Lacaya,null,-16.470522,-68.129277,web
La Paz,Alimentos,Mercado movil-GAM La Paz,"Rosasani, parque",null,-16.468492,-68.123724,web
La Paz,Alimentos,Mercado movil-GAM La Paz,Av. Francisco Bedregal rotonda Emaverde,null,-16.520143,-68.125400,web
La Paz,Alimentos,Mercado movil-GAM La Paz,"Av. Mario Mercado, Llojeta",null,-16.526610,-68.126677,web
La Paz,Alimentos,Mercado movil-GAM La Paz,"Av. 9 de abril, pasarela, final Villamil de Rada",null,-16.507097,-68.152337,web
La Paz,Alimentos,Mercado movil-GAM La Paz,Condores Lakota / Lomas del Sur / Huantaqui,null,-16.530104,-68.057658,web
La Paz,Alimentos,Mercado movil-GAM La Paz,Chijipata,null,-16.545331,-68.045255,web
La Paz,Alimentos,Mercado movil-GAM La Paz,Rosales de Achumani,null,-16.513816,-68.052997,web
La Paz,Alimentos,Mercado movil-GAM La Paz,"Cancha zona 24 de junio ""A"", calle 24 de junio",null,-16.480262,-68.113634,web
La Paz,Alimentos,Mercado movil-GAM La Paz,"Cosmos 85, parada Pumakatari, zona Villa Salome",null,-16.485179,-68.093155,web
La Paz,Alimentos,Mercado movil-GAM La Paz,Zona Kupini,null,-16.510534,-68.099247,web
La Paz,Alimentos,Mercado movil-GAM La Paz,"Av. Valle de la Luna, altura banderas",null,-16.566760,-68.093453,web
La Paz,Alimentos,Mercado movil-GAM La Paz,"Av. Tricentenario, calle 5 de la zona de Jupapina",null,-16.591730,-68.073074,web
La Paz,Alimentos,Mercado movil-GAM La Paz,Av. Hernan Siles - Mallasa,null,-16.559257,-68.094054,web
La Paz,Alimentos,Mercado movil-GAM La Paz,Plaza Bolivia,null,-16.507011,-68.126557,web
La Paz,Alimentos,Mercado movil-GAM La Paz,Calle Jaimes y Mariaca,null,-16.504719,-68.117239,web
La Paz,Alimentos,Mercado movil-GAM La Paz,Plaza Uyuni,null,-16.496938,-68.124284,web
La Paz,Alimentos,Mercado movil-GAM La Paz,Zona Sagrado Corazon,null,-16.500530,-68.153006,web
La Paz,Alimentos,Mercado movil-GAM La Paz,"Zona Wakathaki, colegio Filadelfia",null,-16.500101,-68.161168,web
La Paz,Alimentos,Mercado movil-GAM La Paz,Ciudadela Caja Ferroviaria,null,-16.488718,-68.143275,web
Santa Cruz,Alimentos,Mercado movil-GAM Santa Cruz,Barrio Guaracal (Parque urbano),null,-17.817747,-63.173147,web
Santa Cruz,Alimentos,Mercado movil-GAM La Paz,Barrio Guarachi-Rotonda,null,-17.781787,-63.145049,web
Santa Cruz,Alimentos,Mercado movil-GAM Santa Cruz,Barrio 21 de Enero-Cancha,null,-17.776433,-63.134799,web
Santa Cruz,Alimentos,Mercado movil-GAM La Paz,Urbanización Clara Serrano,null,-17.686077,-63.070053,web
Santa Cruz,Alimentos,Mercado movil-GAM Santa Cruz,Barrio Las Misiones-Plaza del barrio,null,-17.834344,-63.193398,web
Santa Cruz,Alimentos,Mercado movil-GAM La Paz,Centro Educativo Caritas - Barrio Yabog - Barrio El Deber,null,-17.839180,-63.185724,web
Santa Cruz,Alimentos,Mercado movil-GAM Santa Cruz,Barrio España - Frente a la capilla,null,-17.775866,-63.117687,web
Santa Cruz,Alimentos,Mercado movil-GAM La Paz,"Av. Miguel de Cervantes, octavo anillo",null,-17.851037,-63.198303,web
Santa Cruz,Alimentos,Mercado movil-GAM Santa Cruz,Barrio La Colorada - Cancha 16 de noviembre,null,-17.850836,-63.194392,web
Santa Cruz,Alimentos,Mercado movil-GAM La Paz,Barrio El Trigal - Plaza del barrio,null,-17.860254,-63.213271,web
Santa Cruz,Alimentos,Mercado movil-GAM Santa Cruz,Comunidad Usuri y zonas aledañas,null,-17.881180,-62.941722,web
Santa Cruz,Alimentos,Mercado movil-GAM Santa Cruz,Plaza La Costanera,null,-17.757712,-63.201073,web
Santa Cruz,Alimentos,Mercado movil-GAM Santa Cruz,Plaza los Mangales,null,-17.818435,-63.130803,web
Santa Cruz,Alimentos,Mercado movil-GAM Santa Cruz,Sub alcaldia Distrito 1,null,-17.770796,-63.201782,web
Santa Cruz,Alimentos,Mercado movil-GAM Santa Cruz,Unidad Educativa Las Porras,null,-17.796800,-63.222009,web
Santa Cruz,Alimentos,Mercado movil-GAM Santa Cruz,Lagua Guapilo Barrio Junin UV 263,null,-17.780884,-63.098498,web
Santa Cruz,Alimentos,Mercado movil-GAM Santa Cruz,Condominio Borguese 262-264,null,-17.781715,-63.090259,web
Santa Cruz,Alimentos,Mercado movil-GAM Santa Cruz,Kerana,null,-17.769912,-63.134514,web
Santa Cruz,Alimentos,Mercado movil-GAM Santa Cruz,La Casona,null,null,null,web
Santa Cruz,Alimentos,Mercado movil-GAM Santa Cruz,Amaranto,null,null,null,web
Santa Cruz,Alimentos,Mercado movil-GAM Santa Cruz,Parque Acuatico,null,null,null,web
Santa Cruz,Alimentos,Mercado movil-GAM Santa Cruz,Barrio Taparruete 278,null,null,null,web
Santa Cruz,Alimentos,Mercado movil-GAM Santa Cruz,Ciudad del Este UV 270,null,null,null,web
Santa Cruz,Alimentos,Mercado movil-GAM Santa Cruz,Urbanización Punta Rena - Modulo Juancito Pinto,null,-17.842421,-63.085481,web
Santa Cruz,Alimentos,Mercado movil-GAM Santa Cruz,Urbanización El Quior - Plaza Principal,null,-17.847212,-63.087970,web
Santa Cruz,Alimentos,Mercado movil-GAM Santa Cruz,Barrio 15 de Enero - Cancha 15 de enero,null,null,null,web
Santa Cruz,Alimentos,Mercado movil-GAM Santa Cruz,Barrio Paraiso,null,null,null,web
Santa Cruz,Alimentos,Mercado movil-GAM Santa Cruz,Señor de los milagros Km. 9,null,null,null,web
Santa Cruz,Alimentos,Mercado movil-GAM Santa Cruz,Barrio Totaitu Mirador,null,-17.706295,-63.164682,web
Santa Cruz,Alimentos,Mercado movil-GAM Santa Cruz,Barrio Los Sauces,null,-17.729157,-63.144493,web
Santa Cruz,Alimentos,Mercado movil-GAM Santa Cruz,Barrio Villa Carmela,null,-17.729387,-63.175957,web
Santa Cruz,Alimentos,Mercado movil-GAM Santa Cruz,Barrio 24 de Septiembre,null,-17.750875,-63.186746,web
Santa Cruz,Alimentos,Mercado movil-GAM Santa Cruz,Barrio Bella Vista,null,null,null,web
Santa Cruz,Alimentos,Mercado movil-GAM Santa Cruz,Barrio 16 de Noviembre,null,-17.824594,-63.178732,web
Santa Cruz,Alimentos,Mercado movil-GAM Santa Cruz,Barrio La Esperanza,null,null,null,web
Santa Cruz,Alimentos,Mercado movil-GAM Santa Cruz,Barrio Los Pinos,null,null,null,web
Santa Cruz,Alimentos,Mercado movil-GAM Santa Cruz,Barrio 15 de Octubre,null,null,null,web
Santa Cruz,Alimentos,Mercado movil-GAM Santa Cruz,"Zona de Condominio Sevilla (1 y 2, Los Bosques, Pinatar)",null,-17.688018,-63.150900,web
Santa Cruz,Alimentos,Mercado movil-GAM Santa Cruz,Fontana Rivera 1 y 2 - Valle Cartago,null,-17.690648,-63.137244,web
Oruro,Alimentos,Mercado movil-GAM Oruro,"Desde Casco del Minero hasta Urb. Aurora, Dora Halker, Cristo Salvador, Los Olivos",null,-17.927150,-67.118428,web
Oruro,Alimentos,Mercado movil-GAM Oruro,"Rieles, Urb. Milenium, Pampitas y Urb. aledañas",null,-17.925030,-67.111083,web
Oruro,Alimentos,Mercado movil-GAM Oruro,"Villa Dorina, Huajara, Camino a Capachos",null,-17.933731,-67.090892,web
Oruro,Alimentos,Mercado movil-GAM Oruro,"Luis Espinal, Urb. Paraíso y Urb. aledañas",null,-17.946841,-67.070336,web
Oruro,Alimentos,Mercado movil-GAM Oruro,"9 de Junio, Urb. Paraíso I y II, 15 de julio y aledañas",null,-18.001566,-67.107581,web
La Paz,Alimentos,Fridosa,NA,65073070-70811426,null,null,web
La Paz,Alimentos,Carne cerrada al vacio,NA,75888507-60115517,null,null,web
Cochabamba,Alimentos,Carla Mamani,NA,77938392,null,null,web
Cochabamba,Alimentos,Agua Rica,NA,70719564,null,null,web
La Paz,Alimentos,OSFIM,NA,75800080,null,null,web
La Paz,Alimentos,Mercasa,NA,76231713 - 69939108 - 79577770,null,null,web
La Paz,Alimentos,Agua La Montaña,NA,2770777 - 2124847 - 67109994,null,null,web
La Paz,Alimentos,Botimbo,NA,62441000,null,null,web
La Paz,Alimentos,Delizia,NA,78988113 -76596444,null,null,web
La Paz,Alimentos,Delizia,NA,69720522 - 78988064,null,null,web
Cochabamba,Alimentos,Delizia,NA,76760432 - 69801121,null,null,web
Santa Cruz,Alimentos,Delizia,NA,75852322 - 75005455,null,null,web
La Paz,Alimentos,Cosas Ricas,NA,76759797,null,null,web
La Paz,Alimentos,Sofía,NA,78445000,null,null,web
La Paz,Alimentos,Fridosa,NA,79678258,null,null,web
La Paz,Alimentos,Imba,NA,61224816,null,null,web
La Paz,Alimentos,Imba,NA,75246197,null,null,web
La Paz,Alimentos,Rio Costa,NA,22774618 - 70120091,null,null,web
La Paz,Alimentos,Stege,NA,2850070 - 70118765 - 70193043,null,null,web
La Paz,Alimentos,Torito,NA,2850070 - 70118765 - 70193043,null,null,web
Chuquisaca,Alimentos,Oqharikuna,Tarapaca No. 59,6460221,null,null,web
Cochabamba,Alimentos,Pollito Rico,NA,68582392 - 71790762 - 4381596,null,null,web
Cochabamba,Alimentos,VerduExpress,NA,60745157 - 4223444,null,null,web
Cochabamba,Alimentos,null,NA,60738726,null,null,web
Cochabamba,Alimentos,DAADSMARKET,NA,69418282 - 69418222,null,null,web
Cochabamba,Alimentos,Carnes A costo,NA,77442620,null,null,web
Cochabamba,Alimentos,null,NA,75992239,null,null,web
Cochabamba,Alimentos,null,NA,72776916 - 69413053,null,null,web
La Paz,Alimentos,Delizia,Condominio Alemán y Los Girasoles,null,null,null,web
La Paz,Alimentos,Delizia,"Hipermaxi calle 31, Claveles",null,-16.519260,-68.062403,web
La Paz,Alimentos,Delizia,"Meseta de Achumani, Condominio Jacaranda",null,-16.530628,-68.051799,web
La Paz,Alimentos,Delizia,"Los Álamos, IV Centenario",null,null,null,web
La Paz,Alimentos,Delizia,Ex Fábrica SAID,null,-16.485263,-68.148998,web
La Paz,Alimentos,Delizia,Porvenir,null,-16.536546,-68.071711,web
La Paz,Alimentos,Delizia,Plaza Principal,null,-16.499900,-68.090578,web
La Paz,Alimentos,Delizia,Sector Las Nieves,null,-16.516515,-68.083866,web
La Paz,Alimentos,Delizia,Puente Koani,null,-16.536488,-68.081058,web
Cochabamba,Alimentos,Productos PIL,NA,72208203,null,null,web
Cochabamba,Alimentos,Delizia,NA,76760432-69801121,null,null,web
Cochabamba,Alimentos,Quesería Julia,NA,67559916-72262162,null,null,web
Cochabamba,Alimentos,Avicola Rolon,NA,79968649,null,null,web
Cochabamba,Alimentos,Verduras 36,NA,79790490,null,null,web
Cochabamba,Alimentos,Daadsmarket,NA,69418282,null,null,web
Cochabamba,Alimentos,Verdu Express,NA,60745157,null,null,web
Cochabamba,Alimentos,Eco Kawsay,NA,72219761-73772138,null,null,web
Cochabamba,Alimentos,Camion verdura,NA,71758486-76460289,null,null,web
Cochabamba,Alimentos,Camion,NA,69455988,null,null,web
Cochabamba,Alimentos,La Case,NA,67555737,null,null,web
Cochabamba,Alimentos,Shopping onlin,NA,61592695-60791611,null,null,web
Cochabamba,Alimentos,GranOro,NA,70761913-4450293,null,null,web
Cochabamba,Alimentos,Pollito Rico,NA,68582392-71790762,null,null,web
Cochabamba,Alimentos,Imba,NA,74162391,null,null,web
Cochabamba,Alimentos,Avicultores,NA,65346313-78307145,null,null,web
Cochabamba,Alimentos,Vito Rivera,NA,67402933-72208171,null,null,web
Cochabamba,Alimentos,Hoy Cerdo,NA,75973212,null,null,web
Cochabamba,Alimentos,Granja,NA,71747451,null,null,web
Cochabamba,Alimentos,Nelore Carnes,NA,70746781,null,null,web
Cochabamba,Alimentos,Carnes a costo,NA,77442620,null,null,web
Cochabamba,Alimentos,Zelada,NA,60395008-60705004,null,null,web
Cochabamba,Agua,Agua Rica,NA,4244721-4430410,null,null,web
Cochabamba,Agua,natureza,NA,70700891,null,null,web
Cochabamba,Agua,Eco Pura,NA,72748678,null,null,web
Cochabamba,Alimentos,Favi Hogar,NA,65746512,null,null,web
Cochabamba,Alimentos,Jarto 100 Bs,NA,75488446,null,null,web
Cochabamba,Alimentos,Mayor a 150 Bs,NA,69063762,null,null,web
Cochabamba,Alimentos,Tosi Bolivia,NA,65739444,null,null,web
Cochabamba,Alimentos,Se lo llevo,NA,69424447,null,null,web
Cochabamba,Alimentos,Comida rapida,NA,79969727,null,null,web
Cochabamba,Alimentos,Cowork Café,NA,4234200,null,null,web
Cochabamba,Alimentos,Compromax,NA,75996900,null,null,web
La Paz,Alimentos,Personas Encerradas pero Solidarias,"calle 13, complejo strongest",78896500 - 77268029,null,null,web
La Paz,Alimentos,Personas Encerradas pero Solidarias,colegio pedro poveda,79454215,-16.510360,-68.112718,web
La Paz,Alimentos,Personas Encerradas pero Solidarias,rotonda,75859725,null,null,web
La Paz,Alimentos,Personas Encerradas pero Solidarias,cotel entrada a achumani,63079099,null,null,web
La Paz,Alimentos,Personas Encerradas pero Solidarias,"calle 33, av retamas c. 33",70545686 - 76708748,-16.543788,-68.059585,web
La Paz,Alimentos,Personas Encerradas pero Solidarias,Calle 25B,75859725,-16.543162,-68.070743,web
La Paz,Alimentos,Personas Encerradas pero Solidarias,urbanizacion marisol,70136280,null,null,web
La Paz,Alimentos,Personas Encerradas pero Solidarias,"entre iturralde y haiti, calle cuba hipermaxi",70575736 - 77737939,null,null,web
La Paz,Alimentos,Personas Encerradas pero Solidarias,calle 13,77292261 - 60570851,null,null,web
La Paz,Alimentos,Personas Encerradas pero Solidarias,Plaza Ergueta,75837739,-16.494775,-68.100551,web
La Paz,Alimentos,Personas Encerradas pero Solidarias,Teatro al Aire Libre,77268652,-16.503562,-68.127773,web
La Paz,Alimentos,Personas Encerradas pero Solidarias,Sindicato Simon Bolivar,78835331,-16.497921,-68.108840,web
La Paz,Alimentos,Personas Encerradas pero Solidarias,Plaza Adela Zamudio,77504019 - 60559536,-16.517934,-68.129311,web
La Paz,Alimentos,Personas Encerradas pero Solidarias,parada 3 viejas,77233997,null,null,web
Santa Cruz,Alimentos,Ciudadanos en acción,calle libertad entre buenos aires y seoane nro. 349,77053808,null,null,web
Santa Cruz,Alimentos,Ciudadanos en acción,av. el mechero  calle 2,60099484,-17.826331,-63.130843,web
Santa Cruz,Alimentos,Ciudadanos en acción,"8vo anillo, avenida moscu, calle juan",60809417,null,null,web
Santa Cruz,Alimentos,Ciudadanos en acción,"6to anillo, barrio españa, uv. 53, calle madrid",77366860,null,null,web
Santa Cruz,Alimentos,Ciudadanos en acción,"avenida 16 de julio y 3 pasos al frente, exactamente en el surtidor dicor",77396446,-17.802087,-63.127853,web
Cochabamba,Alimentos,Mercado movil-GAM Cochabamba,Av. América esq. Av. Beijing,4 4258030,-17.371400,-66.180215,web
Cochabamba,Alimentos,Mercado movil-GAM Cochabamba,Av. Juan de la Rosa esq. Av. Beijing,4 4258030,-17.374568,-66.180773,web
Cochabamba,Alimentos,Mercado movil-GAM Cochabamba,Av. América esq. Av. Thunupa,4 4258030,-17.370928,-66.188581,web
Cochabamba,Alimentos,Mercado movil-GAM Cochabamba,Av. Thunupa esq. Av. Villa Vicencio,4 4258030,-17.379503,-66.188414,web
Cochabamba,Alimentos,Mercado movil-GAM Cochabamba,Av. Villa Vicencio esq. Av. Dorbigni,4 4258030,-17.385931,-66.185935,web
Cochabamba,Alimentos,Mercado movil-GAM Cochabamba,Av. Tadeo Haenke esq. Av. Beijing,4 4258030,-17.383027,-66.181772,web
Cochabamba,Alimentos,Mercado movil-GAM Cochabamba,Av. Beijing esq. calle Apurimak,4 4258030,-17.378819,-66.181347,web
Cochabamba,Alimentos,Mercado movil-GAM Cochabamba,Av. Thunupa esq. calle Yuracaré,4 4258030,-17.374128,-66.187221,web
Cochabamba,Alimentos,Mercado movil-GAM Cochabamba,Calle Chipaya esq. Apurimak,4 4258030,-17.378487,-66.185751,web
Cochabamba,Alimentos,Mercado movil-GAM Cochabamba,Av. Villa Vicencio esq. calle Luis Zegarra,4 4258030,-17.376146,-66.192446,web
Cochabamba,Alimentos,Mercado movil-GAM Colcapirhua,Kanaudt,null,-17.376629,-66.215999,web
Cochabamba,Alimentos,Mercado movil-GAM Colcapirhua,Urbanizacion La Paz,null,-17.399556,-66.221412,web
Cochabamba,Alimentos,Mercado movil-GAM Colcapirhua,ELFEC y Cucardas,null,-17.405482,-66.221721,web
Cochabamba,Alimentos,Mercado movil-GAM Colcapirhua,Lirios del Sur,null,null,null,web
Cochabamba,Alimentos,Mercado movil-GAM Colcapirhua,Santa Rosa Central,null,-17.391930,-66.221381,web
Cochabamba,Alimentos,Mercado movil-GAM Colcapirhua,Elizabeth Seton,null,-17.395461,-66.208410,web
Cochabamba,Alimentos,Mercado movil-GAM Colcapirhua,Oasys,null,-17.392370,-66.212549,web
Cochabamba,Alimentos,Mercado movil-GAM Colcapirhua,Libertador Bolivar,null,-17.393291,-66.236219,web
Cochabamba,Alimentos,Mercado movil-GAM Colcapirhua,Sumumpaya central,null,-17.393740,-66.230906,web
Cochabamba,Alimentos,Mercado movil-GAM Colcapirhua,Senac,null,-17.384059,-66.229198,web
Cochabamba,Alimentos,Mercado movil-GAM Colcapirhua,Emergencia Norte,null,null,null,web
Cochabamba,Alimentos,Mercado movil-GAM Colcapirhua,21 de Septiembre,null,-17.398154,-66.249711,web
Cochabamba,Alimentos,Mercado movil-GAM Colcapirhua,Colcapirhua Sud,null,-17.393669,-66.242884,web
Cochabamba,Alimentos,Mercado movil-GAM Colcapirhua,Calamina,null,null,null,web
Cochabamba,Alimentos,Mercado movil-GAM Colcapirhua,Sindicato Agrario Esquilan Grande,null,-17.409106,-66.244881,web
Cochabamba,Alimentos,Bolivia´s Fruit Ltda,"Calle Angélica Ascuí #500, Zona Mayorazgo","44509024 -
69477833",null,null,web
Cochabamba,Alimentos,PiccaDely,Pasaje Márquez #33,"4065206 -
72706252",null,null,web
Cochabamba,Alimentos,Daxen vital,Puntiti calle s/n cond. horizonte,"60771999 -
60771999",null,null,web
Cochabamba,Alimentos,GALLETOSAS,Calle Chipaya Nro 1760 Cond Palermo 1 Casa 5,"4420030 -
70342248",null,null,web
Cochabamba,Alimentos,Frutas,Av. Decima y calle8( altura km6 a sacaba),"72272646 -
72701462",null,null,web
Cochabamba,Alimentos,Hernan Molina Huanca,Zona sud. Barrio Don Bosco pasaje Buena Ventura.,"63992606 -
71419185",null,null,web
Cochabamba,Alimentos,ANTONIO LOPEZ RODRIGUEZ,Calle Bolivar entre Ayacucho y Colon - Sacaba,"4708052 -
72651661",null,null,web
Cochabamba,Alimentos,Automercados SRL,Av. América esq. Eudoro Galindo,"4287811 -
70377717",null,null,web
Cochabamba,Alimentos,Granja Ecologica Polen y Cerveca Artesanal Legria,Calle lindero s/n apote,"68514088 -
68514088",null,null,web
Cochabamba,Alimentos,Salteñitas,Calla Villarroel N20 Pacata Baja,"79340103 -
79340103",null,null,web
Cochabamba,Alimentos,PROCESADORA ANDIna DE PAPA S.R.L.,Av Hernan Cosio #111,"4319131 -
77448600",null,null,web
Cochabamba,Alimentos,Micromercado SLA,Av. America Esq. Calle Tarija,"4283779 - 69448010 -
72220717",null,null,web
Cochabamba,Alimentos,DHISMAR ROMERO,C. Camilo Torres entre Lutherking y Derechos Humanos,"4763095 -
67572587",null,null,web
Cochabamba,Alimentos,Karina Huanca,Av. Perú,"71433507 -
71433507",null,null,web
Cochabamba,Alimentos,AlquimiA,C/ La Merced 1668,"77933315 -
77933315",null,null,web
Cochabamba,Alimentos,Kalo's restaurante,Agustín López #1034 entre punata y Tarata,"4554291 -
60776470",null,null,web
Cochabamba,Alimentos,INDABOL S.R.L.,AV. CAPITÁN VICTOR USTARIZ # 3695 ZOna BILLA BUSCH,"4141149 -
74162464",null,null,web
Cochabamba,Alimentos,Tropical Chicken,Av. Melchor Urquidi entre Av. America y Calle Buenos Aires,"76400393 -
76400393",null,null,web
Cochabamba,Alimentos,Organic Club,Av. America esq Juan de La Rosa,"75958772 -
75958772",null,null,web
Cochabamba,Alimentos,Raíz Alfajores Artesanales,C. Chipaya casi Av. América oeste,"4422356 -
73788840",null,null,web
Cochabamba,Alimentos,DULCE PASTEL,"Av. B. Galindo km 3,5","4020141 -
70775979",null,null,web
Cochabamba,Alimentos,Marquez de la Viña Gourmet,Calle Aniceto Padilla No 530 entre Plaza de Recoleta y Potosí,"4260587 -
70727879",null,null,web
Cochabamba,Alimentos,Industrias Meylin,C. Niceto ROdriguez nro.418,"4421109-4018340 -
76405692",null,null,web
Cochabamba,Alimentos,WM&C SRL,"Av. Andina Esq. 21 Enero, Zona Sumumpaya Norte","4510508 - 4223372 -
72201952",null,null,web
Cochabamba,Alimentos,RIKINIS - ALIMENTOS naTURALES,"Sacaba Calle Sucre #0283, entre calles Independencia y Perú","74351188 -
79347994",null,null,web
Cochabamba,Alimentos,Enjoy Life,Calle bibosi,"4799067 -
79711152",null,null,web
Cochabamba,Alimentos,Apícola JH productos y servicios,"Tiquipaya, c/ Cochabamba y Sucre","72403133 -
68382493",null,null,web
Cochabamba,Alimentos,BloCQ Panaderia Artesanal,"A.Villavicencio, Cochabamba, Bolivia","4799722-69497888 -
75947671",null,null,web
Cochabamba,Alimentos,GLENDCY,Km.12 sud Urbanización Urkupiña,"69529294 -
69529294",null,null,web
Cochabamba,Alimentos,ACERLIFE,Av.Blanco Galindo Km 4 1/2,"68582875 -
70730170",null,null,web
Cochabamba,Alimentos,Coronilla S.A.,Av. Villazon N 3847,"4717193 -
77999168",null,null,web
Cochabamba,Alimentos,Gran Quncha,Calle Chacarera esq Chovena,"4226242 -
69433434",null,null,web
Cochabamba,Alimentos,Panadería Zahína,Av. Perú lado mercado Ingavi.,"4282542 -
79969623",null,null,web
Cochabamba,Alimentos,Cepas de Camargo,Av Circunvalación Pacata baja,"62609029 -
62609029",null,null,web
Cochabamba,Alimentos,Daadsmarket,Melchor urquidi,"69418282 -
69418224",null,null,web
Cochabamba,Alimentos,CAOS SRL,"Pje Innominado, colcapirhua","76455328 -
76455328",null,null,web
Cochabamba,Alimentos,Frutijugo,Calle Kapac Yupanqui # 2417,"70345915 -
70345915",null,null,web
Cochabamba,Alimentos,Proveedora de Alimentos Tu Amigo Pil,Avenida 6 de Agosto # 529 entre Av. Del Cabildo y C/ General Diaz Zona Jaihuayco,"65660068 -
70650286",null,null,web
Cochabamba,Alimentos,Masa Madre - Panadería Artesanal,Calle Chimpu Ojjllu # 1549 (Paralela a la Simon Lopez),"70767370 -
79751390",null,null,web
Cochabamba,Alimentos,Llajteña,"Av. Chapare kilómetro 3, frente a la urb. El castillo","75485748 -
75485748",null,null,web
Cochabamba,Alimentos,Empresa Productora de Bebidas y Alimentos BENDATI,C/Homer 3663,"4470459 -
76960267",null,null,web
Cochabamba,Alimentos,"JR Distribución, distribución de alimentos y bebidas",Av. Circunvalación y Av. Pachacutek,"76442760 -
76442760",null,null,web
Cochabamba,Alimentos,EcoPura,Teniente Arevalo 116,"4527932 -
72748678",null,null,web
Cochabamba,Alimentos,Productos Ecológicos naturaleza S.A (Frutte),Calle Melchor Urquidi entre Ciclovia y América. a media cuadra del sombrero de chola,"65360900 -
65172111",null,null,web
Cochabamba,Alimentos,BRASA VIVA STEAK HOUSE,Av. Melchor Urquide 1314 lojia 14 entre Av. América y Calle Buenos Aires.,"67429955 -
67429955",null,null,web
Cochabamba,Alimentos,BOLHISPANIA S.A.,Federico Blanco 831 entre Oquendo y 16 de Julio,"4 4563011 -
63909202",null,null,web
Cochabamba,Alimentos,Frigourmeat,Daniel Campos n 21,"44282519 -
77457749",null,null,web
Cochabamba,Alimentos,Avícola Jars,Av Blanco Galindo Km 9.8,"4262355 -
72284743",null,null,web
Cochabamba,Alimentos,Productos pipetua,Calle Calixto peñaloza zona cementerio quillacollo,"4305156 -
77426064",null,null,web
Cochabamba,Alimentos,Agua de mesa Fresca,Av. Gabriel Rene Moreno 1040,"4793131 -
67498333",null,null,web
Cochabamba,Alimentos,Gate Gourmet Catering Bolivia S.A.,Calle teniente monasterios S/N,"79799919 -
79799919",null,null,web
Cochabamba,Alimentos,Delia Vasquez,Sacaba -Huayllani,"67409940 -
67409940",null,null,web
Cochabamba,Alimentos,SaWaLife srl,William Shakespeare esq. Jack london,"73793491 -
73793491",null,null,web
Cochabamba,Alimentos,GRUPO INDUSTRIAL SAXSAY,calle kollasuyu # 283 zona cala cala,"4790401 -
77215394",null,null,web
Cochabamba,Alimentos,Vinoteca V&P,Potosi1455,"77491038 -
77491038",null,null,web
Cochabamba,Alimentos,FitBar #PowerFIT,"Antezana # 945, entre Ramon Rivero y Oruro","4401174 -
76909940",null,null,web
Cochabamba,Alimentos,"Productos Ecologicos naturaleza S.A ""FRUTTE""",Calle Melchor Urquidi entre Ciclovia y América. a media cuadra del sombrero de chola,"65360900 -
65172111",null,null,web
Cochabamba,Alimentos,Authentic Light,Pacata Alta - Barrio 10 de Diciembre,"77499069 -
77499069",null,null,web
Cochabamba,Alimentos,"""La Escarola"" fast-good",Parque Lincoln y calle Illapa,"79729991 -
79729991",null,null,web
Cochabamba,Alimentos,Procesadora de Alimentos Valpergutor S.R.L.,Calle Runasimi 2113,"4242188 -
72222923",null,null,web
Cochabamba,Alimentos,Auto///Market,Calle Buenos Aires # 5,"75480090 -
75480090",null,null,web
Cochabamba,Alimentos,Karin López,Av. aroma 838 entre c. 16 de Julio y Av. Oquendo.,"4558406 -
70769100",null,null,web
Cochabamba,Alimentos,Carolina Bustamante Vargas,Calle Juan Capriles S/N casi Pantaleón Dalence,"4252152 -
69451001",null,null,web
Cochabamba,Alimentos,Niawa Alimentos,Su sano Azogue 2960,"75466211 -
70712661",null,null,web
Cochabamba,Alimentos,AGUA Y HIELO CHACALTAYA,J.A. RICO TORO N° 871 PANDO Y MELCHOR URQUIDI,"4200434 - 4123456 - 4243434 -
70718084",null,null,web
Cochabamba,Alimentos,De La Selva LTDA,"Carretera a sacaba km 3,5","4719923 -
71733666",null,null,web
Cochabamba,Alimentos,Dulces Momentos JaDaSha,Camino a Sacaba km 7.5 sobre la circunvalación y calle sarao,"76464237 -
76464237",null,null,web
Cochabamba,Alimentos,"DISTRIBUIDORA DE POLLOS ""RTR""",C/Gardenias #111,"75007329 -
75007329",null,null,web
Cochabamba,Alimentos,Goodman Friendly Market,Calle Tomás Frias y Pedro Blanco. En plena esquina.,"78365315 -
77956151",null,null,web
Cochabamba,Alimentos,Pastas Todo Listo,"España 491, casi Mexico","4224150 -
72717338",null,null,web
Cochabamba,Alimentos,GRUPO INDUSTRIAL SAXSAY,calle kollasuyu # 283 zona cala cala,"4790401 -
77215394",null,null,web
Cochabamba,Alimentos,Industria Alimenticia Lazzo,c. José Quintín Mendoza 1668. Entre Lucas Mendoza y Alcides Arguedas,"4281112 -
67400164",null,null,web
Cochabamba,Alimentos,Chocolates Baure y El Ceibo Cochabamba,Av. Ayacucho 282 casi eq. Santivañez,"4234981 -
72205089",null,null,web
Cochabamba,Alimentos,Frutas & Verduras,Av circunvalación y calle Sumaj Llajta,"4883108 -
76457624",null,null,web
Cochabamba,Alimentos,INDUSTRIAS AQUACORP,Calle Chicopaya s/n Zona sud,"4245055 -
78360300",null,null,web
Cochabamba,Alimentos,Rocío Rodríguez amurrio,Avenida circunvalación esquina Sumaj llajta,"4883108 -
76414593",null,null,web
Cochabamba,Alimentos,Provlop,Av. Vllazon km 3 sobre la avenida Chapare esquina Perú. Plena esquina,"69444399 -
69444399",null,null,web
Cochabamba,Alimentos,Aydee Gabriela Villca Huayta,Calle PunataN74,"77435934 -
77435934",null,null,web
Cochabamba,Alimentos,Jose Ramiro Nogales Flores Agua Vertiente,Calle Buganvilias 1479 sauces y palmeras,"4797733 - 34 -35 72225561 -
72745363",null,null,web
Cochabamba,Alimentos,Agencia de lácteos cruce taquiñ,Avenida Simón López y cruce taquiña,"65506690 -
65506690",null,null,web
Cochabamba,Alimentos,Agua purificada de mesa las nubes,Av. Innominada s/n esq. Innominada,"79794407 -
79794407",null,null,web
Cochabamba,Alimentos,Agua Purificada Génesis,Av. República # 825 zona central Sud,"4553463 -
76454066",null,null,web
Cochabamba,Alimentos,INBOLCER SRL,Av. Andina s/n esquina Av. 21 de enero,"4223372 -
72201952",null,null,web
Cochabamba,Alimentos,natural Life,Quillacollo zona central,"70343918 -
70343917",null,null,web
Cochabamba,Alimentos,Activa tu Sistema inmunológico,Urpi,"75957601 -
75957601",null,null,web
Cochabamba,Alimentos,Agua purificada de mesa Fresca,Av. Gabriel Rene Moreno 1040,"4793131 -
67498333",null,null,web
Cochabamba,Alimentos,CAPRA SRL,Calle En rique Salnas 521,"4540488 -
71721835",null,null,web
Cochabamba,Alimentos,Aguas del eden,Av. Teofilo vargas #759,"4405776 -
67425050",null,null,web
Cochabamba,Alimentos,Parlawi cafe & lab,Avenida peru 0460,"71428523 -
71428523",null,null,web
Cochabamba,Alimentos,Sra. Magui( frutera),Av. Decima y calle8( altura km6 a sacaba),"72272646 -
72701462",null,null,web
Cochabamba,Alimentos,Marcelo Castelo Quiroga,"Avenida Miguel Mercado, Vinto","4358638 -
79788568",null,null,web
Cochabamba,Alimentos,IMBA S.A.,AV. SEGUNDA SN ENTRE ARQUÍMEDES Y ALEXANDER FLEMING,"4434500 -
74162475",null,null,web
Cochabamba,Alimentos,Industria Boliviana de Cereales SRL,"Av. Andina S/N. Esq. 21 Enero, Zuna Sumumpaya Norte","4510508 - 4223372 -
61678665",null,null,web
Cochabamba,Alimentos,Dimadetar SRL,Av Blanco Galindo km 6,"4485043 -
75010187",null,null,web
Cochabamba,Alimentos,Aguas Del Nilo,c/Tocopilla Esq. Casto Rojas Nro 1401,"4433175 -
78329878",null,null,web
Cochabamba,Alimentos,Innovando Tecnologías,Junín 324,"+59167743837 -
67743837",null,null,web
Cochabamba,Alimentos,APAJ (ASOCIACION DE PRODUCTORES AGRICOLAS JUVENIL),Rio Blanco. Km 258 carretera Cochabamba- Santa Cruz,"67503790 -
67503790",null,null,web
Cochabamba,Alimentos,Jukur Alimentos,Calle Chimpu Ojjllu #1549 (Paralela a la Simon Lopez),"70767370 -
79751390",null,null,web
Cochabamba,Alimentos,Dxn Cochabamba,Calle Lanza entre Venezuela y Ecuador edificio ceflor#317,"44234409 -
77488838",null,null,web
Cochabamba,Alimentos,GRUPO DUO SRL / mandarina,"Av. Pando pasaje portales, entrando frente al Hupermall","4798613 -
77900019",null,null,web
Cochabamba,Alimentos,"Industria de alimentos piñami srl, productos VIGOR","Calle sucre #492, esq. Av. San Martín","44501017 -
76402354",null,null,web
Cochabamba,Alimentos,Criollita,c/ Pedro Blanco 351,"4242616 -
78311988",null,null,web
Cochabamba,Alimentos,Lácteos Moo,Rafael Méndez,"63827201 -
72708760",null,null,web
Cochabamba,Alimentos,"REFRIGERIOS&SnaCK'S ""MI DULZURA""",Pasaje La Tablada#1378 y Portales,"79957090 -
79957090",null,null,web
Cochabamba,Alimentos,Comercial lizvania,"República, antezana honduras","76452699 -
76452699",null,null,web
Cochabamba,Alimentos,CAPRESSO S.R.L.,Av. Salamanca 860,"79966266 -
79966266",null,null,web
Cochabamba,Alimentos,AQUAVIP,C.Camilo Torres s/n,"4763095 -
67572587",null,null,web
Cochabamba,Alimentos,Dxn vital,Calle Francisco Viedma #263,"60771999 -
70342954",null,null,web
Cochabamba,Alimentos,Helados FRAGOLA,"Av America O-989, casi Gabriel Rene Moreno y Manchaypuito","4121010 -
72235555",null,null,web
Cochabamba,Alimentos,Bolivian Beer Company - Cerveza Candelaria,Calle Julián de Los Ríos N°1948 - Zona Tupuraya,"69413000 -
69413000",null,null,web
Cochabamba,Alimentos,Agua Purificada Génesis,Av. República # 825,"4553463 -
76454066",null,null,web
Cochabamba,Alimentos,Apthapi,Juan capriles #170 entre Libertador Bolívar y tupac amaru,"67426557 -
67426557",null,null,web
Cochabamba,Alimentos,IOGO Yogurt Griego,Av. Heroínas 531casi Falsuri,"72220255 -
72150000",null,null,web
Cochabamba,Alimentos,Frial PigShop,Av. Melchor Pérez de Olguín 1084 entre parque ex combatientes casi pasaje zoológico,"4439045 -
70750787",null,null,web
Cochabamba,Alimentos,GRAN HOTEL COCHABAMBA,Plazuela Ubaldo Anze Recoleta,"4480520 -
77491416",null,null,web
Cochabamba,Alimentos,naTUREZA SRL,Pje. La Chaime #6,"4470476 4453531 -
70700891",null,null,web
Cochabamba,Alimentos,GENEVA SRL,Av Ballivian Esquina Oruro,"4567758 -
72220023",null,null,web
Cochabamba,Alimentos,Pescadería surubi,Heroínas esquina belzu,"4534669 -
60372311",null,null,web
Cochabamba,Alimentos,FABOPAL S.A.,Av. oquendo N°1080,"4117044 -
70370757",null,null,web
Cochabamba,Alimentos,Industria de alimentos el tonel,Av. Chilimarca # 394,"4311542 -
70771112",null,null,web
Cochabamba,Alimentos,SOYRICA,CALLE ULUNCHU. CONDOMINIO SAN SILVESTRE IV,"XXXX -
71772044",null,null,web
Cochabamba,Alimentos,Alaska SRL,Calle tito yupanqui,"4374473 -
69512713",null,null,web
Cochabamba,Alimentos,Pescaderia surubi,Avenida chapare zona chacacollo,"4660421 -
79356623",null,null,web
Cochabamba,Alimentos,Herbalife,Zona temporal,"73320150 -
73320150",null,null,web
Cochabamba,Alimentos,Micromercado RAMOS,Av. Petrolera Km9,"4764003 -
70719607",null,null,web
Cochabamba,Alimentos,Alnat industrias alimenticias,Av siles,"77993385 -
77993385",null,null,web
Cochabamba,Alimentos,La Estancia S.R.L.,Pasaje Boulevard o Av. Uyuni,"4249262 -
77433340",null,null,web
Cochabamba,Alimentos,La Bodega,Av. Centenario media cuadra al sur de la circunvalacion (Zona Cruce taquiña),"60781631 -
60781631",null,null,web
Cochabamba,Alimentos,Sain sin gluten,"Colombia Nro 524, entre San Martin y Lanza, frente a la entrada al pasaje San Rafael, acerca sud","62622010 -
68450550",null,null,web
Cochabamba,Alimentos,AQUAPURA,Calle joaquin salcedo s/n,"71496981 -
67407771",null,null,web
Cochabamba,Alimentos,GreenMama,Juan Capriles casi esquina tupac Amaru. Edificio kantuta,"70724413 -
70724413",null,null,web
Cochabamba,Alimentos,Casa Venturini,"Localidad de Pihusi, Apote","71522782 -
71522782",null,null,web
Cochabamba,Alimentos,PAnaDERIA Y REPOSTERIA HORNERITO,Calle Sucre entre Antezana y 16 de Julio acera sud nro 730,"4500612 -
60398157",null,null,web
Cochabamba,Gas,YPFB: entregas de gas a domicilio,NA,null,null,null,web
Cochabamba,HigienePersonal,Pañales de adulto mayor,Villa Busch,72251879 - 4282898,-17.392684,-66.199639,web
Oruro,Movilidad,Radio Taxi de la V,NA,67205906,null,null,web
Oruro,Movilidad,Radio Taxi la pirámide,NA,5254444,null,null,web
Oruro,Movilidad,Radio Taxi el Faro,NA,5273399,null,null,web
Oruro,Movilidad,Radio movil SAS Oruro,NA,5219999,null,null,web
Oruro,Movilidad,Radio Móvil tu piloto,NA,5266166,null,null,web
Oruro,Movilidad,Radio Movil Tours Forever,NA,8421114,null,null,web
Pando,Movilidad,Servicio Urbano Radio Taxi,NA,8421588,null,null,web
Pando,Movilidad,Expreso departamental,NA,null,null,null,web
Beni,Movilidad,Radio Movil Vial Trinidad,NA,null,null,null,web
Beni,Movilidad,Radio Taxi German Busch,NA,null,null,null,web
Cochabamba,Movilidad,Radio Taxi Jardín,Av. General Galindo,4241111,null,null,web
Cochabamba,Movilidad,Radio Taxi H,Calle Potosí,4455120,-17.371774,-66.150484,web
Cochabamba,Movilidad,Radio Movil HOLIDAY KANTUTA,Felix Lopez de la Vega,4293777,-17.361546,-66.160843,web
Cochabamba,Movilidad,Cochabamba,Oeste,65366001,null,null,web
Cochabamba,Movilidad,Radio Movil Aranjuez,Av. Thunupa,4241212,-17.376329,-66.187595,web
Cochabamba,Movilidad,Radio Taxi Ejecutivo,"Av. 9 de abril, Cochabamba",4225050,-17.397834,-66.137910,web
Cochabamba,Movilidad,Radio Movil Incacollo,Av. Papa Paulo,4200355,-17.385807,-66.141854,web
Cochabamba,Movilidad,Verdecio,Av. Tadeo Haenke. no. 1450,4280000,-17.384349,-66.168059,web
Cochabamba,Movilidad,PERZEO,NA,76991360,-17.367135,-66.133661,web
Cochabamba,Movilidad,Taxi Ciudad Digital,NA,61782828,-17.365238,-66.161960,web
Cochabamba,Movilidad,Movil,Manuel Marin no. 1021,4200520,null,null,web
La Paz,Gas,YPFB,Av. Gral Ballivian esq. Muñoz Reyes No. 80 Zona Calacoto,800106006 - 72072300,-16.539065,-68.075553,web
La Paz,Gas,YPFB,"Av. 20 de Octubre esq. Machicado No. 434, Zona San Pedro",800106007 - 72072300,-16.504065,-68.133668,web
La Paz,Gas,YPFB,"Av. Entre Ríos esq. Ayata No. 1349, Zona el Tejar",800106008 - 72072300,-16.498887,-68.152085,web
Oruro,Gas,YPFB,Av. 6 de Octubre esq. Héroes del Chaco,800106009 - 72072300,null,null,web
Santa Cruz,Gas,YPFB,Carretera SC-CBBA Km 3 1/2 Zona Cuarto Anillo,800106010 - 72072300,null,null,web
Santa Cruz,Gas,YPFB,Av. Grigotá Uv. 0029 Dist: 5 Mza 0043 Sec. 3,800106011 - 72072300,null,null,web
Santa Cruz,Gas,YPFB,Av. Brasil s/n Zona Central,800106012 - 72072300,null,null,web
Santa Cruz,Gas,YPFB,Av. Mariscal Sucre s/n Zona Central,800106013 - 72072300,null,null,web
Cochabamba,Gas,YPFB,Av. Simón López entre M. Pérez de Holguín G.R. Moreno No. 0 Zona/Barrio Cala Cala,800106014 - 72072300,null,null,web
Cochabamba,Gas,YPFB,Av. Petrolera km 5 1/2 Zona Valle Hermoso,800106015 - 72072300,null,null,web
Cochabamba,Gas,YPFB,Av. América esq. Pachamama  No. s/n Barrio Cala Cala,800106016 - 72072300,-17.371740,-66.173618,web
Cochabamba,Gas,YPFB,Carretera Cbba-Sta Cruz nro. s/n Zona Villa Tunari,800106017 - 72072300,null,null,web
Cochabamba,Gas,YPFB,"Carretera Cochabamba - Santa Cruz km. 221 Zona/Barrio Central, PT, Villarroel",800106018 - 72072300,null,null,web
Tarija,Gas,YPFB,"Av. Panamericana, Zona Luis Pizarro",800106019 - 72072300,null,null,web
Tarija,Gas,YPFB,"Av. Panamericana, Zona Morros Blancos",800106020 - 72072300,null,null,web
Tarija,Gas,YPFB,Av. San Martín esq. Jacinto Delfín,800106021 - 72072300,null,null,web
Tarija,Gas,YPFB,Calle Avaroa esq. Chuquisaca,800106022 - 72072300,null,null,web
Tarija,Gas,YPFB,Av. Petrolera s/n Carretera a Tarija,800106023 - 72072300,null,null,web
Tarija,Gas,YPFB,Carretera Tarija -Yacuiba Zona El Común,800106024 - 72072300,null,null,web
Tarija,Gas,YPFB,Carretera a Bermejo Localidad el Padcaya,800106025 - 72072300,null,null,web
Chuquisaca,Gas,YPFB,"Av. Ostria Gutierrez, esq. nataniel Aguirre",800106026 - 72072300,-19.039644,-65.249234,web
Chuquisaca,Gas,YPFB,Av. Héroes de la Calancha s/n Salida a Potosí,800106027 - 72072300,null,null,web
Chuquisaca,Gas,YPFB,Av. Piraimiri. s/n Final,800106028 - 72072300,null,null,web
Chuquisaca,Gas,YPFB,"Monteagudo, Zona Zapallar, Salida a Camiri",800106029 - 72072300,null,null,web
Potosí,Gas,YPFB,Av. Cívica esq. Calle Serrudo s/n,800106030 - 72072300,-19.583858,-65.755807,web
Potosí,Gas,YPFB,Av. Antofagasta s/n,800106031 - 72072300,null,null,web
Potosí,Gas,YPFB,Av. Chorrillos s/n Carretera Sucre-Potosí,800106032 - 72072300,null,null,web
Pando,Gas,YPFB,Av. Internacional No. 55-2 Zona Central,800106033 - 72072300,null,null,web
Pando,Gas,YPFB,Av. Alberto Saens No. S/n Barrio San Juan,800106034 - 72072300,null,null,web
Beni,Gas,YPFB,"Av. Pedro Ignacio Muiba, Circunvalación Sur s/n Barrio Pompeya",800106035 - 72072300,null,null,web
Beni,Gas,YPFB,"Calle Juan Adad, s/n. Barrio Belén",800106036 - 72072300,null,null,web
Beni,Gas,YPFB,Av. Federico Román s/n Zona Central,800106037 - 72072300,null,null,web
Beni,ServiciosFinancieros,BANCO UNION,CALLE BALLIVIAN SN,null,null,null,web
Beni,ServiciosFinancieros,BANCO UNION,CFEDERICO ROMAN FRENTE PLAZA PRINCIPAL GERMAN,null,null,null,web
Beni,ServiciosFinancieros,BANCO UNION,Calle Luis Suarez esq. nataniel Garcia,null,null,null,web
Beni,ServiciosFinancieros,BANCO UNION,CALLE SUCRE ESQ. 18 DE NOVIEMBRE,null,null,null,web
Beni,ServiciosFinancieros,BANCO UNION,INTERSECCION DE LAS C/JUAN DE DIOS MARTINEZ Y MED,null,null,null,web
Beni,ServiciosFinancieros,CIDRE IFD,AV. NICOLAS SUAREZ N 481 CASI ESQUIna MEDARDO CHA,null,null,null,web
Beni,ServiciosFinancieros,COOP.LA MERCED,Av.Nicolas Suarez esq placido mendez frente a la,null,null,null,web
Beni,ServiciosFinancieros,IDEPRO,AV. MAXIMO HENICKEN S/N. RIBERALTA,null,null,null,web
Beni,ServiciosFinancieros,PRO-MUJER,Av. Placido Mendez y Gabriel Rene Moreno,null,null,null,web
Beni,ServiciosFinancieros,BANCO UNION,AV. COMERCIO ENTRE CALLE VACA DIEZ Y SANTA CRUZ,null,null,null,web
Beni,ServiciosFinancieros,DIACONIA,Calle Bolivar Nro . 32,null,null,null,web
Beni,ServiciosFinancieros,BANCO UNION,C/LA PAZ MEDIA CUADRA DEL LADO SUR DE LA PLAZA 10,null,null,null,web
Beni,ServiciosFinancieros,CACTRI,PLAZA PRINCIPAL ACERA NORTE,null,null,null,web
Beni,ServiciosFinancieros,DIACONIA,C/ ANTOFAGASTA ENTRE SUCRE Y TARIJA S/N,null,null,null,web
Beni,ServiciosFinancieros,BANCO UNION,C Santisteban S frente plaza principal 31 de Julio,null,null,null,web
Beni,ServiciosFinancieros,BANCO UNION,Av.Padre Alfonso Elorriaga entre 18deNoviembre y,null,null,null,web
Beni,ServiciosFinancieros,BANCO UNION,CALLE 18 DE NOVIEMBRE,null,null,null,web
Beni,ServiciosFinancieros,BANCO UNION,C/MANUELITA SUAREZ Y PLAZA BALCAZAR ESPINOZA,null,null,null,web
Beni,ServiciosFinancieros,BANCO UNION,Calle German Busch Esquina Beni,null,null,null,web
Beni,ServiciosFinancieros,BANCO ECOFUTURO,C. Manuel Limpias No. 76,null,-14.834604,-64.901653,web
Beni,ServiciosFinancieros,BANCO PRODEM,Calle Antonio Vaca Diez,null,-14.834422,-64.904802,web
Beni,ServiciosFinancieros,BANCO UNION,Av. Cipriano Baracé # 604,null,null,null,web
Beni,ServiciosFinancieros,BANCO UNION,Av. Bolivar Esquina Alberto Reyes,null,-14.830536,-64.895310,web
Beni,ServiciosFinancieros,CACTRI,C. COCHABAMBA No. 100,null,null,null,web
Beni,ServiciosFinancieros,CRECER IFD,Calle Joaquin de Sierra esq. Mamore,null,-14.837849,-64.903807,web
Beni,ServiciosFinancieros,DIACONIA,"C. Torope SN, entre calle Hernan Velarde Rojas",null,null,null,web
Beni,ServiciosFinancieros,LA PROMOTORA,AV. GERMAN BUSCH No. 65,null,null,null,web
Beni,ServiciosFinancieros,PRO-MUJER,"CALLE RAUL MONJE ROCA #48,MEDIA CUADRA AV.BOLIVAR",null,null,null,web
Beni,ServiciosFinancieros,BANCO PRODEM,Carretera a Rurrenabaque sn frente a mercado san,null,null,null,web
Beni,ServiciosFinancieros,BANCO UNION,AV. RUREnaBAQUE S,null,null,null,web
Beni,ServiciosFinancieros,DIACONIA,Carretera Principal A Rurrenabaque s/n,null,null,null,web
Cochabamba,ServiciosFinancieros,COOP.SAN PEDRO DE AIQUILE,"Calle Sucre, entre Arevalo y Heroes del Chaco",null,null,null,web
Cochabamba,ServiciosFinancieros,COOP.SAN CARLOS BORROMEO,Frente Plaza Principal 12 de Octubre,null,null,null,web
Cochabamba,ServiciosFinancieros,COOP.SAN CARLOS BORROMEO,Calle Obispo La Fuente N.56,null,null,null,web
Cochabamba,ServiciosFinancieros,COOP.LA CANTERA,Plaza 24 de Septiembre acera Norte s.n,null,null,null,web
Cochabamba,ServiciosFinancieros,FUBODE,Plaza Principal acera Sud sn lado H.A.M. de Capin,null,null,null,web
Cochabamba,ServiciosFinancieros,CIDRE IFD,Avenida Panamericana S y Manzanitos,null,null,null,web
Cochabamba,ServiciosFinancieros,BANCO FASSIL,Calle nataniel Aguirre esq. Calama,null,-17.396549,-66.157043,web
Cochabamba,ServiciosFinancieros,BANCO FORTALEZA,"Av.Ballivian No.739, entre calles Teniente Ar‚val",null,null,null,web
Cochabamba,ServiciosFinancieros,BANCO PRODEM,c/Calama entre Ayacucho y nataniel Aguirre No.164,null,-17.396624,-66.157418,web
Cochabamba,ServiciosFinancieros,BANCO UNION,"Calle 25 de Mayo, esquina Sucre Nø 0385",null,-17.394045,-66.155254,web
Cochabamba,ServiciosFinancieros,BANCO UNION,Plaza Sucre entre Pasteur y Aurelio Melean N.1033,null,-17.391764,-66.148338,web
Cochabamba,ServiciosFinancieros,C.A.C. ASUNCION,C 25 DE MAYO N.818 ENTRE AV. AROMA Y BRAZIL,null,null,null,web
Cochabamba,ServiciosFinancieros,CACEF LTDA,Av.Ayacucho N.331,null,-17.390373,-66.159323,web
Cochabamba,ServiciosFinancieros,CIDRE IFD,Av. Capitan Ustariz Nro. 2003,null,-17.396415,-66.179082,web
Cochabamba,ServiciosFinancieros,CIDRE IFD,Calle Juan de La Cruz Torrez N.1674,null,null,null,web
Cochabamba,ServiciosFinancieros,COOP. COMARAPA LTDA.,Av. Republica Nro. 1947 esq. Av. 6 de agosto,null,-17.410556,-66.150875,web
Cochabamba,ServiciosFinancieros,COOP. EMPETROL,C/LANZA No. 548 ENTRE SALAMANCA Y PACCIERI,null,-17.386995,-66.154446,web
Cochabamba,ServiciosFinancieros,COOP. PIO X,Av. Mancokapac No.924,null,-17.402672,-66.166822,web
Cochabamba,ServiciosFinancieros,COOP. SAN ANTONIO,Av.Libertador N.1567 casi Av.America,null,-17.372510,-66.163388,web
Cochabamba,ServiciosFinancieros,COOP. SAN MARTIN DE PORRES,Av. Ayacucho N.290 Esq.Santivanez,null,-17.394598,-66.158511,web
Cochabamba,ServiciosFinancieros,COOP. CRISTO REY,Av. Peru Nro. 593,null,null,null,web
Cochabamba,ServiciosFinancieros,COOP. LOYOLA LTDA.,Antezana No. S-0397 Esq. Jordan,null,-17.394506,-66.151763,web
Cochabamba,ServiciosFinancieros,COOP. SAN CARLOS BORROMEO,Av.Republica N.1644 entre Calle Guayaramerin y Av,null,-17.407501,-66.150866,web
Cochabamba,ServiciosFinancieros,COOP. SAN JOAQUIN LTDA.,AV. VICTOR USTARIZ No.3119 ESQ. POnaNSKI,null,null,null,web
Cochabamba,ServiciosFinancieros,COOP. SAN JOAQUIN LTDA.,"AV. CIRCUNVALACION N.889, ESQUIna AV. CALAMPAMPA",null,-17.360869,-66.170668,web
Cochabamba,ServiciosFinancieros,COOP. SAN JOAQUIN LTDA.,AV. DE LA PATRIA NO.1961,null,-17.413206,-66.164108,web
Cochabamba,ServiciosFinancieros,COOP. SARCO,AV. AMERICA OESTE Nro. 1386,null,-17.371367,-66.176941,web
Cochabamba,ServiciosFinancieros,COOP. TUKUYPAJ,Av. Simon Lopez N.2685 entre Ma.Ballivian y Humbe,null,-17.355340,-66.187019,web
Cochabamba,ServiciosFinancieros,DIACONIA,Av. Republica Nro. 1185,null,-17.407514,-66.150866,web
Cochabamba,ServiciosFinancieros,FUBODE,C/ANTEZAna 216 ENTRE ECUADOR Y COLOMBIA,null,null,null,web
Cochabamba,ServiciosFinancieros,FUBODE,AV. PAnaMERICAna 2806,null,-17.422705,-66.158300,web
Cochabamba,ServiciosFinancieros,HOSPICIO,AV. BEIJING NRO.285 ESQ. IDELFONSO,null,null,null,web
Cochabamba,ServiciosFinancieros,HOSPICIO,c/25 de Mayo entre Colombia y Ecuador,null,-17.390229,-66.156098,web
Cochabamba,ServiciosFinancieros,LA PROMOTORA,c/Espana esq. Heroinas No.0111,null,-17.392341,-66.156580,web
Cochabamba,ServiciosFinancieros,SEMBRAR SARTAWI,AV. BLANCO GALINDO N.1158 ENTRE AV. PERU Y S. ALB,null,null,null,web
Cochabamba,ServiciosFinancieros,CIDRE IFD,C. MAN CESPED S.N. KM. 49 CARRETERA CBBA STA. CRU,null,null,null,web
Cochabamba,ServiciosFinancieros,BANCO UNION,Calle Eduardo Avaroa s esq. Bolívar (Plaza Princip,null,null,null,web
Cochabamba,ServiciosFinancieros,CIDRE IFD,"CARRETERA PRINCIPAL A SCZ Km. 271,ACERA NORTE",null,null,null,web
Cochabamba,ServiciosFinancieros,COOP.MAGISTERIO RURAL TARIJA LTDA,Calle Froilan Tejerina y Alianza,null,null,null,web
Cochabamba,ServiciosFinancieros,C.A.C. SAN FRANCISCO DE ASIS LTDA.,PLZ. 6 DE AGOSTO Villa Indep Prov. Ayopaya acera,null,null,null,web
Cochabamba,ServiciosFinancieros,CIDRE IFD,AV. MORTENSSON S.N. PLAZA PRINCIPAL,null,null,null,web
Cochabamba,ServiciosFinancieros,COOP. PIO X,AV. MONTESORI ESQ. LEOnaRDO QUISPE,null,null,null,web
Cochabamba,ServiciosFinancieros,CIDRE IFD,CALLE LITORAL S.N. ENTRE COCHABAMBA Y MORALES,null,null,null,web
Cochabamba,ServiciosFinancieros,SEMBRAR SARTAWI,C. Tapia s.n. Plaza Independencia,null,null,null,web
Cochabamba,ServiciosFinancieros,COOP. COMARAPA LTDA.,Plaza 9 de Mayo esq. Bolivar,null,null,null,web
Cochabamba,ServiciosFinancieros,COOP.SAN PEDRO DE AIQUILE,Plaza 9 de mayo,null,null,null,web
Cochabamba,ServiciosFinancieros,FUBODE,"Calle Andrés María Torrico, Esquina Ingavi",null,-17.543816,-65.837360,web
Cochabamba,ServiciosFinancieros,HOSPICIO,Av Gualberto Villarroel,null,-17.547026,-65.836225,web
Cochabamba,ServiciosFinancieros,SEMBRAR SARTAWI,AV. GUALBERTO VILLARROEL NO.107,null,-17.547412,-65.836254,web
Cochabamba,ServiciosFinancieros,BANCO FORTALEZA,Calle Cochabamba s.n entre Heroes del Acre y Ball,null,-17.396534,-66.280776,web
Cochabamba,ServiciosFinancieros,BANCO UNION,Calle 14 de septiembre #E-138,null,null,null,web
Cochabamba,ServiciosFinancieros,CAC COOPROLE LTDA.,Calle Carmela Serruto casi esq.Av.Santa Cruz,null,-17.393015,-66.282882,web
Cochabamba,ServiciosFinancieros,CIDRE IFD,Av. Albina Pati¤o No.220 entre Av. Sta. Cruz y Co,null,null,null,web
Cochabamba,ServiciosFinancieros,COOP.CRISTO REY,Plaza 27 de mayo,null,null,null,web
Cochabamba,ServiciosFinancieros,HOSPICIO,Plaza Bolivar,null,null,null,web
Cochabamba,ServiciosFinancieros,PRO-MUJER,Av. Blanco Galindo entre 23 de Marzo y Suarez Mir,null,null,null,web
Cochabamba,ServiciosFinancieros,SEMBRAR SARTAWI,CALLE CARMELA SERRUTO N.126 ENTRE W.BALLIVIAN Y S,null,null,null,web
Cochabamba,ServiciosFinancieros,BANCO FORTALEZA,CALLE BOLIVAR Nro. 366 ENTRE AYACUCHO Y COLON,null,-17.403704,-66.038502,web
Cochabamba,ServiciosFinancieros,BANCO UNION,AVENIDA BARRIENTOS ESQUIna MONSE¥OR ALCOCER SN,null,null,null,web
Cochabamba,ServiciosFinancieros,CACEF LTDA,Plaza 06 de Agosto acera Norte,null,-17.403507,-66.040038,web
Cochabamba,ServiciosFinancieros,COOP. PIO X,Calle Junin N.155,null,null,null,web
Cochabamba,ServiciosFinancieros,FUBODE,CALLE BOLIVAR 100 ESQ. COLON,null,-17.404111,-66.038630,web
Cochabamba,ServiciosFinancieros,SEMBRAR SARTAWI,Calle Ingavi N. 614 esq. Calle Bolivar,null,null,null,web
Cochabamba,ServiciosFinancieros,CACEF LTDA,Av. Panamericana esq. Calle Miraflores,null,null,null,web
Cochabamba,ServiciosFinancieros,CACEF LTDA,Plaza 30 de Abril Acera Sud,null,null,null,web
Cochabamba,ServiciosFinancieros,CACEF LTDA,Plaza Principla lado oeste,null,null,null,web
Cochabamba,ServiciosFinancieros,CIDRE IFD,CALLE SANTA CRUZ S ENTRE CALLES VANDIOLA Y COSTAN,null,null,null,web
Cochabamba,ServiciosFinancieros,COOP.CRISTO REY,Plaza Ladislao Cabrera,null,null,null,web
Cochabamba,ServiciosFinancieros,COOP.SAN CARLOS BORROMEO,Calle Junin y Calle Aroma s.n Mercado central ace,null,null,null,web
Cochabamba,ServiciosFinancieros,COOP. SAN ANTONIO,Av.Integracion esq.Chuquisaca s.n Central,null,null,null,web
La Paz,ServiciosFinancieros,BANCO FIE,Plaza Mcal. Andres de Santa Cruz No.50,null,null,null,web
La Paz,ServiciosFinancieros,BANCO PRODEM,Maximiiano Paredes N§ 15 esquina Yanacocha,null,null,null,web
La Paz,ServiciosFinancieros,BANCO ECOFUTURO,"PLAZA BOLIVAR, ACERA NORTE",null,null,null,web
La Paz,ServiciosFinancieros,BANCO PRODEM,Avenida 30 de Agosto SN,null,null,null,web
La Paz,ServiciosFinancieros,BANCO FIE,Plaza Rene Barrientos S/N,null,null,null,web
La Paz,ServiciosFinancieros,SEMBRAR SARTAWI,PLAZA PRINCIPAL DE LA LOCALIDAD DE BATALLAS,null,null,null,web
La Paz,ServiciosFinancieros,SEMBRAR SARTAWI,Plaza 16 de Julio S.N.,null,null,null,web
La Paz,ServiciosFinancieros,BANCO UNION,Av. Mariscal Santa Cruz s entre Litoral y Kilómet,null,null,null,web
La Paz,ServiciosFinancieros,SEMBRAR SARTAWI,Av. Mcal. Santa Cruz entre c. Batallon de ing.,null,null,null,web
La Paz,ServiciosFinancieros,BANCO PRODEM,"Plaza Martin Villalobos, esq. Gral Pando",null,null,null,web
La Paz,ServiciosFinancieros,BANCO PRODEM,Av. 6 de Agosto s.n. entre Calles Oruro y Pando,null,-16.165757,-69.086505,web
La Paz,ServiciosFinancieros,BANCO PRODEM,Saturnino Guerra s lado Plaza 16 de Julio,null,-16.313777,-67.606427,web
La Paz,ServiciosFinancieros,BANCO PRODEM,"C. Julio Suazo s.n, Plaza Principal",null,-16.188595,-67.727108,web
La Paz,ServiciosFinancieros,SEMBRAR SARTAWI,C. Tomas Monje esq. pje. Adalid Linares,null,null,null,web
La Paz,ServiciosFinancieros,BANCO ECOFUTURO,C. 3 No. 1304-CEJA,null,null,null,web
La Paz,ServiciosFinancieros,BANCO FASSIL,AV. JORGE CARRASCO No.61,null,-16.507681,-68.162976,web
La Paz,ServiciosFinancieros,BANCO FIE,Calle Jorge Carrasco No. 63 Zona 12 de Octubre,null,null,null,web
La Paz,ServiciosFinancieros,BANCO FIE,Av. Bolivia No. 1101 (cruce Villa Adela),null,-16.534346,-68.190648,web
La Paz,ServiciosFinancieros,BANCO FIE,Av. Juan Pablo II No.60 (ex tranca Rio Seco),null,-16.490178,-68.207141,web
La Paz,ServiciosFinancieros,BANCO FIE,Av. Aconcagua No. 8394,null,null,null,web
La Paz,ServiciosFinancieros,BANCO FORTALEZA,Av. 6 de marzo Nro 41,null,null,null,web
La Paz,ServiciosFinancieros,BANCO FORTALEZA,Av. Ladislao Cabrera No.15,null,-16.535287,-68.190927,web
La Paz,ServiciosFinancieros,BANCO PRODEM,Av. 6 de marzo Nro 41,null,-16.507522,-68.164169,web
La Paz,ServiciosFinancieros,BANCO UNION,Avenida Juan Pablo II Nø 2885 casi esq. Banzer,null,null,null,web
La Paz,ServiciosFinancieros,BANCO UNION,"Calle Ladislao Cabrera N§ 1017, cruce Villa Adela",null,-16.535136,-68.190794,web
La Paz,ServiciosFinancieros,BANCO UNION,Calle 1 Nø 1 entre Calle Franco Valle y Avenida J,null,null,null,web
La Paz,ServiciosFinancieros,COOP. LA SAGRADA FAMILIA,AV. ALFONSO UGARTE No. 1230,null,-16.489938,-68.172326,web
La Paz,ServiciosFinancieros,CRECER IFD,Plan 405 Calle 17 Nro 984,null,null,null,web
La Paz,ServiciosFinancieros,DIACONIA,Av. Juan Pablo II Nro. 125 esq. Jorge Eulert,null,-16.500180,-68.173633,web
La Paz,ServiciosFinancieros,DIACONIA,Av. Franco Valle Nro. 900,null,-16.500180,-68.173633,web
La Paz,ServiciosFinancieros,DIACONIA,"Av. Juan Pablo II Nro 60,Zona Rio Seco(Ex-Tranca)",null,null,null,web
La Paz,ServiciosFinancieros,DIACONIA,Carretera Viacha Nro 11,null,null,null,web
La Paz,ServiciosFinancieros,FUBODE,"Z. Tejada Rectangular entre Av. C¡vica,C.9, N.50",null,null,null,web
La Paz,ServiciosFinancieros,HOSPICIO,Av. Alfonso Ugarte,null,null,null,web
La Paz,ServiciosFinancieros,IDEPRO,AV. 6 DE MARZO. ESQ. CALLE 3 N§. 100. 1er PISO.,null,null,null,web
La Paz,ServiciosFinancieros,LA PRIMERA EFV,"Av. Raul Salmon No.24, Zona 12 de Octubre",null,null,null,web
La Paz,ServiciosFinancieros,PRO-MUJER,"Av. Santiago de Machaca No. 1005, esq. Av. Muro P",null,null,null,web
La Paz,ServiciosFinancieros,SEMBRAR SARTAWI,AV. JUAN PABLO II CALLE 1 Nº 8 FRENTE A IDENTIFIC,null,null,null,web
La Paz,ServiciosFinancieros,SEMBRAR SARTAWI,CAMINO A VIACHA ESQ AV BOLIVIA N°13,null,null,null,web
La Paz,ServiciosFinancieros,SEMBRAR SARTAWI,"AV.FRANCO VALLE NRO 11 ENTRE C 5 Y 6, ZOna 12 DE",null,null,null,web
La Paz,ServiciosFinancieros,SEMBRAR SARTAWI,Av. 6 de Agosto N. 2125,null,null,null,web
La Paz,ServiciosFinancieros,BANCO PRODEM,Plaza Victorio Lanza s Zona Central,null,null,null,web
La Paz,ServiciosFinancieros,BANCO PRODEM,Avenida Rene Barrientos S.N.,null,-16.125070,-67.194475,web
La Paz,ServiciosFinancieros,SEMBRAR SARTAWI,AV.RENE BARRIENTOS ORTUÑO entre 1 de Enero y Oswa,null,-16.127574,-67.194246,web
La Paz,ServiciosFinancieros,BANCO ECOFUTURO,"AVENIDA CAMACHO Nø 1377-1389 ESQ.CALLE LOAYZA, ZO",null,null,null,web
La Paz,ServiciosFinancieros,BANCO FASSIL,AV 16 DE JULIO N 1642 ESQ LADISLAO CABRERA,null,-16.502531,-68.132431,web
La Paz,ServiciosFinancieros,BANCO FIE,Calle Montenegro Nro. 1454 Bloque B3 Zona San Mig,null,-16.540765,-68.079348,web
La Paz,ServiciosFinancieros,BANCO FIE,C. General Gonzales No.1272,null,-16.501674,-68.136754,web
La Paz,ServiciosFinancieros,BANCO FORTALEZA,Calle 21 Calacoto esq Av. Costanera sn,null,-16.546458,-68.076541,web
La Paz,ServiciosFinancieros,BANCO FORTALEZA,Av. Las Americas No.353,null,-16.477264,-68.119601,web
La Paz,ServiciosFinancieros,BANCO FORTALEZA,Av. Arce n§ 2799 esq. Cordero,null,-16.512891,-68.120679,web
La Paz,ServiciosFinancieros,BANCO FORTALEZA,Av.16 de Julio No.1440 (Plaza Venezuela),null,-16.501170,-68.133181,web
La Paz,ServiciosFinancieros,BANCO PRODEM,"Av. Camacho No.xxx, esq. Colon",null,null,null,web
La Paz,ServiciosFinancieros,BANCO PRODEM,Av. Montes N. 515,null,-16.498776,-68.134214,web
La Paz,ServiciosFinancieros,BANCO UNION,"Avenida 16 de Julio Nro 1544, El Prado",null,-16.501545,-68.133100,web
La Paz,ServiciosFinancieros,BANCO UNION,Av. Camacho Nø 1416 esq. calle Loayza,null,-16.499464,-68.133214,web
La Paz,ServiciosFinancieros,BANCO UNION,"C.JOSE AGUIRRE ACHA,NRO.8484,C.21,ESQUIna JOS MA",null,-16.545125,-68.076870,web
La Paz,ServiciosFinancieros,COOP. LA SAGRADA FAMILIA,C. Sagarnaga No. 547 EDIF. MARIA.ENTRE CALLE MAX,null,-16.497962,-68.139112,web
La Paz,ServiciosFinancieros,COOP. SAN MARTIN DE PORRES,"AV.SAAVEDRA N.1975,ED.MIRAFLORES ENTRE VILLALOBOS",null,-16.502297,-68.122036,web
La Paz,ServiciosFinancieros,CRECER IFD,CALLE DEMETRIO CANELAS N.27 ENTRE C 16 Y 17 DE ZO,null,-16.528554,-68.101168,web
La Paz,ServiciosFinancieros,DIACONIA,Av. Tumusla Entre plaza Eguino e Isaac Tamayo Nro,null,-16.494387,-68.141232,web
La Paz,ServiciosFinancieros,LA PRIMERA EFV,Av. Mcal. Santa Cruz No.1364,null,-16.500214,-68.134328,web
La Paz,ServiciosFinancieros,PRO-MUJER,AV. 31 DE OCTUBRE 1530,null,-16.496571,-68.116533,web
La Paz,ServiciosFinancieros,SEMBRAR SARTAWI,AV. BUENOS AIRES 1548 TEMBLADERANI,null,-16.509344,-68.143483,web
La Paz,ServiciosFinancieros,SEMBRAR SARTAWI,AV DEFENSORES DEL CHACO ESQ CALLE 50 N°59,null,-16.537636,-68.048744,web
La Paz,ServiciosFinancieros,SEMBRAR SARTAWI,CALLE PEDRO SALAZAR Nº 509,null,-16.511610,-68.127039,web
La Paz,ServiciosFinancieros,SEMBRAR SARTAWI,AV. TITO YUPANQUI ESQ. RAFAEL BALLIVIAN N°1286,null,-16.493578,-68.117300,web
La Paz,ServiciosFinancieros,SEMBRAR SARTAWI,"CALLE BOQUERON #1500,ENTRE NICOLAS ACOSTA Y OTERO",null,-16.504657,-68.137110,web
La Paz,ServiciosFinancieros,SOLUCREDIT SAN SILVESTRE LTDA,AV MANCO KAPAC Nro 310 PLAZA EGUINO,null,-16.493855,-68.141585,web
La Paz,ServiciosFinancieros,BANCO FIE,Av. Panamericana Nro 74 esq. C. Santa Cruz,null,null,null,web
La Paz,ServiciosFinancieros,CIDRE IFD,"Calle pasaje florida,S entre Av. Panamericana y V",null,null,null,web
La Paz,ServiciosFinancieros,SEMBRAR SARTAWI,AV. PAnaMERICAna ESQ. PANDO,null,null,null,web
La Paz,ServiciosFinancieros,BANCO FIE,Av. Pando casi Esq. Ingavi No. 47,null,null,null,web
Oruro,ServiciosFinancieros,BANCO FIE,La Bandera esquina Ejercito,null,null,null,web
Oruro,ServiciosFinancieros,BANCO UNION,C. BANDERAS ENTRE C.MURILLO DORADO Y EJERCITO,null,-18.901098,-66.774464,web
Oruro,ServiciosFinancieros,CIDRE IFD,"CALLE EJERCITO S/N, ENTRE VILLARROEL Y ORURO",null,null,null,web
Oruro,ServiciosFinancieros,COOP. PAULO VI LTDA.,Calle La Bandera Ejercito Murillo,null,null,null,web
Oruro,ServiciosFinancieros,FUBODE,"C. LA BANDERA S, E. EJERCITO Y MURILLO DORADO (AC",null,null,null,web
Oruro,ServiciosFinancieros,IDEPRO,Av. Ladislao Cabrera S entre Beni y La Paz,null,null,null,web
Oruro,ServiciosFinancieros,SEMBRAR SARTAWI,C/LA PAZ S/N ENTRE LADISLAO CABRERA Y SUCRE,null,null,null,web
Oruro,ServiciosFinancieros,C.A.C. ASUNCION,Ag. 16 de Julio sn.,null,-18.285260,-66.841375,web
Oruro,ServiciosFinancieros,BANCO ECOFUTURO,C. Soria Galvarro n§ 1625 esq. Bolivar,null,-17.970767,-67.113645,web
Oruro,ServiciosFinancieros,BANCO FASSIL,Calle Adolfo Mier nro. 735,null,-17.969188,-67.114439,web
Oruro,ServiciosFinancieros,BANCO FIE,"C. La Plata No. 6144, entre Bolivar y Sucre",null,-17.970238,-67.114505,web
Oruro,ServiciosFinancieros,BANCO FORTALEZA,Calle La Plata No. 5959 entre calles Adolfo Mier,null,-17.969090,-67.113894,web
Oruro,ServiciosFinancieros,BANCO PRODEM,Calle La Plata 6175 entre Sucre y Bolivar,null,-17.970554,-67.114658,web
Oruro,ServiciosFinancieros,BANCO UNION,C. CAMPO JORDAN ENTRE EDMUNDO VASQUEZ Y AV. GRAN,null,-17.954792,-67.100107,web
Oruro,ServiciosFinancieros,BANCO UNION,Calle Soria Galvarro esquina Adolfo Mier Nø 612,null,-17.969503,-67.113278,web
Oruro,ServiciosFinancieros,BANCO UNION,Pagador 298 esq. Montesinos,null,-17.966146,-67.109153,web
Oruro,ServiciosFinancieros,C.A.C. ASUNCION,"C. Pagador 5475, entre Montesinos y Herrera",null,-17.965921,-67.109144,web
Oruro,ServiciosFinancieros,CACEF LTDA,6 de Octubre esquina 1 de Noviembre,null,null,null,web
Oruro,ServiciosFinancieros,COOP. LA SAGRADA FAMILIA,C.Aldana N§ 240 Entre Velasco Galvarro y Pagador,null,-17.973806,-67.110845,web
Oruro,ServiciosFinancieros,COOP. PAULO VI LTDA.,"6 de Octubre 4285, entre Charcas y campo Jordan",null,-17.953088,-67.108578,web
Oruro,ServiciosFinancieros,EL PROGRESO EFV.,C. La Plata esq. Sucre No. 6177,null,-17.971057,-67.114718,web
Oruro,ServiciosFinancieros,FUBODE,CALLE 6 DE OCTUBRE 5191 ENTRE LEON Y RODRIGUEZ,null,-17.963092,-67.110231,web
Oruro,ServiciosFinancieros,IDEPRO,C/PAGADOR N§ 6338. ENTRE MURGUIA Y ALDAna,null,-17.977119,-67.112138,web
Oruro,ServiciosFinancieros,SEMBRAR SARTAWI,C/Washintong#1480 entre calle Adolfo Mier y Junin,null,-11.020856,-68.757146,web
Pando,ServiciosFinancieros,BANCO ECOFUTURO,NA,null,-11.020872,-68.757149,web
Pando,ServiciosFinancieros,BANCO PRODEM,Av. 9 de Febrero esq. Av. Internacional,null,-11.027126,-68.760354,web
Pando,ServiciosFinancieros,BANCO UNION,NA,null,-11.035373,-68.767416,web
Pando,ServiciosFinancieros,CRECER IFD,AV. 9 DE FEBRERO No.219,null,null,null,web
Pando,ServiciosFinancieros,IDEPRO,AV. 9 DE FEBRERO S/N,null,-11.020645,-68.757054,web
Pando,ServiciosFinancieros,PRO-MUJER,Av. 27 de Mayo S Frente a Ex Rombol,null,-11.021950,-68.767381,web
Pando,ServiciosFinancieros,BANCO UNION,AV. naPOLEON ANTELO HULLMAN ESQ. 1 DE SEPTIEMBRE,null,-11.484449,-67.246809,web
Pando,ServiciosFinancieros,IDEPRO,AV. COLUMna PORVENIR S/N. MUNICIPIO PORVENIR,null,-11.234390,-68.688131,web
Pando,ServiciosFinancieros,BANCO UNION,ALBERTO SAENZ KLINSKI S,null,null,null,web
Potosí,ServiciosFinancieros,BANCO UNION,Plaza Franz Tamayo - Plaza Central,null,-20.936056,-66.220220,web
Potosí,ServiciosFinancieros,C.A.C. EL CHOROLQUE LTDA.,PLAZA FRANZ TAMAYO S.N.,null,null,null,web
Potosí,ServiciosFinancieros,BANCO PRODEM,"C. Bolivar No.6, esq. Linares",null,-19.552616,-65.453199,web
Potosí,ServiciosFinancieros,BANCO UNION,av. Hermanos Pereira casi esquina 6 de agosto,null,null,null,web
Potosí,ServiciosFinancieros,SEMBRAR SARTAWI,C. Potosi esq. Modesto Omiste,null,null,null,web
Potosí,ServiciosFinancieros,C.A.C. EL CHOROLQUE LTDA.,AV.PAnaMERICA S/N,null,-20.816663,-65.660545,web
Potosí,ServiciosFinancieros,BANCO FIE,Calle Campero esq. Baptista No 33,null,null,null,web
Potosí,ServiciosFinancieros,BANCO UNION,AV. 10 DE NOVIEMBRE No.13,null,-18.423274,-66.586763,web
Potosí,ServiciosFinancieros,C.A.C. ASUNCION,PLAZA 6 DE AGOSTO No. 31,null,-18.423161,-66.585136,web
Potosí,ServiciosFinancieros,FUBODE,CALLE BALLIVIAN ENTRE LInaRES Y TUPIZA,null,-18.422516,-66.585472,web
Potosí,ServiciosFinancieros,BANCO ECOFUTURO,NA,null,-19.587679,-65.754676,web
Potosí,ServiciosFinancieros,BANCO FASSIL,Calle Matos N§ 71 esquina Boulevar,null,-19.588072,-65.752565,web
Potosí,ServiciosFinancieros,BANCO PRODEM,C. Bolivar esq. Junin No.852,null,-19.587697,-65.753173,web
Potosí,ServiciosFinancieros,BANCO UNION,CALLE BOLIVAR ESQ. JUNIN S/N,null,-19.587483,-65.753197,web
Potosí,ServiciosFinancieros,BANCO UNION,Av. Litoral,null,-19.579835,-65.755620,web
Potosí,ServiciosFinancieros,CRECER IFD,Av. Litoral Nro 648 esq. Arce,null,-19.579825,-65.755608,web
Potosí,ServiciosFinancieros,DIACONIA,"Calle Smith Nro.296, cerca mercado Uyuni",null,-19.577617,-65.752646,web
Potosí,ServiciosFinancieros,DIACONIA,Calle América Nº 108,null,-19.585229,-65.759520,web
Potosí,ServiciosFinancieros,FUBODE,"Av. Arce, entre 1ro de Abril y Litoral, N 524",null,-19.580329,-65.755682,web
Potosí,ServiciosFinancieros,IDEPRO,C/ BUSTILLOS N§ 1080 ENTRE C/TOMAS FRIAS Y AYACUC,null,-19.588689,-65.754660,web
Potosí,ServiciosFinancieros,LA PROMOTORA,PLAZA 6 DE AGOSTO No. 11,null,-19.589224,-65.752884,web
Potosí,ServiciosFinancieros,PRO-MUJER,Nro. 507 (entre calles Arce y Av. Santa Cruz),null,-19.580337,-65.755686,web
Potosí,ServiciosFinancieros,SEMBRAR SARTAWI,AV. LITORAL S ENTRE AV ARCE Y CALLE VILLARROEL,null,null,null,web
Potosí,ServiciosFinancieros,C.A.C. ASUNCION,PLAZA CENTRAL SAN PEDRO DE BUEnaVISTA,null,-18.269549,-65.981448,web
Potosí,ServiciosFinancieros,BANCO FIE,"Plaza Independencia, esq. Bolivar s.n.",null,-21.443973,-65.720349,web
Potosí,ServiciosFinancieros,BANCO UNION,Calle Florida No 204 esquina calle,null,-21.444657,-65.719758,web
Potosí,ServiciosFinancieros,C.A.C. EL CHOROLQUE LTDA.,AV. SANTA CRUZ No.300,null,-21.442772,-65.719842,web
Potosí,ServiciosFinancieros,BANCO UNION,Av. Potosi no 33 esquina calle Sucre,null,-20.464130,-66.825378,web
Potosí,ServiciosFinancieros,CAC. GAINZA,CALLE SUCRE Nro 131 ENTRE AV.COLON Y AV.POTOSI,null,null,null,web
Potosí,ServiciosFinancieros,IDEPRO,Calle Sucre Nø 257 entre calles Colon y Cabrera,null,-20.460700,-66.824562,web
Potosí,ServiciosFinancieros,BANCO UNION,"Calle Tarija Calle, Independencia",null,-22.090448,-65.595020,web
Potosí,ServiciosFinancieros,CAC. GAINZA,PLAZA 6 DE AGOSTO S.N.,null,null,null,web
Potosí,ServiciosFinancieros,SEMBRAR SARTAWI,"PLAZA 6 E AGOSTO #125, ENTRE C/20 DE MAYO Y C/IND",null,null,null,web
Santa Cruz,ServiciosFinancieros,SEMBRAR SARTAWI,Carretera Santa Cruz Trinidad esquina Calle San,null,null,null,web
Santa Cruz,ServiciosFinancieros,BANCO UNION,Avenida Brasil esq. Lu¡s Salazar de la Vega,null,null,null,web
Santa Cruz,ServiciosFinancieros,COOP.A.C.SAN FRANCISCO SOLANO,CORDILLERA,null,null,null,web
Santa Cruz,ServiciosFinancieros,BANCO UNION,"C Ignacio W y Bolívar, z.1, manzana 31 sn de la z",null,-19.790255,-63.196581,web
Santa Cruz,ServiciosFinancieros,BANCO UNION,"C. Santa Cruz esq. c.Martín Claure s, zona centra",null,-17.915067,-64.529513,web
Santa Cruz,ServiciosFinancieros,COOP. COMARAPA LTDA.,plaza 11 de Junio #127,null,-17.913847,-64.529497,web
Santa Cruz,ServiciosFinancieros,COOP.LA MERCED,CALLE SATURNINO SAUCEDO ENTRE BENI Y GERMAN BUSCH,null,-16.132450,-62.025687,web
Santa Cruz,ServiciosFinancieros,COOP.LA MERCED,Av. Santa Cruz N. 63 esq.C. Bolivar frente a la p,null,null,null,web
Santa Cruz,ServiciosFinancieros,BANCO UNION,Plaza Principal el Carmen Rivero Torrez,null,null,null,web
Santa Cruz,ServiciosFinancieros,SEMBRAR SARTAWI,MUNICIPIO EL PUENTE BARRIO SANTA ROSA,null,null,null,web
Santa Cruz,ServiciosFinancieros,COOP. PROGRESO LTDA.,Av.Republica esq. Benjamin Burela,null,-17.990906,-63.381227,web
Santa Cruz,ServiciosFinancieros,SEMBRAR SARTAWI,MUNICIPIO EL TORNO FRENTE A LA PLAZA PRINCIPAL,null,null,null,web
Santa Cruz,ServiciosFinancieros,BANCO FIE,AV.SANTA CRUZ C. ESQ. SAN JOAQUIN,null,-15.894201,-63.188667,web
Santa Cruz,ServiciosFinancieros,COOP.LA MERCED,"AV.BUSH ESQ.CONRADO URAPI,1/2 CUADRA PLAZA PRINCI",null,null,null,web
Santa Cruz,ServiciosFinancieros,FONDECO,AV.SANTA CRUZ 2 17S.N. FRENTE A RESID. BOLIVIA,null,null,null,web
Santa Cruz,ServiciosFinancieros,COOP. COMARAPA LTDA.,CARRETERA ANT.A SANTA CRUZ,null,null,null,web
Santa Cruz,ServiciosFinancieros,BANCO FIE,CALLE PRADO ESQ. AVENIDA AVAROA S - BARRIO COPER,null,-18.119899,-63.960173,web
Santa Cruz,ServiciosFinancieros,BANCO UNION,C Bolívar entre Av Abaroa y H.del Chaco snbarrio,null,-18.122322,-63.960161,web
Santa Cruz,ServiciosFinancieros,COOPERATIVA SAN MATEO LTDA.,AV.AVAROA NO.18 MAIRAna PROV.FLORIDA-SANTA CRUZ,null,null,null,web
Santa Cruz,ServiciosFinancieros,SEMBRAR SARTAWI,Calle Bolivar S/N(Frente a la ex policia de Maira,null,null,null,web
Santa Cruz,ServiciosFinancieros,COOP.LA MERCED,Av. Santa Cruz media cuadra antes de la plaza pri,null,null,null,web
Santa Cruz,ServiciosFinancieros,BANCO FASSIL,NA,null,-17.118808,-63.232251,web
Santa Cruz,ServiciosFinancieros,BANCO UNION,"Av. Santa Cruz, entre calles Bélgica y Sucre",null,-17.118290,-63.232710,web
Santa Cruz,ServiciosFinancieros,BANCO FASSIL,NA,null,-17.341647,-63.255322,web
Santa Cruz,ServiciosFinancieros,BANCO UNION,NA,null,-17.343273,-63.247838,web
Santa Cruz,ServiciosFinancieros,BANCO UNION,"Avenida Sim¢n Bol¡var, esquina calle Israel Mend¡",null,-18.966067,-57.799015,web
Santa Cruz,ServiciosFinancieros,COOP. COMARAPA LTDA.,PLAZA PRINCIPAL,null,null,null,web
Santa Cruz,ServiciosFinancieros,COOP.LA MERCED,"C. Arce entre calles Sucre y Campero, frente a la",null,-18.179500,-63.875341,web
Santa Cruz,ServiciosFinancieros,CIDRE IFD,"C. LA PAZ, FRENTE A LA PLAZA PRINCIPAL DE SAN IGN",null,null,null,web
Santa Cruz,ServiciosFinancieros,PRO-MUJER,"Calle Comercio esq. calle Cochabamba, diagonal de",null,null,null,web
Santa Cruz,ServiciosFinancieros,COOP. COMARAPA LTDA.,CARRETERA ANTIGUA A CBBA.,null,null,null,web
Santa Cruz,ServiciosFinancieros,COOP.LA MERCED,"Av. Padre José de Arce, Zona Mercado 24 de Septi",null,null,null,web
Santa Cruz,ServiciosFinancieros,FONDECO,AV.PADRE JOSE DE ARCE ENTRE CALLE SOROTOCO Y PIÑO,null,-16.275074,-62.508286,web
Santa Cruz,ServiciosFinancieros,BANCO UNION,San Javier,null,-16.274837,-62.507221,web
Santa Cruz,ServiciosFinancieros,BANCO UNION,"Carretera Santa Cruz - Trinidad, barrio Los Cafec",null,-16.908969,-62.618619,web
Santa Cruz,ServiciosFinancieros,CIDRE IFD,Av. Principal Carretera Trinidad Santa Cruz,null,null,null,web
Santa Cruz,ServiciosFinancieros,FONDECO,CARR. SCZ-TRINIDAD A 1 CUADRA DE MERC. 24 DE JUNI,null,-16.913356,-62.618632,web
Santa Cruz,ServiciosFinancieros,SEMBRAR SARTAWI,"C. 6 de Agosto Mza 1, uv 7",null,-16.908833,-62.618614,web
Santa Cruz,ServiciosFinancieros,FONDECO,"AV.GUARAYOS, FRENTE HOTEL MANGUARI",null,-16.613012,-62.501497,web
Santa Cruz,ServiciosFinancieros,BANCO ECOFUTURO,Av. Japon,null,-17.771950,-63.168221,web
Santa Cruz,ServiciosFinancieros,BANCO FASSIL,Av.Cristo Redentor Nro 4210 entre 4to y 5to anill,null,-17.746614,-63.174176,web
Santa Cruz,ServiciosFinancieros,BANCO FASSIL,"av. segunda, ed.torre urub¢ business center, zona",null,-17.751835,-63.216324,web
Santa Cruz,ServiciosFinancieros,BANCO FIE,"Av. Plan 3000 S UV 149, MZA 008 (frente Surtidor",null,-17.822869,-63.144699,web
Santa Cruz,ServiciosFinancieros,BANCO FIE,"Av. Santos Dumont Esquina 5to Anillo, Barrio Mora",null,-17.832511,-63.185121,web
Santa Cruz,ServiciosFinancieros,BANCO FORTALEZA,Av. Mutualista esq.Calle 12 Los Ceibos,null,-17.765625,-63.161879,web
Santa Cruz,ServiciosFinancieros,BANCO FORTALEZA,"Gabriel Rene Moreno, n§ 140",null,-17.785350,-63.181296,web
Santa Cruz,ServiciosFinancieros,BANCO PRODEM,Arenales Nro. 779,null,-17.780796,-63.172856,web
Santa Cruz,ServiciosFinancieros,BANCO UNION,Av. Santos Dumont esquina Tercer anillo externo N,null,-17.814464,-63.182709,web
Santa Cruz,ServiciosFinancieros,BANCO UNION,calle Seoane entre 21 de mayo y España,null,-17.779967,-63.184686,web
Santa Cruz,ServiciosFinancieros,BANCO UNION,"Surtidor Cristo Rey Av. Cristo Redentor, Entre 2d",null,-17.766813,-63.182083,web
Santa Cruz,ServiciosFinancieros,BANCO UNION,"Av Viedma N° 649 casi calle Oruro 1er anillo, z c",null,-17.789694,-63.171713,web
Santa Cruz,ServiciosFinancieros,CIDRE IFD,"C. SUCRE Nro.144, entra calle Chuquisaca y La Paz",null,null,null,web
Santa Cruz,ServiciosFinancieros,CIDRE IFD,AV. CHE GUEVARA Nro.6950 MEDIA CUADRA ROTONDA PLA,null,null,null,web
Santa Cruz,ServiciosFinancieros,COOP. COMARAPA LTDA.,Doble V¡a la Guardia esq. C Jose Otero,null,-17.806819,-63.202073,web
Santa Cruz,ServiciosFinancieros,COOP. SAN MARTIN DE PORRES,Of. Central Av.26 de Feb. Esq. Landivar,null,-17.785178,-63.194616,web
Santa Cruz,ServiciosFinancieros,COOP.LA MERCED,Av. Mutualista Nº 565 y 3er. Anillo,null,null,null,web
Santa Cruz,ServiciosFinancieros,COOP.LA MERCED,Calle Junín 363 entre España y Santa Barbara,null,-17.783053,-63.185488,web
Santa Cruz,ServiciosFinancieros,COOPERATIVA GRAN GRIGOTA LTDA.,Avenida Isabel la Católica No 449 frente La Ramad,null,null,null,web
Santa Cruz,ServiciosFinancieros,COOPERATIVA GRAN GRIGOTA LTDA.,Avenida Uruguay No 423 (media cuadra de Cumbre),null,-17.774646,-63.176561,web
Santa Cruz,ServiciosFinancieros,COOPERATIVA SAN MATEO LTDA.,AV.DOBLE VIA LA GUARDIA NO.1050,null,-17.804200,-63.199918,web
Santa Cruz,ServiciosFinancieros,FUBODE,AV. VIRGEN DE COTOCA 550 ENTRE 6to.Y 7mo. ANILLO,null,-17.768240,-63.115972,web
Santa Cruz,ServiciosFinancieros,FUBODE,AV. SANTOS DUMONT 1385,null,null,null,web
Santa Cruz,ServiciosFinancieros,IDEPRO,"AV. 18 DE MARZO, ESQ. PLAN 3000",null,"-17.824641,",-63.132249,web
Santa Cruz,ServiciosFinancieros,PRO-MUJER,"Villa 1ø de Mayo, Casi Esq. Calle 11 oeste Nø 4",null,-17.798585,-63.135439,web
Santa Cruz,ServiciosFinancieros,PRO-MUJER,Avenida Paurita N§ 6055 (Zona Ca¤ada Pailita),null,null,null,web
Santa Cruz,ServiciosFinancieros,PRO-MUJER,"Calle las Cutas Nø 2469, UV 17",null,-17.798585,-63.135439,web
Santa Cruz,ServiciosFinancieros,SEMBRAR SARTAWI,AV. SANTOS DUMONT 5to: ANILLO BARRIO LOS OLIVOS,null,-17.833034,-63.184774,web
Santa Cruz,ServiciosFinancieros,SEMBRAR SARTAWI,AV MUTUALISTA Nº 2420 ESQ. CALLE 12,null,null,null,web
Santa Cruz,ServiciosFinancieros,SEMBRAR SARTAWI,AV ROTONDA S UV 149 MZN 1 BARRIO TORO TORO ROTOND,null,null,null,web
Santa Cruz,ServiciosFinancieros,SEMBRAR SARTAWI,CALLE RENE MORENO Nº476,null,null,null,web
Santa Cruz,ServiciosFinancieros,CIDRE IFD,CALLE SANTA CRUZ ESQUIna CALLE FLORIDA S.N,null,null,null,web
Santa Cruz,ServiciosFinancieros,COOPERATIVA SAN MATEO LTDA.,CALLE FLORIDA NO.101 VALLEGRANDE-SANTA CRUZ,null,-18.48961,-64.107164,web
Santa Cruz,ServiciosFinancieros,CIDRE IFD,AV. EPIFANIO R.OS SN,null,null,null,web
Santa Cruz,ServiciosFinancieros,FUBODE,AV. EPIFANIO RIOS 279 PLANTA BAJA,null,null,null,web
Santa Cruz,ServiciosFinancieros,SEMBRAR SARTAWI,"Av. Epifanio Rios, Lote 8, Mz 46",null,null,null,web
Sucre,ServiciosFinancieros,BANCO UNION,"Calle Guemes s (cerca de la plaza 14 de Marzo), z",null,null,null,web
Sucre,ServiciosFinancieros,BANCO FIE,CALLE AYACUCHO N. 24 ESQ. GRAN CHACO PROV.NOR CIN,null,-20.641470,-65.210606,web
Sucre,ServiciosFinancieros,BANCO UNION,Calle Ayacucho Nro. 33,null,-20.64102,-65.210843,web
Sucre,ServiciosFinancieros,IDEPRO,Calle Gran Chaco Nro. 12,null,null,null,web
Sucre,ServiciosFinancieros,COOP.A.C.SAN FRANCISCO SOLANO,LUIS CALVO,null,null,null,web
Sucre,ServiciosFinancieros,BANCO UNION,Calle Marcelo Arana Nro. 45-47,null,-19.804334,-63.957591,web
Sucre,ServiciosFinancieros,CAC SAN ROQUE LTDA,Calle Sucre No. 699,null,-19.800669,-63.955078,web
Sucre,ServiciosFinancieros,BANCO UNION,Calle Ayacucho s entre Calle Sucre y German Busc,null,null,null,web
Sucre,ServiciosFinancieros,BANCO FIE,Litoral,null,-19.307199,-64.302584,web
Sucre,ServiciosFinancieros,BANCO UNION,"BOLIVAR No, 2",null,-19.307782,-64.302921,web
Sucre,ServiciosFinancieros,CAC SAN ROQUE LTDA,NA,null,null,null,web
Sucre,ServiciosFinancieros,BANCO UNION,"Calle Eduardo Avaroa s, localidad San Lucas",null,null,null,web
Sucre,ServiciosFinancieros,SEMBRAR SARTAWI,Plaza Trigo Arce esq. 25 de Mayo,null,null,null,web
Sucre,ServiciosFinancieros,BANCO ECOFUTURO,GUILLERMO LOAYZA No.504 ESQ. J.PRUDENCIO BUSTILLO,null,-19.034067,-65.252826,web
Sucre,ServiciosFinancieros,BANCO FASSIL,C. Espa¤a Nø 64 entre Calvo y San Alberto,null,-19.047389,-65.258501,web
Sucre,ServiciosFinancieros,BANCO FIE,Plaza 25 de mayo esquina calle Espa¤a,null,-19.047708,-65.258714,web
Sucre,ServiciosFinancieros,BANCO FORTALEZA,Calle San Alberto No.108 esq. Calle Espa¤a,null,-19.047207,-65.257740,web
Sucre,ServiciosFinancieros,BANCO PRODEM,c/Espana esq.San Alberto No.106,null,-19.047005,-65.258190,web
Sucre,ServiciosFinancieros,CIDRE IFD,C. GUSTAVO naVARRO No. 12,null,-19.035174,-65.253608,web
Sucre,ServiciosFinancieros,CRECER IFD,Calle Man Cesped Nro 510,null,null,null,web
Sucre,ServiciosFinancieros,DIACONIA,"Calle Prudenci Bustillos Nro.262, lado Mercado Ca",null,-19.034278,-65.255099,web
Sucre,ServiciosFinancieros,FUBODE,C. naTANIEL AGUIRRE 391 CASI ESQ. DESTACAMENTO 13,null,null,null,web
Sucre,ServiciosFinancieros,LA PRIMERA EFV,Calle Espa¤a N§31,null,null,null,web
Sucre,ServiciosFinancieros,PRO-MUJER,Calle Marzana Nro. 525.,null,null,null,web
Sucre,ServiciosFinancieros,SEMBRAR SARTAWI,C. J. Prudencio N§ 530 esq. C. Paraguay,null,null,null,web
Sucre,ServiciosFinancieros,BANCO UNION,"Plaza 12 de Marzo, esquina calles Bolívar y Sucre",null,null,null,web
Sucre,ServiciosFinancieros,IDEPRO,c. Julio Andia S frente a la plaza Principal,null,null,null,web
Sucre,ServiciosFinancieros,BANCO UNION,"Avenida Mauro Nuñez S lote L, Zona central",null,-19.124360,-64.322187,web
Tarija,ServiciosFinancieros,BANCO UNION,"Av G. Busch, esq C. Chuquisaca (Plaza Principal)",null,-22.731686,-64.342941,web
Tarija,ServiciosFinancieros,COOP.SAN JOSE DE BERMEJO,CALLE GERMAN BUCH ESQ.LITORAL,null,-22.731998,-64.342783,web
Tarija,ServiciosFinancieros,PRO-MUJER,Calle Cochabamba entre Av. Barrientos Ortu¤o y Ca,null,null,null,web
Tarija,ServiciosFinancieros,BANCO UNION,"C Bolívar SN Esq Junín, Z Norte de Carapari prov",null,null,null,web
Tarija,ServiciosFinancieros,C.A.C ABIERTA MADRE Y MAESTRA LTDA.,AV 29 DE SEPTIEMBRE SN,null,-21.529155,-64.734394,web
Tarija,ServiciosFinancieros,COOP.MAGISTERIO RURAL TARIJA LTDA,Calle Gilberto Saavedra (a media cuadra de la pla,null,-21.887959,-64.712785,web
Tarija,ServiciosFinancieros,BANCO ECOFUTURO,Av.Domingo Paz entre daniel Campos y Colon N.132,null,-21.531742,-64.731602,web
Tarija,ServiciosFinancieros,BANCO FASSIL,15 de Abril 124,null,-21.535077,-64.732185,web
Tarija,ServiciosFinancieros,BANCO FIE,Ingavi 246,null,-21.533100,-64.733034,web
Tarija,ServiciosFinancieros,BANCO FORTALEZA,La Madrid,null,-21.533558,-64.733857,web
Tarija,ServiciosFinancieros,BANCO PRODEM,Tarija,null,-21.521015,-64.742941,web
Tarija,ServiciosFinancieros,BANCO UNION,Av. La Paz esquina Av. Victor Paz,null,-21.540752,-64.725161,web
Tarija,ServiciosFinancieros,BANCO UNION,Zona Mercado Campesino,null,-21.520859,-64.742592,web
Tarija,ServiciosFinancieros,BANCO UNION,C/MADRID ESQ. GRAL TRIGO NO.390,null,-21.533403,-64.734329,web
Tarija,ServiciosFinancieros,C.A.C ABIERTA MADRE Y MAESTRA LTDA.,Av. Froylan Tejerina N§ 140,null,-21.521386,-64.742005,web
Tarija,ServiciosFinancieros,C.A.C ABIERTA MADRE Y MAESTRA LTDA.,CALLE FRAY MANUEL MINGO Nro. 0573,null,-21.529153,-64.734393,web
Tarija,ServiciosFinancieros,C.A.C. EL CHOROLQUE LTDA.,"C. INGAVI No.239, edif. CONCORDIA",null,-21.533174,-64.732798,web
Tarija,ServiciosFinancieros,CIDRE IFD,Av. Panamericana S Zona San Jorge,null,-21.526199,-64.739830,web
Tarija,ServiciosFinancieros,CIDRE IFD,C. JUNIN Nro. 625 ENTRE INGAVI Y MADRID,null,-21.535112,-64.727989,web
Tarija,ServiciosFinancieros,COOP.MAGISTERIO RURAL TARIJA LTDA,Calle campero N 726 entre Ingavi y Bolivar,null,-21.532086,-64.734927,web
Tarija,ServiciosFinancieros,DIACONIA,Av.Panamericana Nro 1791,null,-21.521137,-64.742787,web
Tarija,ServiciosFinancieros,FONDECO,"Av. Froilan Tejerina, entre Ernesto Trigo y Hugo",null,-21.518541,-64.740023,web
Tarija,ServiciosFinancieros,IDEPRO,Calle Ingavi,null,-21.532837,-64.733927,web
Tarija,ServiciosFinancieros,PRO-MUJER,Zona Mercado Campesino,null,-21.521865,-64.742354,web
Tarija,ServiciosFinancieros,IDEPRO,Avenida Principal frente a la cancha de futbol s.,null,null,null,web
Tarija,ServiciosFinancieros,IDEPRO,"Calle Recreo esquina Bol¡var, Plaza Principal s.n",null,null,null,web
Tarija,ServiciosFinancieros,BANCO UNION,"Av. Ingavi, entre Av. H del Chaco y C.Cbba sn z.",null,-21.262999,-63.470134,web
Tarija,ServiciosFinancieros,C.A.C. EDUCADORES GRAN CHACO LTDA,Av. Mendez Arcos Esq. Calle Ismael Montes,null,-21.265846,-63.469799,web
Tarija,ServiciosFinancieros,COOP.A.C.SAN FRANCISCO SOLANO,AV MENDEZ ARCO ENTRE POTOSI Y ORURO,null,-21.265021,-63.472655,web
Tarija,ServiciosFinancieros,BANCO FIE,CALLE GENERAL CAMPERO ENTRE SANTA CRUZ Y COMERCIO,null,-22.016652,-63.679166,web
Tarija,ServiciosFinancieros,BANCO UNION,C/GRAL CAMPERO S/N ESQ.MARISCAL STA CRUZ,null,-22.017093,-63.680102,web
Tarija,ServiciosFinancieros,C.A.C. EDUCADORES GRAN CHACO LTDA TRJ,C/Campero #140 entre c/ Martin Barroso y Av.San M,null,-22.017245,-63.676283,web
Tarija,ServiciosFinancieros,CAC. GAINZA,C. SANTA CRUZ S.N.,null,null,null,web
Tarija,ServiciosFinancieros,COOP. SAN MARTIN DE PORRES,CALLE SANTA CRUZ ESQ.CREVAUX,null,-22.014085,-63.678698,web
Tarija,ServiciosFinancieros,FUBODE,CALLE SUCRE E. COMERCIO Y SANTA CRUZ Nø 329,null,null,null,web
Cochabamba,Libreria,Libreria Gisbert,Av Salamanca 681-675,69902626,-17.385892,-66.154155,web
Cochabamba,Farmacia,Farmacorp,NA,4524244,null,null,web
Cochabamba,Farmacia,Chavez,NA,69430074-4522252,null,null,web
Cochabamba,Farmacia,Dosis Farma,NA,70730486,null,null,web
Cochabamba,Farmacia,Zurich,NA,65707053,null,null,web
Cochabamba,Movilidad,Genial,NA,61783111-4200424,null,null,web
Cochabamba,Oxigeno,OzLife,NA,70725870-70779698,null,null,web
Cochabamba,Gas,YPFB,NA,72072300-800106006,null,null,web
Cochabamba,Emergencias,Policía nacional,NA,74580911,null,null,web
Cochabamba,Emergencias,Policía nacional,NA,76571911,null,null,web
Cochabamba,Emergencias,Policía nacional,NA,76902911,null,null,web
Cochabamba,Emergencias,Policía nacional,NA,69451911,null,null,web
Cochabamba,Emergencias,Policía nacional,NA,69433911,null,null,web
Cochabamba,Emergencias,Policía nacional,NA,69452911,null,null,web
La Paz,ServiciosLegales,FELCV-La Paz,NA,61000523-67008570,null,null,web
La Paz,ServiciosLegales,FELCV-El Alto,NA,72042202,null,null,web
Cochabamba,ServiciosLegales,FELCV-Cochabamba,NA,60707069,null,null,web
Santa Cruz,ServiciosLegales,FELCV-Santa Cruz,NA,72048864,null,null,web
Oruro,ServiciosLegales,FELCV-Oruro,NA,62805818,null,null,web
Potosí,ServiciosLegales,FELCV-Potosi,NA,72042570,null,null,web
Chuquisaca,ServiciosLegales,FELCV-Sucre,NA,72042698,null,null,web
Tarija,ServiciosLegales,FELCV-Tarija,NA,78241690,null,null,web
Beni,ServiciosLegales,FELCV-Trinidad,NA,72042202,null,null,web
Pando,ServiciosLegales,FELCV-Cobija,NA,72042740,null,null,web
La Paz,ServiciosLegales,Servicios legales Municipales,NA,156 - 800104100,null,null,web
La Paz,ServiciosLegales,Servicios legales Municipales,NA,156 - 69952322 - 69900536,null,null,web
Cochabamba,ServiciosLegales,Servicios legales Municipales,NA,80014205 - 76425835,null,null,web
Santa Cruz,ServiciosLegales,Servicios legales Municipales,NA,156 - 70960050 - 70060050,null,null,web
Oruro,ServiciosLegales,Servicios legales Municipales,NA,68351338,null,null,web
Potosí,ServiciosLegales,Servicios legales Municipales,NA,72426236,null,null,web
Chuquisaca,ServiciosLegales,Servicios legales Municipales,NA,77114241,null,null,web
Tarija,ServiciosLegales,Servicios legales Municipales,NA,800140348,null,null,web
Beni,ServiciosLegales,Servicios legales Municipales,NA,69376262,null,null,web
Pando,ServiciosLegales,Servicios legales Municipales,NA,75104501,null,null,web
Cochabamba,Veterinaria,Mauricio Camacho,Z/ Hipódromo,69448268,null,null,web
Cochabamba,Veterinaria,Cristian Herrera,Z/ Chimba,75910589,null,null,web
Cochabamba,Veterinaria,Mauricio Catorceno,Circunvalación y Beijing,70765804,-17.357125,-66.175947,web
Cochabamba,Veterinaria,Veterinaria Hospicio Animal,Tadeo Haenke y Antofagasta,76472124,-17.382859,-66.180372,web
Cochabamba,Veterinaria,Radiografia Digital Malluicy,Z/ Muyurina,75900858 - 72743200,null,null,web
Cochabamba,Veterinaria,Veterinaria ExoVet,Av. Libertador Simón Bolivar #1314,60393960 - 4424177,-17.377125,-66.161148,web
Cochabamba,Veterinaria,Jasmine Torrico,Puente Cobija,70794078,null,null,web
Cochabamba,Veterinaria,Monica Montes,Z/ Mesadilla - Pacata,77417339,null,null,web
Cochabamba,Veterinaria,Veterinaria Ameridog,Ayacucho norte - Costanera,70727814 - 70750372,-17.386414,-66.159959,web
Cochabamba,Veterinaria,José Luis M,Av. Víctor Ustariz,71460528,null,null,web
Cochabamba,Veterinaria,Lorena Rojas,Circunvalación Km. 7 - Sacaba,76454466,null,null,web
Cochabamba,Veterinaria,Veterinaria Don Animales,Z/ Sud - Base Aérea,70352125 -  4739462,null,null,web
Cochabamba,Veterinaria,Veterinaria Vasan,Villa Granado,78364101,null,null,web
Cochabamba,Veterinaria,Veterinaria Patushino,Z/ Las Cuadras av. 9 de Abril,71412435,-17.399437,-66.144656,web
Cochabamba,Veterinaria,Veterinaria Lulyvet,Av. Huaynakapac - Z/ Villa Coronilla,null,null,null,web
Cochabamba,Veterinaria,Veterinaria Paraiso de los Animales,Los Ceibos,79790979,-17.367883,-66.171076,web
Cochabamba,Veterinaria,Veterinaria Dulces Mascotas,Simon Lopez- Z/ Cala Cala,77413146,-17.366189,-66.169723,web
Cochabamba,Veterinaria,Veterinaria CInaVET,"Z/Quintanilla, Av. Chapare.",71771720,-17.388979,-66.110836,web
Cochabamba,Veterinaria,Veterinaria Punto Pets,Av. General Galindo y America,77480497,-17.37465,-66.142739,web
Cochabamba,Veterinaria,Veterinaria VetCat,Villavivencio y Av. Dorbigni,72773969 - 74834384,null,null,web
Cochabamba,Veterinaria,Carmen Morales,"Z/ Norte. Candelaria, Segunda Circunvalación. Av. Los Ángeles calle 3",79983827,-17.344612,-66.172317,web
La Paz,EquiposBioseguridad,SEDEM,NA,70169907 - 76217775,null,null,web
Cochabamba,EquiposBioseguridad,SEDEM,NA,71554627 - 71554670,null,null,web
Tarija,EquiposBioseguridad,SEDEM,NA,72949005 - 71554631,null,null,web
Oruro,EquiposBioseguridad,SEDEM,NA,72329947 - 78603180,null,null,web
Santa Cruz,EquiposBioseguridad,SEDEM,NA,3431222 - 3530008,null,null,web
El Alto,EquiposBioseguridad,SEDEM,NA,71948831 - 78848039,null,null,web
Chuquisaca,EquiposBioseguridad,SEDEM,NA,77117444 - 68660082,null,null,web
Beni,EquiposBioseguridad,SEDEM,NA,75895532 - 73934734,null,null,web
Pando,EquiposBioseguridad,SEDEM,NA,72697370 - 72938540,null,null,web
Potosí,EquiposBioseguridad,SEDEM,NA,72365931 - 79436705,null,null,web
Beni,EquiposBioseguridad,SEDEM,NA,77841467 - 73216064,null,null,web
La Paz,Veterinaria,Veterinaria Del Sur,Z/ Calacoto,70616221,null,null,web
La Paz,Veterinaria,Animal Centro medico,Av. Montenegro,73006002,null,null,web
La Paz,Veterinaria,Dogtora Osita,NA,78910774,-16.523415,-68.148859,web
La Paz,Veterinaria,San José,C/Teniente Oquendo N°290,71247989,-16.487455,-68.142825,web
La Paz,Veterinaria,Wolf Vet,C/Juanito Benavente,75206916,-16.510631,-68.130081,web
La Paz,Veterinaria,Petite Pompom,Av. Sánchez Lima,71503365,null,null,web
La Paz,Veterinaria,Veterinaria Fátima,Z/Chasquipampa,72849127,null,null,web
La Paz,Veterinaria,Veterinaria Mejor Amigo,Z/Villa Fátima,71246688,null,null,web
La Paz,Veterinaria,Canis y Feliz,Plaza Villarroel,68044781,-16.484212,-68.121062,web
La Paz,Veterinaria,Sabuezo,Av. Tito Hupanqui,77244537,-16.493207,-68.117341,web
La Paz,Veterinaria,Bigotes,Av. Iturralde,70144342,null,null,web
La Paz,Veterinaria,Animalandia,C/Colombia,70149500,null,null,web
La Paz,Veterinaria,Peñaranda,Z/Chuquisaca,79130429,null,null,web
La Paz,Veterinaria,Animal Town,Z/Bajo Llojeta,76242259,-16.510168,-68.132681,web
La Paz,Veterinaria,Doberman,C/Claudio Sanjinez,72539572,-16.505554,-68.119471,web
La Paz,Veterinaria,Mariano Rubín de Celiz,Plaza Villarroel,75823142,null,null,web
La Paz,Veterinaria,Engreidogs,Av. Baltazar de Salas,78923498,-16.482388,-68.141914,web
La Paz,Veterinaria,Veterinaria Ciudad Satélite,Ciudad Satélite,78801673,null,null,web
Cochabamba,Medico,Alex Orozco,NA,68463810,null,null,web
Cochabamba,Medico,Verónica Suarez,NA,72277875,null,null,web
Cochabamba,Medico,Claudia Alejandra Huanca Villca,NA,72961505,null,null,web
Cochabamba,Medico,Daniela Bazoalto,NA,70754241,null,null,web
Cochabamba,Medico,Katherinne Carolina Espinoza,NA,70722190,null,null,web
Cochabamba,Medico,Paola Salazar Rodríguez,NA,70399894,null,null,web
Cochabamba,Medico,Rosimeri Flores Camacho,NA,70399894,null,null,web
Cochabamba,Medico,Viviana Aliaga,NA,73089123,null,null,web
Cochabamba,Medico,Maryfrance del Granado,NA,76955012,null,null,web
Cochabamba,Medico,Jaime Escobar,NA,67406531,null,null,web
Cochabamba,Medico,Josimar Rodríguez,NA,79491961,null,null,web
Cochabamba,Medico,Nestor Hugo Mendieta,NA,68503743,null,null,web
Cochabamba,Medico,Daniel Flores Mamani,NA,70385187,null,null,web
Cochabamba,Laboratorio,Carla Copaititi Montaño,NA,70765979,null,null,web
Cochabamba,Laboratorio,Carmen Lucía Paz,NA,60721909,null,null,web
Cochabamba,Laboratorio,Cuper Maldonado Panozo,NA,68444923,null,null,web
Cochabamba,Psicologia,María René San Martín,NA,67436061,null,null,web
Cochabamba,Odontologia,Albana Escobar,NA,76454928,null,null,web
Cochabamba,Veterinaria,CentralVet,Calle Colombia 641 entre Lanza y Antezana,4230865 - 65368404 - 65368404,-17.390496,-66.153997,web
La Paz,Psicologia,Anacarola Mustafa Urquidi,NA,67060866,null,null,web
La Paz,Psicologia,Guery Zabala Gumucio,NA,76736012,null,null,web
La Paz,Psicologia,Vanessa Loayza Nuñez,NA,76285229,null,null,web
La Paz,Psicologia,Carmiña Guzman Cortez,NA,73736110,null,null,web
La Paz,Psicologia,Edwin Pocoaca Machaca,NA,70148022,null,null,web
La Paz,Psicologia,Alejandra Ramirez Tube,NA,76103623,null,null,web
La Paz,Psicologia,Zelma Ochoa Portugal,NA,67133153,null,null,web
La Paz,Psicologia,Indira Aguirre Nuñez,NA,68002876,null,null,web
La Paz,Psicologia,Elba Elena Prado,NA,72088676,null,null,web
La Paz,Psicologia,Monica Sebastian,NA,72547766,null,null,web
La Paz,Psicologia,Eve Gomez Ferrufino,NA,76731602,null,null,web
La Paz,Psicologia,Eliana Exalto Ruiz,NA,78931042,null,null,web
La Paz,Medico,Dra. Miriam Parada,NA,72551657,null,null,web
La Paz,Medico,Est. Fabrizzio Mora,NA,69927946,null,null,web
La Paz,Medico,Dra. Marisol Molina,NA,70615300,null,null,web
La Paz,Medico,Dra. Gabriela Hinojosa,NA,75820290,null,null,web
La Paz,Medico,Dra. Daniela Cordero,NA,77754204,null,null,web
La Paz,Medico,nadia Espinoza,NA,77233318,null,null,web
La Paz,Medico,Ricardo Guaraz,NA,70549270,null,null,web
La Paz,Medico,Raquel Guzman,NA,73026287,null,null,web
La Paz,Medico,Monica Alvarez,NA,68139939,null,null,web
La Paz,Medico,Mitel Aliaga,NA,73089923,null,null,web
La Paz,Medico,Ruddy Blanco,NA,73036035,null,null,web
La Paz,Medico,Fabrizzio Mora Polo,NA,69927946,null,null,web
La Paz,Medico,Jhonathan Alexis Balcazar,NA,77500727,null,null,web
La Paz,Medico,Kerly Villca Miranda,NA,73274652,null,null,web
La Paz,Medico,Luis Martinez,NA,79617517,null,null,web
La Paz,Medico,Yanela Vargas,NA,69762232,null,null,web
La Paz,Medico,Dora Cadena,NA,73749045,null,null,web
La Paz,Medico,Aramis Ardaya,NA,73218160,null,null,web
La Paz,Medico,Vanessa Chino,NA,76273572,null,null,web
La Paz,Medico,Carolina Bustillos,NA,68666681,null,null,web
La Paz,Medico,Pablo Baldiviezo,NA,71176825,null,null,web
La Paz,Ginecologia,Gabriela Hinojosa,NA,75820290,null,null,web
La Paz,Pediatria,Claudia Hernández,NA,75227906,null,null,web
La Paz,MedicinaInterna,Maria Lourdes Escalera,NA,77789985,null,null,web
La Paz,MedicinaInterna,Roxana Miranda,NA,69852255,null,null,web
La Paz,MedicinaInterna,Rosario Ruiz,NA,72557017,null,null,web
La Paz,MedicinaFamiliar,Ivonne Orihuela,NA,73710247,null,null,web
La Paz,Oncologia,Daniela Cordero,NA,77754204,null,null,web
La Paz,Imagenologia,Marco Sanchez,NA,76250797,null,null,web
La Paz,Cardiologia,Adriana Sanchez,NA,61011221,null,null,web
La Paz,Traumatologia,Victor Jorge Rocha,NA,70149600,null,null,web
La Paz,Fisioterapia,Miriam Parada,NA,72551657,null,null,web
La Paz,Fisioterapia,Ronald Alborta,NA,72088995,null,null,web
La Paz,Fisioterapia,Sheyla Aguilar,NA,69752802,null,null,web
La Paz,Fisioterapia,Ines Laura,NA,75228102,null,null,web
La Paz,Fisioterapia,Pamela Prieto,NA,70197881,null,null,web
La Paz,Fisioterapia,Hernesto Hernández,NA,65582563,null,null,web
La Paz,Fisioterapia,Ximena Tantani,NA,77583202,null,null,web
La Paz,Fisioterapia,Aydee Pinto,NA,70646633,null,null,web
La Paz,Enfermeria,Tania Cahuaya,NA,65639198,null,null,web
La Paz,Odontologia,Cristian Aguilar,NA,72092920,null,null,web
La Paz,Odontologia,Jacqueline Ustarez,NA,77216026,null,null,web
La Paz,Laboratorio,Marisol Molina,NA,70615300,null,null,web
La Paz,Psicologia,Gabriela Eduardo,NA,72552688,null,null,web
La Paz,Psicologia,Guisela Chain,NA,77774871,null,null,web
La Paz,Nutricion,Lucio Córdova,NA,70039537,null,null,web
La Paz,Psicomotricidad,Pamela Mamani,NA,79676634,null,null,web
